EVENT_NAME: 202302060117
EVENT_ID: 13194
EVENT_DATE_YYYYMMDD: 2023/02/06
EVENT_TIME_HHMMSS: 01:17:32.00000
EVENT_LATITUDE_DEGREE: 37.288
EVENT_LONGITUDE_DEGREE: 37.043
EVENT_DEPTH_KM: 8.6
HYPOCENTER_REFERENCE: AFAD
MAGNITUDE_W: 7.7
MAGNITUDE_W_REFERENCE: AFAD
MAGNITUDE_L: 
MAGNITUDE_L_REFERENCE: 
FOCAL_MECHANISM: 
NETWORK: TK
STATION_CODE: 3124
STATION_NAME: 
STATION_LATITUDE_DEGREE: 36.2387
STATION_LONGITUDE_DEGREE: 36.1722
STATION_ELEVATION_M: 84.0
LOCATION: Kahramanmaras_Pazarck_Turkiye
SENSOR_DEPTH_M: 
VS30_M/S: 283
SITE_CLASSIFICATION_EC8: C
MORPHOLOGIC_CLASSIFICATION: 
EPICENTRAL_DISTANCE_KM: 140.11
EARTHQUAKE_BACKAZIMUTH_DEGREE: 
DATE_TIME_FIRST_SAMPLE_YYYYMMDD_HHMMSS: 2023/02/06 01:17:36.1852460
DATE_TIME_FIRST_SAMPLE_PRECISION: millisecond
SAMPLING_INTERVAL_S: 0.01
NDATA: 12501
DURATION_S: 
STREAM: HNN
UNITS: cm/s^2
INSTRUMENT: sensor = GMS+/GEOSIG | digitizer = 
INSTRUMENT_ANALOG/DIGITAL: 
INSTRUMENTAL_FREQUENCY_HZ: 
INSTRUMENTAL_DAMPING: 
FULL_SCALE_G: 
N_BIT_DIGITAL_CONVERTER: 
PGA_CM/S^2: 572.632
TIME_PGA_S: 
BASELINE_CORRECTION: BASELINE REMOVED
FILTER_TYPE: BUTTERWORTH
FILTER_ORDER: 
LOW_CUT_FREQUENCY_HZ: 
HIGH_CUT_FREQUENCY_HZ: 
LATE/NORMAL_TRIGGERED: 
DATABASE_VERSION: 
HEADER_FORMAT: DYNA 1.2
DATA_TYPE: Acceleration
PROCESSING: Automatic Paolucci et al., 2011
DATA_TIMESTAMP_YYYYMMDD_HHMMSS: 
DATA_LICENSE: U (unknown license)
DATA_CITATION: Turkish Accelerometric Archive v 1.0 - Disaster And Emergency Management Presidency, Earthquake Department
DATA_CREATOR: AFAD
ORIGINAL_DATA_MEDIATOR_CITATION: : AFAD - Disaster And Emergency Management Presidency
ORIGINAL_DATA_MEDIATOR: AFAD PROCESS SERVICE
ORIGINAL_DATA_CREATOR_CITATION: AFAD PROCESS SERVICE
ORIGINAL_DATA_CREATOR: network: TK
USER1: GuestUser
USER2: 
USER3: 
USER4: 
USER5: 
[...]
1.750485
3.675844
5.439627
8.107142
11.114954
12.997451
12.980785
10.947280
7.508431
3.527706
-0.395350
-4.029804
-7.374877
-10.303802
-12.857362
-15.275063
-17.283630
-18.273906
-18.026648
-16.955666
-15.911700
-15.469876
-15.778781
-16.707493
-18.037286
-19.922983
-22.189499
-24.101172
-25.007544
-24.682356
-23.688785
-22.582214
-21.264193
-19.571846
-17.807024
-15.950244
-13.416509
-9.773565
-5.154153
-0.830357
1.885215
2.005966
-0.458493
-4.585987
-9.768139
-14.673897
-18.185221
-19.756079
-19.927048
-20.457015
-22.653654
-26.880899
-32.077857
-36.670076
-39.246235
-39.187829
-36.978284
-33.989435
-31.439335
-29.451632
-28.257780
-28.227168
-28.741290
-28.393762
-26.590494
-23.414093
-19.473715
-15.326302
-10.766896
-6.497392
-3.699732
-2.262737
-0.383098
3.382197
8.967686
15.725507
22.300452
27.367703
30.721785
32.855738
34.268574
35.785318
38.397763
42.768577
48.773850
55.080195
59.692593
61.235573
60.046834
57.144666
53.466051
50.236055
48.538171
48.540727
49.322847
49.741552
48.968701
46.736215
43.470111
40.153613
37.979054
37.138404
36.639609
35.849094
34.520080
32.088091
28.079052
22.893004
17.885156
14.362662
13.590331
15.967426
20.573070
25.967889
30.795115
34.666655
36.836975
36.972013
36.092917
34.647268
32.594021
29.927202
26.715390
22.818830
18.204791
13.071736
7.258608
0.619158
-6.475145
-13.269936
-19.580259
-25.395465
-30.341488
-34.118035
-36.248952
-36.717875
-36.694277
-36.520014
-35.622557
-34.878623
-34.905680
-35.045217
-35.097731
-35.530545
-36.786305
-38.446003
-39.587205
-39.576855
-38.423787
-36.714295
-34.754128
-32.491071
-30.510641
-29.825675
-30.649700
-32.922191
-36.498976
-40.537889
-44.062462
-45.928676
-45.180845
-41.725713
-36.324919
-30.785669
-26.463432
-22.910108
-19.511605
-16.265067
-12.875916
-9.149067
-5.619122
-3.083309
-1.550719
-0.150092
1.870082
5.175068
10.099967
15.876126
21.693847
27.049441
31.289072
34.214537
35.778559
35.792545
34.742262
33.643402
32.697806
31.968596
31.679433
30.258981
26.123175
19.767911
12.867135
7.093752
3.610483
3.371975
5.752187
9.046522
11.518693
11.591386
9.636592
7.230580
5.572440
4.757247
4.445484
4.523114
4.528008
4.431593
4.164510
3.322821
1.975364
0.303196
-1.638091
-4.529609
-8.784908
-13.120216
-16.068623
-17.090332
-16.698643
-15.669743
-13.882062
-11.516656
-9.690009
-9.006341
-9.167179
-9.778714
-10.774186
-11.598990
-11.180545
-9.129719
-5.408844
-0.655912
4.264311
9.198302
13.687570
17.126077
18.991949
19.574047
19.951969
21.092828
23.705013
27.202487
30.174711
31.158151
29.420262
25.515649
20.454809
15.360979
10.880980
6.855056
2.272708
-2.814628
-6.538442
-7.673929
-7.248470
-7.806753
-9.981571
-12.239515
-13.114195
-12.223232
-9.905364
-6.799880
-3.706085
-0.739577
1.707916
2.724086
1.799271
-0.492442
-3.481893
-6.603565
-8.816829
-9.491228
-8.573769
-6.796738
-4.644602
-2.301276
-0.230448
1.132513
1.904503
2.966133
4.309871
4.993279
4.885954
4.483532
3.828876
3.072131
2.560087
3.056982
4.980522
6.840159
7.513437
7.424555
6.993559
5.925352
3.853402
1.279320
-1.024083
-2.535454
-3.507547
-4.937351
-7.422592
-10.609986
-13.531896
-15.531891
-15.867033
-13.959078
-10.421860
-6.577596
-3.789548
-3.075487
-5.186662
-9.982798
-16.204801
-22.323156
-26.529100
-27.891364
-27.381481
-26.172562
-24.940264
-24.715086
-26.165152
-28.399717
-29.490264
-28.039242
-24.638921
-21.616043
-20.136446
-18.937918
-17.330515
-16.873105
-18.593329
-21.582260
-24.522614
-26.186729
-25.641777
-22.925165
-18.544221
-13.099007
-7.515596
-2.764742
0.376331
1.675129
1.608847
0.771054
-1.278036
-5.336951
-10.603008
-14.966630
-17.579937
-20.006990
-23.154639
-24.858758
-21.638196
-12.440115
0.865417
15.084032
27.291265
36.817433
43.358348
45.781682
43.754152
39.111539
34.666609
31.887051
30.658567
29.936111
29.198589
28.375863
27.411563
25.689520
22.261841
17.975629
14.860971
14.366331
16.645754
20.177257
22.935172
22.890191
18.428636
10.603086
2.290731
-4.173895
-7.392720
-6.780489
-3.423029
-0.444572
0.287933
-0.760012
-2.459975
-2.919805
-1.403841
0.992737
3.455815
5.763033
7.478499
7.505473
5.840580
3.818765
2.374674
2.052001
2.505254
2.628863
1.925630
0.306455
-2.855481
-7.583818
-13.021581
-19.140196
-25.555726
-30.745411
-34.117499
-36.188151
-37.134526
-36.292919
-32.911562
-28.070308
-23.965237
-20.661030
-16.499069
-11.281672
-6.773181
-4.240485
-3.391605
-3.054207
-2.252605
-0.852237
0.898038
1.757829
0.126964
-4.511233
-10.979755
-16.461159
-18.483234
-15.695186
-8.253136
1.834390
11.898018
20.100149
26.216344
30.442207
32.031686
30.800864
28.236134
25.704135
23.668812
20.783788
15.401356
8.570198
2.486651
-2.045301
-5.259191
-7.247756
-9.256063
-11.975614
-13.456592
-11.653325
-6.658808
-0.534301
4.248505
6.242442
6.843504
8.316607
10.301452
11.084611
10.046797
7.325168
3.749421
0.538908
-2.609001
-4.875777
-4.970114
-3.835749
-2.835424
-3.222779
-4.449964
-4.701720
-3.420846
-1.091288
1.956268
4.937324
6.353537
5.210257
1.644382
-2.162299
-3.990327
-3.135472
0.059633
5.806177
14.150921
22.234598
27.351465
29.258380
28.322655
25.217868
22.432335
22.523212
25.916779
30.589444
32.363358
28.971007
22.109975
14.308844
7.147780
2.003295
-0.156716
0.858415
3.550089
5.806652
7.070382
7.097616
5.458180
2.272345
-1.651491
-5.173466
-6.681979
-5.420328
-2.467327
0.414497
1.663680
0.940185
-1.765859
-6.213387
-11.013160
-13.977153
-14.621419
-15.357642
-17.621820
-20.455410
-21.914048
-20.467961
-16.165207
-10.493995
-5.703915
-3.293570
-3.765869
-6.796363
-10.456275
-13.199985
-15.644961
-18.683508
-22.167816
-25.068686
-26.400557
-25.987048
-24.109747
-20.566293
-14.477894
-5.984303
3.117404
10.892996
16.672531
20.312098
21.488027
20.397220
18.768953
19.251301
22.706173
28.201782
34.141335
39.513554
44.363899
48.358050
50.709687
51.708714
53.289880
55.879465
58.050045
58.742285
57.524971
54.489542
49.809782
44.520086
38.900485
31.842290
23.988945
16.902695
10.310782
2.814359
-5.762960
-13.962835
-20.467985
-25.078387
-28.386313
-31.336019
-34.267281
-36.919034
-39.361673
-41.821196
-44.010302
-45.903792
-48.293178
-51.855157
-56.945351
-62.453511
-66.223045
-67.325021
-66.036094
-63.540545
-60.811984
-57.860022
-54.241496
-49.807819
-45.422977
-41.373756
-37.243228
-33.809397
-32.535536
-33.813895
-36.785421
-40.011780
-41.580820
-40.569325
-36.820655
-30.239736
-22.422061
-14.730374
-7.557444
-2.403430
-0.204016
-0.274714
-1.522680
-2.942353
-3.926135
-3.486389
-0.538065
4.768173
11.379486
17.303192
21.290848
23.772370
25.083897
25.750420
26.094052
25.719945
24.936963
24.547790
24.398902
23.843736
22.845927
21.681086
20.509751
18.929542
16.175701
12.539428
9.408404
7.418021
6.328254
6.329771
7.135790
7.224070
5.526964
2.243976
-1.852345
-4.973498
-4.832485
-0.816774
6.161071
14.182923
20.386139
23.050538
21.935313
17.062285
10.265936
4.964291
3.845949
7.876727
14.578178
19.808304
20.955918
17.351077
10.329249
2.789444
-2.169827
-4.039417
-4.296629
-3.509314
-2.525614
-1.979623
-1.178020
0.240012
3.968160
11.204733
19.969782
27.383257
32.292830
36.336855
39.759516
41.386921
40.855914
38.633818
36.509655
35.804604
37.295630
40.818042
45.395891
49.575256
51.518539
50.717633
47.943530
45.298272
44.424112
44.446151
43.882153
41.349894
35.347136
26.222227
16.752086
10.285642
8.298896
9.245189
11.060406
13.312034
16.023969
18.390674
19.499062
20.070251
21.054211
21.747230
21.298829
19.947735
18.948367
19.347589
19.959561
18.457542
14.038588
7.592406
0.414198
-7.645922
-16.952409
-26.715828
-36.607052
-46.098754
-53.856504
-58.022444
-57.155379
-52.496743
-47.573922
-44.042938
-40.841599
-37.432966
-34.350860
-32.672281
-32.691805
-33.578954
-34.204516
-34.534463
-35.494606
-36.216283
-35.516509
-33.480229
-30.689064
-27.616051
-24.511086
-21.383781
-18.163999
-14.859792
-11.188274
-6.978776
-2.916306
-1.172785
-2.609603
-6.428752
-11.215537
-14.627889
-15.661547
-14.134413
-10.579530
-5.164449
2.698165
12.363569
22.510582
30.929100
36.048825
37.746887
36.260193
32.773807
29.383535
27.745137
28.195014
30.327408
34.015811
39.634810
46.525113
53.038493
58.053531
60.827551
61.319251
61.159452
61.700768
62.187791
62.518694
63.345494
63.167512
59.978820
54.192708
47.207247
39.421702
32.055162
28.005339
29.344921
34.880274
41.936309
48.630487
52.650355
53.067241
50.549269
45.909253
41.258587
38.270435
38.508342
42.293119
48.033170
54.773327
59.569121
58.996032
52.959763
43.272716
30.502744
16.053631
4.352344
-2.418808
-3.793021
-1.375922
0.268368
-1.265863
-5.866654
-12.480646
-20.315288
-27.191905
-30.032509
-28.500439
-25.890072
-25.789583
-28.699545
-34.326159
-41.831935
-49.255624
-53.337138
-52.359413
-47.346453
-38.822729
-28.491281
-18.471294
-11.170298
-9.750447
-14.099004
-20.939514
-27.967576
-34.723921
-41.556378
-49.660919
-59.252891
-69.188276
-77.323729
-80.018083
-75.792219
-69.200650
-65.615634
-64.814291
-64.537419
-64.930489
-67.641988
-72.181734
-74.576835
-71.333674
-63.462227
-55.057218
-48.566698
-44.780102
-43.060739
-40.130079
-34.373922
-28.809735
-28.560658
-33.415762
-37.377004
-37.056232
-34.252079
-33.906888
-36.375504
-36.937423
-32.980160
-24.477478
-11.778504
7.405835
33.096322
56.976487
71.829975
77.345586
74.612007
67.334048
56.826914
41.023631
24.269858
14.153415
13.444207
19.563779
32.707475
54.122441
81.037994
106.644835
121.226607
120.557144
108.452437
93.130764
79.719684
68.018916
54.906050
43.446867
42.184873
45.140731
40.797110
29.579770
16.380402
2.869311
-8.318675
-14.608477
-18.613100
-19.913799
-12.671771
2.399663
15.323336
16.405228
4.745244
-11.688495
-26.687017
-36.283405
-35.889118
-23.636166
-1.483199
20.728736
30.154114
21.051025
1.666063
-19.174899
-38.931330
-47.210175
-41.361282
-30.766948
-18.794026
-9.567890
-11.852070
-27.183095
-45.354422
-53.648073
-46.337726
-24.311006
8.841834
47.389275
73.352258
70.894553
51.752213
29.410572
8.566753
-1.746595
1.566964
17.823199
41.596079
59.673807
65.114865
60.247033
44.705336
18.122724
-8.124528
-19.361870
-7.139830
25.601797
62.647000
88.069406
83.827355
47.415644
4.516749
-34.695780
-63.699430
-73.814574
-69.720673
-45.938961
-11.669378
22.413171
39.575477
10.348427
-33.239632
-48.494285
-38.478974
-26.799330
-22.850639
-1.068880
35.861246
58.923920
50.991086
18.043380
-15.561798
-50.076424
-84.470258
-104.071347
-98.513914
-70.684757
-45.338723
-30.487312
-31.320429
-53.683891
-79.187687
-103.988292
-135.483635
-173.413949
-202.881024
-205.128058
-193.024733
-184.650375
-177.078701
-155.619314
-119.526681
-88.627847
-77.810373
-86.145327
-98.010528
-112.323262
-132.394532
-142.028326
-130.526364
-96.465375
-51.408410
-4.121337
39.996047
52.098074
21.589069
-16.169279
-19.498246
-17.817589
-42.296341
-37.111154
2.323913
37.130955
55.429226
36.265066
-5.386164
-38.532852
-52.916243
-49.099774
-37.276997
-19.783487
7.257014
35.122018
29.261352
-18.494164
-55.704921
-58.020274
-57.160224
-60.174612
-50.949774
-27.402113
7.633525
30.231474
20.346225
3.906251
2.423714
5.595699
10.738803
13.209415
5.713770
4.753886
14.569176
24.176392
26.836114
19.457105
8.213269
-5.003764
-18.904506
-40.594390
-75.082779
-107.694864
-132.538331
-158.214613
-184.023376
-186.583171
-155.494187
-111.804380
-76.029183
-57.550114
-54.516585
-52.512777
-41.705953
-31.286443
-22.769733
-0.295433
28.600071
39.805639
36.362633
31.271660
14.915072
-15.170770
-41.644020
-60.952871
-74.140031
-71.427056
-59.436729
-58.469395
-62.502853
-53.297238
-39.285397
-40.433873
-55.521495
-59.972140
-49.222724
-46.841733
-66.155000
-87.900993
-73.529114
-42.079572
-24.293044
5.477618
48.844273
84.417890
91.119342
75.944438
75.612153
68.011043
24.523254
-34.001722
-82.617330
-95.884238
-73.968439
-26.914119
54.939752
139.218037
212.787129
280.298433
283.073233
232.731467
196.237929
181.457093
186.208207
209.255036
226.378636
215.497176
190.781256
169.920812
130.655550
79.401999
68.860835
96.046027
144.611937
203.757674
224.898066
212.369938
206.086630
212.352191
220.996187
227.851422
238.040517
260.119970
293.746108
315.656971
306.428415
277.682455
253.950016
244.354668
250.441509
259.896760
265.862289
267.313571
248.915986
220.429015
190.995450
168.950724
167.121657
171.142303
176.688047
191.162275
207.129648
211.460198
197.677391
175.602791
160.887416
150.846046
138.928372
134.010924
147.069416
164.789444
174.759815
195.121942
229.429711
266.403737
296.001393
304.321199
292.392874
267.211970
231.192249
195.754407
168.103889
143.062480
130.370178
117.694241
76.805430
21.988123
-31.091077
-78.159508
-111.005904
-115.924391
-92.830804
-67.608679
-44.200513
-19.851468
-2.502389
-5.927730
-34.348460
-57.402644
-62.264242
-64.210725
-80.102588
-118.518668
-168.679636
-226.120859
-283.602346
-323.266092
-345.422519
-361.357763
-392.918049
-434.685655
-442.314041
-431.034179
-447.039042
-483.189167
-514.490723
-526.710507
-525.899813
-528.709763
-536.795341
-545.706981
-557.233964
-568.533909
-572.632309
-555.752631
-493.673074
-408.375980
-345.877677
-306.120497
-267.951279
-216.226071
-157.705854
-106.864897
-62.234471
-24.807410
-1.382359
12.422966
27.940422
39.689684
48.070535
63.700990
77.984547
86.972996
77.550393
29.405744
-33.804405
-82.832525
-120.630877
-160.226044
-204.240643
-235.758845
-239.944787
-222.442705
-204.638512
-210.898181
-242.104922
-282.703832
-341.059958
-423.994026
-499.284683
-526.868181
-486.498209
-411.252834
-362.983319
-348.387780
-334.153578
-305.953993
-280.454436
-270.451853
-276.861928
-289.005600
-280.343420
-257.120468
-226.605052
-178.691419
-129.633769
-95.131175
-80.929184
-79.468290
-57.083610
-16.673893
-16.740695
-50.234173
-69.383266
-67.044357
-33.204431
2.146565
18.320974
48.700272
96.860684
151.091093
201.261849
241.218531
278.313349
311.217591
337.585813
365.883071
390.053396
390.872403
366.864870
338.247495
321.805703
317.262061
330.572788
357.312997
361.579904
335.859201
304.293721
270.488781
234.804420
203.916414
178.479898
155.517152
135.278072
118.615217
95.687020
57.172228
13.211401
-8.314309
-6.754703
-4.053678
-11.866759
-28.806526
-31.544781
1.465446
56.953912
92.204118
96.633120
83.543633
64.089312
46.133593
19.460581
-7.333482
-31.833016
-60.561831
-94.446000
-136.140871
-169.052729
-178.500529
-156.766308
-105.495175
-44.993968
17.660196
87.043647
146.993367
175.328032
155.515751
104.005289
57.892804
21.239250
-21.260383
-71.631502
-107.030378
-130.026634
-141.746625
-127.509825
-115.318698
-105.177919
-81.796509
-60.250360
-32.389252
10.573983
59.347967
98.938116
114.177620
114.477091
119.844634
138.517751
169.510361
213.507992
273.112480
340.160098
407.576068
455.212268
444.344836
379.502565
312.766326
274.620404
259.028053
257.344975
268.628733
291.929096
317.153299
334.386522
342.110160
330.921655
294.313299
252.891704
232.918887
234.287822
237.314337
231.763315
230.866036
247.294497
270.722665
287.815873
294.187419
291.392535
291.230139
299.911542
306.368292
294.777666
263.569886
221.567709
168.325115
118.970467
114.200307
149.455449
173.114031
169.624268
155.069170
139.945181
129.466621
109.669407
72.308244
32.600597
-8.594740
-46.334644
-80.419614
-121.093337
-153.112892
-172.768793
-184.677635
-187.276654
-179.395596
-148.638076
-86.657491
-11.448224
42.781406
61.581029
51.931129
29.509479
7.584506
-11.250788
-28.843352
-46.091204
-57.819767
-53.060860
-27.807043
5.066027
36.235279
66.525477
92.163231
112.386902
115.101175
103.689789
107.377933
127.615371
164.218449
196.852792
175.283181
103.175461
25.409216
-43.420493
-108.954526
-162.142828
-193.170590
-194.401411
-176.583711
-163.714329
-160.611443
-164.085101
-164.514279
-153.470546
-134.202561
-114.283858
-96.608251
-83.245570
-78.646420
-73.552153
-66.256352
-74.563771
-94.519964
-109.773318
-117.473919
-119.017501
-119.227175
-116.888006
-118.423016
-121.364669
-114.938312
-102.633926
-77.691571
-46.234496
-21.240706
-3.994755
22.125907
66.750878
113.254231
149.220877
166.969999
176.067550
174.952585
158.610024
123.757959
56.275407
-27.442900
-112.280548
-188.075673
-249.468227
-303.422585
-338.375699
-350.953703
-342.654679
-322.131236
-314.895441
-314.784042
-309.764328
-314.177566
-337.633352
-368.135863
-365.905277
-323.975138
-288.734024
-272.224515
-257.484025
-239.556703
-216.800814
-197.621930
-185.069206
-166.401025
-127.003104
-66.609701
-2.105730
52.720587
86.466737
99.489381
100.514644
85.438712
58.584902
26.352077
-13.337645
-56.914015
-99.268697
-132.087298
-160.280991
-189.045914
-199.009613
-185.317287
-149.873294
-95.930968
-58.552223
-63.610725
-92.812837
-108.336350
-88.089819
-51.113455
-30.746392
-26.927585
-34.324258
-54.223302
-76.995119
-102.125109
-125.323465
-130.959950
-127.614700
-136.897028
-161.056266
-202.327455
-248.338370
-273.491740
-273.781942
-247.673228
-198.987306
-133.993153
-64.354609
-19.403110
-6.365399
-7.225532
-14.320874
-29.472919
-43.865921
-52.287898
-57.595518
-67.790411
-92.947676
-125.556385
-157.416962
-187.523586
-213.846430
-232.160110
-234.992661
-213.083356
-177.186328
-140.871073
-119.392723
-134.132775
-153.840889
-163.495465
-172.402689
-176.244178
-184.363006
-196.654746
-209.198720
-194.575905
-145.020539
-85.682573
-22.761368
32.474863
76.322348
116.367091
155.961916
193.932931
221.423350
237.967148
253.095731
276.294524
298.305658
308.937139
319.328074
333.888285
348.296531
351.980259
345.702147
339.167384
333.129816
329.123374
321.542006
311.708450
302.570033
295.975004
293.655495
288.560626
280.419458
269.500332
257.828658
243.541381
223.528040
206.186931
190.209084
169.294348
143.541694
116.574626
93.802549
67.743369
28.317051
-22.435408
-79.096808
-134.457030
-183.890388
-223.397493
-241.840278
-236.989413
-215.134919
-176.563320
-126.205790
-72.365553
-18.095399
27.299524
50.520138
51.759969
42.099938
26.438488
6.182004
-14.335287
-29.170674
-32.816818
-26.396175
-10.635058
11.249829
31.668846
41.368019
31.647462
8.568600
-19.532096
-51.760245
-85.631685
-116.756600
-138.033192
-144.763041
-138.062109
-115.822379
-80.152908
-41.134768
-3.953966
30.037145
64.495059
104.080272
141.367579
165.025122
173.741593
173.020956
168.887487
165.313819
162.764675
159.929267
158.579991
162.259303
170.750296
185.159321
208.036262
232.358811
248.105122
245.474671
223.926620
205.292907
199.142600
196.734770
188.285517
172.911631
156.870921
140.840601
132.259906
125.151835
113.423272
106.473659
101.646091
101.727357
108.887819
106.993030
95.362400
86.343476
75.211860
56.163816
28.109359
