EVENT_NAME: 202302060117
EVENT_ID: 13194
EVENT_DATE_YYYYMMDD: 2023/02/06
EVENT_TIME_HHMMSS: 01:17:32.00000
EVENT_LATITUDE_DEGREE: 37.288
EVENT_LONGITUDE_DEGREE: 37.043
EVENT_DEPTH_KM: 8.6
HYPOCENTER_REFERENCE: AFAD
MAGNITUDE_W: 7.7
MAGNITUDE_W_REFERENCE: AFAD
MAGNITUDE_L: 
MAGNITUDE_L_REFERENCE: 
FOCAL_MECHANISM: 
NETWORK: TK
STATION_CODE: 3112
STATION_NAME: 
STATION_LATITUDE_DEGREE: 36.58801
STATION_LONGITUDE_DEGREE: 36.14766
STATION_ELEVATION_M: 1.0
LOCATION: Kahramanmaras_Pazarck_Turkiye
SENSOR_DEPTH_M: 
VS30_M/S: 233
SITE_CLASSIFICATION_EC8: C
MORPHOLOGIC_CLASSIFICATION: 
EPICENTRAL_DISTANCE_KM: 111.31
EARTHQUAKE_BACKAZIMUTH_DEGREE: 
DATE_TIME_FIRST_SAMPLE_YYYYMMDD_HHMMSS: 2023/02/06 01:17:31.2356490
DATE_TIME_FIRST_SAMPLE_PRECISION: millisecond
SAMPLING_INTERVAL_S: 0.01
NDATA: 6576
DURATION_S: 
STREAM: HNN
UNITS: cm/s^2
INSTRUMENT: sensor = CMG-5T/GURALP | digitizer = 
INSTRUMENT_ANALOG/DIGITAL: 
INSTRUMENTAL_FREQUENCY_HZ: 
INSTRUMENTAL_DAMPING: 
FULL_SCALE_G: 
N_BIT_DIGITAL_CONVERTER: 
PGA_CM/S^2: 171.859
TIME_PGA_S: 
BASELINE_CORRECTION: BASELINE REMOVED
FILTER_TYPE: BUTTERWORTH
FILTER_ORDER: 
LOW_CUT_FREQUENCY_HZ: 
HIGH_CUT_FREQUENCY_HZ: 
LATE/NORMAL_TRIGGERED: 
DATABASE_VERSION: 
HEADER_FORMAT: DYNA 1.2
DATA_TYPE: Acceleration
PROCESSING: Automatic Paolucci et al., 2011
DATA_TIMESTAMP_YYYYMMDD_HHMMSS: 
DATA_LICENSE: U (unknown license)
DATA_CITATION: Turkish Accelerometric Archive v 1.0 - Disaster And Emergency Management Presidency, Earthquake Department
DATA_CREATOR: AFAD
ORIGINAL_DATA_MEDIATOR_CITATION: : AFAD - Disaster And Emergency Management Presidency
ORIGINAL_DATA_MEDIATOR: AFAD PROCESS SERVICE
ORIGINAL_DATA_CREATOR_CITATION: AFAD PROCESS SERVICE
ORIGINAL_DATA_CREATOR: network: TK
USER1: GuestUser
USER2: 
USER3: 
USER4: 
USER5: 
[...]
-18.471135
-19.195641
-20.285665
-20.768702
-21.740399
-23.701763
-26.095787
-28.231479
-28.606426
-27.428677
-25.907390
-24.029317
-22.013347
-20.385776
-18.303266
-15.789603
-13.634832
-11.874182
-10.540170
-9.663807
-8.518274
-6.720591
-3.889884
0.576919
5.793423
10.387585
13.874657
14.947930
13.424644
11.145334
9.955049
10.458669
12.290676
14.627301
16.233495
15.938637
13.924582
11.957498
10.847000
11.538497
13.602640
15.220275
16.031603
16.380766
15.710455
14.063123
11.759425
9.716767
8.891397
9.236947
10.082599
11.144431
11.809733
11.746710
11.817370
11.725443
11.479963
12.413833
15.208409
18.812302
22.837714
26.105596
27.418231
27.573495
26.782750
25.723738
26.045502
27.308157
28.698473
30.427810
31.976496
32.325960
30.801470
26.900214
21.051540
14.557039
8.899855
3.919811
-0.294272
-3.119751
-6.037963
-10.164430
-13.981984
-17.094999
-20.469657
-23.705514
-26.439162
-28.791335
-30.669900
-31.854465
-31.801269
-29.387866
-24.731681
-18.523402
-13.296961
-11.296045
-12.401425
-15.036918
-17.816331
-19.169503
-18.906150
-17.684743
-16.413055
-15.215435
-13.949166
-13.525334
-14.409115
-15.114352
-15.739501
-17.684004
-19.329831
-18.945441
-16.960784
-14.118034
-11.083493
-9.324349
-8.652122
-8.621206
-8.017325
-4.824714
0.978305
7.323879
14.083746
21.743857
28.716290
33.912020
37.679704
39.814000
40.493453
40.426216
39.624330
39.215361
39.105369
37.882265
35.849845
33.697292
31.363786
30.455317
31.541837
33.341929
35.126365
36.460979
36.572887
35.329310
32.201843
27.331093
21.940972
15.522946
8.723445
3.627785
0.706260
-0.750184
-2.218973
-4.964363
-7.483337
-9.539543
-12.006429
-14.315246
-16.530425
-18.794982
-20.479348
-22.670741
-25.782852
-27.851704
-28.064065
-27.675761
-27.323587
-27.928563
-29.873367
-31.366243
-32.153677
-31.931572
-29.151447
-24.424507
-19.634941
-15.522515
-12.641528
-10.279611
-7.685858
-5.313403
-3.561786
-3.137954
-4.345100
-6.509396
-9.030477
-10.888870
-11.011508
-9.668463
-8.388345
-8.016299
-8.042891
-7.850894
-7.381297
-6.693414
-6.284034
-7.280420
-9.393531
-12.543880
-16.047102
-18.197848
-18.391542
-15.936891
-10.395816
-4.202892
-0.007367
1.621407
0.618698
-2.699657
-7.012194
-12.099123
-16.540827
-18.730413
-19.491953
-18.669786
-15.413345
-12.728063
-12.990103
-15.372083
-18.629317
-21.940747
-24.895692
-26.121505
-24.101922
-19.617054
-15.501016
-12.670309
-11.492560
-12.335092
-14.398223
-16.041641
-15.701511
-12.070520
-6.663730
-1.073879
4.127571
8.411615
11.637345
13.438943
13.657134
12.767633
10.636757
8.825635
9.398805
11.620717
15.143919
19.800406
23.837861
26.221757
28.062496
29.625634
30.006411
29.532407
29.046360
29.567442
31.430461
33.805024
36.070894
37.521126
38.231591
38.594905
38.298240
36.658134
34.135246
30.908120
26.997229
23.152277
19.960076
17.506438
15.677551
14.072070
12.420823
9.926237
6.609087
3.305786
0.458629
-1.065559
-0.462582
0.959047
2.571261
3.605694
3.532736
3.581115
3.356108
2.391637
1.085434
-0.715452
-3.200704
-5.240652
-6.667590
-7.308094
-6.549455
-4.652414
-2.659025
-0.742112
0.217350
-0.863039
-2.669946
-3.797907
-4.645858
-5.416732
-7.046301
-9.829025
-13.704086
-18.556771
-23.056885
-26.682045
-29.409972
-30.863707
-30.787026
-29.982622
-28.894898
-27.479592
-26.537593
-27.034178
-28.230485
-29.782373
-31.867785
-33.312487
-32.700778
-29.911621
-25.885005
-21.494978
-17.536106
-15.786295
-16.194663
-16.731593
-17.349817
-17.079839
-14.670050
-11.618648
-7.878062
-2.389678
3.198065
8.972180
14.085412
15.797888
16.343660
17.026124
16.602402
17.378503
19.445357
21.679613
25.057994
28.455643
29.538551
28.295877
24.909778
19.290229
13.476180
9.715230
8.600517
8.843999
9.929616
10.586187
9.556380
8.623824
8.748377
8.894007
8.040636
6.353861
5.199405
4.746477
5.079080
6.186375
6.925745
7.748816
9.402881
9.734280
8.522317
7.188715
5.367656
2.567469
0.554619
-0.129542
0.070283
0.774425
1.375596
1.135536
0.325521
-0.144870
-0.935615
-3.225764
-6.340285
-9.123009
-12.087589
-14.263627
-13.983412
-11.467942
-8.735389
-6.049505
-2.675641
0.871046
4.182585
7.277644
9.563989
12.021651
14.879154
15.978621
15.588018
14.676537
12.150638
8.434249
5.472981
4.318224
4.620417
5.192383
4.678335
2.863600
0.266042
-3.435293
-8.077820
-11.353119
-11.243620
-9.226145
-7.524508
-4.762449
-1.145609
1.309945
2.640044
1.828523
-1.574436
-6.083884
-10.568341
-12.900040
-11.256211
-6.883347
-1.215516
4.116305
7.224010
8.500214
7.746803
4.641917
0.585904
-4.349278
-8.642847
-10.867360
-11.870370
-10.965103
-8.962080
-7.277303
-5.324260
-4.085993
-3.060292
-1.077742
-0.990222
-3.484206
-5.359159
-5.907832
-4.338672
-0.248526
4.599149
10.571679
16.552639
20.100229
21.784704
21.740349
20.044843
17.891386
15.718961
14.703908
15.684446
17.782913
19.467991
18.906672
16.589125
14.396527
13.040043
13.237158
15.342249
18.953970
23.464129
27.175510
28.119918
27.064820
24.428724
20.470864
17.297030
16.206705
16.929816
18.987637
20.648627
19.449611
14.416877
6.776145
-2.533804
-10.746899
-15.380996
-16.309638
-13.522589
-8.643601
-4.431817
-3.744235
-6.541411
-10.800356
-15.055085
-18.734742
-21.875457
-25.142627
-27.454454
-27.902565
-27.751817
-26.609596
-23.480213
-20.387864
-17.704087
-14.876090
-13.169335
-11.668822
-8.999196
-6.322345
-4.127530
-3.559478
-6.064903
-9.687354
-13.330881
-17.528705
-20.926847
-22.349570
-21.741775
-20.249091
-18.729912
-18.208528
-19.783901
-20.958831
-20.274861
-18.795124
-15.899082
-12.299404
-9.404567
-7.147126
-5.759822
-5.233621
-5.755196
-7.247470
-8.469670
-8.806981
-8.209724
-6.141666
-4.546914
-5.008875
-7.254162
-9.412436
-9.335153
-7.235481
-3.164003
2.507742
6.401279
7.122583
4.907705
1.497519
-0.633958
-0.777972
0.705378
3.620690
7.322134
10.312114
11.283018
10.519672
8.911781
5.890899
4.675021
6.634387
8.747909
10.286057
10.625284
9.398868
8.007157
6.258058
4.545089
3.894348
3.781346
3.701462
4.279751
4.329033
3.379315
2.442543
-0.462121
-4.259502
-6.313901
-8.348429
-10.217662
-9.403924
-7.188636
-5.239808
-3.203364
-3.137823
-5.984378
-10.046714
-13.748350
-17.428007
-21.090803
-24.827365
-29.399137
-34.017276
-37.086634
-37.321877
-35.245991
-32.804588
-30.293634
-27.190746
-24.194744
-21.001833
-18.475824
-17.336313
-14.571845
-8.706502
-1.957173
5.470802
13.010781
18.159541
19.499274
19.115295
18.911364
18.493061
19.255915
22.291360
24.956770
27.080228
29.669163
31.177503
32.064705
33.925617
36.143013
38.280922
38.483156
35.301192
31.853672
29.030000
24.434141
19.348417
14.854625
9.800214
5.882700
2.373156
-1.960157
-4.538444
-6.037041
-8.418720
-9.511755
-8.760342
-7.311014
-6.193181
-6.503093
-8.101349
-10.756714
-13.832093
-15.747091
-16.054895
-15.008118
-12.374020
-9.496646
-6.307648
-2.256343
-0.843446
-2.037646
-2.943405
-2.223306
0.079599
2.624876
6.259179
11.187545
13.675918
13.816128
13.361393
11.056491
7.354554
3.732103
1.134546
0.362468
0.341296
0.539013
0.961340
1.403237
1.946901
1.290138
1.067541
3.128071
5.350887
7.380406
10.585060
13.669280
15.921602
16.466771
15.119018
13.784513
12.891399
13.564831
16.081806
18.071281
19.521813
20.105823
19.154298
15.208783
8.389711
0.838702
-6.826720
-11.663146
-12.570712
-11.853021
-8.114844
-2.640008
1.342048
4.581327
3.950458
-2.491053
-9.059019
-14.169132
-18.062559
-16.960382
-12.482138
-6.541825
-0.043902
2.801558
3.860378
6.911178
9.631988
12.151072
15.920862
16.350415
13.029049
10.824107
8.481569
6.724943
8.402794
9.916555
9.645783
8.820112
7.149295
6.688539
7.510405
8.171191
10.716168
14.573876
17.284449
19.251342
18.261580
15.611935
14.580322
10.750724
4.451928
0.258620
-4.157491
-7.272011
-7.445231
-8.085735
-8.898761
-9.976741
-13.450456
-17.558858
-22.132437
-25.821427
-25.543923
-22.308558
-18.599586
-14.472407
-11.539031
-12.577569
-16.044058
-19.979938
-24.004940
-27.178172
-29.030844
-27.851891
-24.997700
-24.653354
-23.860693
-20.625027
-16.947067
-12.842470
-7.546177
-1.468870
5.704688
10.496964
11.372424
11.636379
10.943186
8.356167
5.681532
4.553270
6.440376
8.526800
10.541264
13.624280
14.209494
10.976346
6.640323
4.145135
6.278529
11.764806
16.280384
19.320947
21.201429
20.880677
19.793062
19.385598
19.480344
20.784549
22.649374
22.437616
22.632924
24.565193
24.448577
26.021350
31.087011
34.799595
39.607829
44.512108
43.761407
41.318608
37.211109
28.900462
22.623645
17.747476
11.733807
9.665859
7.523844
3.690633
2.858940
0.019311
-5.406038
-8.115598
-9.170395
-9.771457
-8.824339
-6.862564
-4.553638
-2.548808
-2.764180
-4.482870
-6.444836
-8.459191
-8.990100
-7.970722
-9.736381
-11.787769
-9.628182
-6.888403
-5.201820
-1.336886
3.526747
8.161555
10.248882
8.870118
8.743867
9.388997
8.753009
8.895026
8.366827
6.828788
4.428141
-1.739985
-8.829732
-13.023040
-18.111775
-23.881264
-25.743872
-23.846831
-19.625713
-14.414628
-10.358806
-8.459055
-7.411676
-6.401932
-6.284906
-7.841612
-6.167674
-2.430099
-0.726656
1.841504
6.551885
11.407088
15.054337
15.315583
12.491008
8.157695
2.501415
-4.409488
-12.694242
-17.894679
-17.010789
-14.142748
-13.223029
-11.468401
-7.932854
-7.961854
-11.769472
-14.575983
-17.418021
-20.576800
-20.381492
-19.772493
-20.935078
-19.621540
-17.571246
-18.948806
-18.938966
-16.688150
-16.177906
-14.243229
-9.264882
-6.551298
-5.138703
-0.609575
3.966522
4.684514
2.294103
-2.415566
-7.895712
-11.610596
-12.741868
-12.458643
-12.876344
-13.256710
-13.933043
-18.057102
-21.187579
-19.615108
-17.434143
-12.254371
-3.728639
1.579395
1.878277
0.583214
-0.794948
-2.541639
-6.845746
-12.328000
-14.415217
-17.016689
-22.391455
-24.662334
-23.670355
-21.779335
-13.823257
-2.747034
5.040738
11.126476
10.594061
4.053494
-1.331208
-8.134924
-14.895886
-17.992643
-19.502078
-16.646984
-9.631495
-1.787120
6.425182
13.677624
20.063243
23.372674
19.101385
12.973906
11.257926
12.043362
15.636415
19.421562
22.173986
26.055479
27.969984
27.033212
24.718374
18.784794
11.447555
6.656593
3.357809
1.315453
4.196741
9.119387
14.499983
22.897151
28.055848
28.016611
26.774840
24.299523
22.092173
19.525627
17.706977
16.672052
12.570274
8.538046
8.843853
11.965106
16.621292
19.852140
19.681329
19.646609
18.222681
14.232606
12.157732
9.173281
2.477956
-2.534304
-4.251488
-4.432837
-4.746363
-6.060996
-7.752889
-9.710942
-10.071737
-10.865795
-12.458631
-10.890675
-9.928503
-9.761798
-2.853496
8.069776
15.303853
16.026662
10.988810
6.387532
1.271398
-8.359809
-15.600399
-15.974142
-14.423047
-13.014366
-11.535531
-10.759731
-9.752998
-10.353458
-13.227411
-15.586207
-16.877958
-15.538827
-11.492640
-9.511295
-8.963416
-8.871380
-13.648793
-18.668580
-18.292922
-14.457795
-5.391917
7.608842
16.076163
18.628667
18.375358
16.721402
14.682960
14.441394
17.053211
20.094075
22.595695
24.069110
22.499759
18.911029
14.753249
10.104098
4.220799
1.434161
7.814661
15.400404
21.942587
28.490490
29.058542
27.853805
26.042983
18.581697
10.667278
6.036192
1.762193
-0.074823
-2.504676
-4.913151
-3.082951
-1.841372
-0.830725
4.075361
5.814333
6.890014
9.214898
4.732548
1.769173
3.574383
0.142820
-5.174740
-5.777006
-4.252105
0.123770
8.989727
15.633978
15.165092
8.477595
-2.309477
-10.428333
-14.671922
-15.543358
-12.322145
-6.937935
1.368305
12.952158
22.426006
27.223701
28.156367
25.459753
19.593315
12.559269
5.732670
3.545492
5.805040
7.364264
13.546349
24.999531
33.686644
37.758724
33.908352
27.173584
23.508680
16.376179
8.574065
4.619216
-1.077711
-5.034366
-1.388321
6.956759
18.007089
25.333899
24.067740
19.704319
11.588173
-3.719692
-16.795312
-21.648297
-16.644660
-6.163080
4.912240
16.781221
22.506860
20.819785
15.329703
2.861974
-10.646306
-23.284750
-38.206022
-46.664200
-46.005221
-40.654131
-34.957094
-32.382009
-31.468011
-31.235368
-35.443128
-42.626211
-46.747861
-48.762819
-51.587996
-53.321138
-52.894295
-48.646983
-40.217298
-29.617692
-15.563436
-2.426587
-0.191426
-7.428705
-13.563410
-16.778493
-20.357587
-23.806312
-22.929347
-15.757294
-8.901080
-7.928370
-8.528227
-7.044575
-8.754835
-11.511365
-11.619550
-11.068961
-8.737755
-9.592330
-9.599953
-7.006803
-9.625737
-10.572143
-9.320327
-10.585583
-8.020433
-4.189522
2.107878
13.620073
17.739423
17.063993
19.087491
20.740352
20.056492
16.084783
10.549237
9.297229
12.496163
15.577071
20.649055
26.506570
23.672360
14.996798
9.558503
2.504284
-2.385434
3.672603
11.048190
13.872272
16.619578
13.165434
4.207454
-2.699836
-10.602512
-18.687647
-25.078274
-29.145126
-27.047261
-20.198875
-16.314672
-16.133213
-13.362724
-12.521588
-16.532439
-18.881299
-19.523911
-23.470630
-23.530943
-16.011438
-9.282282
1.213449
7.757739
-2.264275
-11.603128
-15.115984
-25.874453
-33.817776
-29.146235
-15.255468
1.491392
11.569518
12.125827
15.957642
15.284621
1.754964
-6.802572
-10.089313
-16.971312
-22.436704
-25.161921
-20.433777
-11.067416
-2.882513
11.494808
26.594431
33.115839
29.874863
14.586568
-2.611509
-10.948652
-19.927406
-26.085596
-13.204368
3.730972
7.748255
4.858043
-2.831164
-10.316838
-12.845748
-4.564799
12.380477
28.901523
28.883663
13.529130
-7.841084
-31.091574
-37.910344
-23.100666
-7.833940
9.820391
27.047783
15.922592
-9.863035
-26.081682
-37.964704
-38.197238
-25.559587
-2.507101
23.948248
29.464634
13.963171
-12.374947
-35.632663
-33.600434
-25.183696
-28.229268
-19.195907
-11.201290
-19.134677
-17.045543
-2.630587
13.954590
35.235190
46.711856
38.697477
22.397235
0.843962
-27.948903
-45.183110
-33.548374
-11.261849
8.287812
28.788000
48.510785
59.480424
55.324752
42.326812
29.827769
22.405625
16.033364
2.026788
-16.480407
-36.737509
-36.722551
-8.803024
14.140770
34.715325
54.641945
60.446168
50.645150
20.922233
-5.097939
-8.322657
-9.316634
-3.063494
19.410005
31.742657
31.118110
30.867512
8.443500
-23.326193
-41.557896
-44.043449
-26.107905
-2.519789
24.129761
48.812321
53.363729
53.006245
49.540660
30.339463
5.147275
-18.199864
-24.946072
-15.935594
-6.084486
-1.002265
-17.665917
-39.563932
-40.499199
-27.591174
-12.096526
-2.166534
5.870235
18.677999
21.289515
9.053019
5.169528
8.950158
2.294877
-12.800121
-20.314097
-20.520436
-24.502082
-32.663993
-36.430663
-29.818027
-19.342468
-5.883156
21.037972
43.250129
55.409657
59.121940
45.947865
37.295788
25.702410
-9.093791
-25.548790
-14.274754
-10.840372
-9.525931
6.424258
27.793678
46.659576
50.464292
35.541214
21.008643
7.093598
-15.873872
-39.254130
-51.610458
-50.209002
-37.446100
-26.930498
-20.257042
-12.886875
-9.982102
-10.193560
-4.756058
8.160096
16.697269
15.545522
11.135433
12.566696
21.078577
27.151067
25.181874
20.284027
15.231422
0.079519
-17.887229
-26.366785
-22.266101
-7.497671
10.682053
29.094516
37.924042
26.816616
9.705552
-4.047510
-17.694890
-19.353664
-8.046508
2.880979
10.624190
18.607968
31.954072
48.118633
49.509250
31.123091
8.005680
-8.632981
-16.554626
-4.508307
23.326314
48.347294
55.121312
44.797008
35.893524
23.130430
-3.821901
-23.603289
-26.537760
-28.275117
-14.084470
14.733796
33.263682
49.032317
65.062896
62.935031
43.981929
25.838444
8.279968
-1.822135
9.664467
25.582139
33.833883
35.233230
18.540976
-3.807764
-19.832814
-30.417256
-30.694049
-31.817794
-29.826513
-10.963928
4.014960
6.183882
14.680107
14.651107
-1.034319
-4.853981
-6.348964
-14.847187
-8.581099
1.182092
0.486489
5.054156
16.301696
25.997143
22.006465
-4.559574
-35.429023
-59.288006
-76.505052
-76.965206
-62.374717
-45.427937
-28.830415
-20.943285
-20.396309
-22.111386
-37.726960
-62.355817
-76.905851
-74.429823
-56.246185
-39.471324
-33.872441
-33.413081
-35.028197
-42.790267
-51.982491
-56.819820
-48.279637
-29.929800
-13.172703
-7.155914
-9.558368
-13.988630
-15.777472
-16.398405
-10.333142
6.354104
24.824375
26.579605
13.877331
5.688021
0.585135
-4.018251
4.121790
24.007463
44.100282
66.167918
78.387964
77.869399
76.669780
78.428323
72.826839
70.684222
76.249082
77.739057
84.277626
91.063989
88.585661
100.365521
108.828626
99.933874
95.694199
95.513452
85.431521
68.754923
45.543875
33.097222
31.088587
20.240997
16.853092
33.371729
46.284873
46.742727
36.389519
27.924415
30.478123
21.014923
6.658486
10.807946
16.554962
9.722944
0.706554
-10.919341
-15.806651
-13.316171
-25.261517
-39.977148
-46.860952
-62.961876
-84.536526
-107.070434
-136.519664
-164.098855
-171.859420
-162.856468
-158.478486
-158.593295
-144.340925
-124.227933
-122.788240
-131.381907
-126.570964
-125.424527
-135.613343
-133.986977
-123.521355
-119.993335
-115.585244
-105.865710
-106.580582
-107.963562
-101.684227
-102.222362
-105.095110
-104.042011
-97.683490
-84.618599
-84.417872
-95.203739
-93.030904
-97.520179
-106.268603
-99.996193
-94.774871
-92.246153
-81.259653
-73.666081
-70.131438
-60.091851
-50.475288
-38.389225
-22.672678
-18.666235
-15.450139
-3.195469
-1.231286
-3.410635
9.863810
19.946152
23.462128
25.432634
21.830055
17.465429
9.653078
1.363507
11.294703
31.235475
48.701025
62.607749
72.440491
86.472166
98.138817
104.306148
108.345712
107.916268
100.424272
86.843732
69.523414
58.045954
54.665274
61.128874
73.178204
83.428551
85.911203
76.982428
57.143834
42.338781
34.072394
29.694521
30.359522
37.763109
39.959730
44.275087
51.662114
50.004846
38.226903
37.192279
45.490390
47.866156
51.744037
55.377135
50.196268
40.155586
27.386771
11.514974
10.116639
8.941408
-0.951140
-3.380692
-3.338034
-4.376271
2.638013
8.774634
9.203283
14.151823
24.019791
17.910678
13.969680
23.604608
21.683590
15.220702
7.216560
-1.797422
4.562303
7.123839
8.432861
14.879299
13.461694
9.546288
7.239278
-1.009045
-4.674551
-0.462165
-0.916598
-1.791948
-3.818046
-16.860546
-23.743448
-24.972573
-34.559219
-46.873093
-51.537600
-55.751683
0.000000
0.000000
0.000000
0.000000
0.000000
0.000000
0.000000
0.000000
0.000000
0.000000
0.000000
0.000000
0.000000
0.000000
0.000000
0.000000
0.000000
0.000000
0.000000
0.000000
0.000000
0.000000
0.000000
0.000000
0.000000
0.000000
0.000000
0.000000
0.000000
0.000000
0.000000
0.000000
0.000000
0.000000
0.000000
0.000000
0.000000
0.000000
0.000000
0.000000
0.000000
0.000000
0.000000
0.000000
0.000000
0.000000
0.000000
0.000000
0.000000
0.000000
0.000000
0.000000
0.000000
0.000000
0.000000
0.000000
0.000000
0.000000
0.000000
0.000000
0.000000
0.000000
0.000000
0.000000
0.000000
0.000000
0.000000
0.000000
0.000000
0.000000
0.000000
0.000000
0.000000
0.000000
0.000000
0.000000
0.000000
0.000000
0.000000
0.000000
0.000000
0.000000
0.000000
0.000000
0.000000
0.000000
0.000000
0.000000
0.000000
0.000000
0.000000
0.000000
0.000000
0.000000
0.000000
0.000000
0.000000
0.000000
0.000000
0.000000
