EVENT_NAME: 202302060117
EVENT_ID: 13194
EVENT_DATE_YYYYMMDD: 2023/02/06
EVENT_TIME_HHMMSS: 01:17:32.00000
EVENT_LATITUDE_DEGREE: 37.288
EVENT_LONGITUDE_DEGREE: 37.043
EVENT_DEPTH_KM: 8.6
HYPOCENTER_REFERENCE: AFAD
MAGNITUDE_W: 7.7
MAGNITUDE_W_REFERENCE: AFAD
MAGNITUDE_L: 
MAGNITUDE_L_REFERENCE: 
FOCAL_MECHANISM: 
NETWORK: TK
STATION_CODE: 2710
STATION_NAME: 
STATION_LATITUDE_DEGREE: 37.43291
STATION_LONGITUDE_DEGREE: 37.68658
STATION_ELEVATION_M: 534.0
LOCATION: Kahramanmaras_Pazarck_Turkiye
SENSOR_DEPTH_M: 
VS30_M/S: None
SITE_CLASSIFICATION_EC8: unknown
MORPHOLOGIC_CLASSIFICATION: 
EPICENTRAL_DISTANCE_KM: 59.12
EARTHQUAKE_BACKAZIMUTH_DEGREE: 
DATE_TIME_FIRST_SAMPLE_YYYYMMDD_HHMMSS: 2023/02/06 01:17:17.2933160
DATE_TIME_FIRST_SAMPLE_PRECISION: millisecond
SAMPLING_INTERVAL_S: 0.01
NDATA: 2990
DURATION_S: 
STREAM: HNN
UNITS: cm/s^2
INSTRUMENT: sensor = ACEBOX/SARA | digitizer = 
INSTRUMENT_ANALOG/DIGITAL: 
INSTRUMENTAL_FREQUENCY_HZ: 
INSTRUMENTAL_DAMPING: 
FULL_SCALE_G: 
N_BIT_DIGITAL_CONVERTER: 
PGA_CM/S^2: 2.005
TIME_PGA_S: 
BASELINE_CORRECTION: BASELINE REMOVED
FILTER_TYPE: BUTTERWORTH
FILTER_ORDER: 
LOW_CUT_FREQUENCY_HZ: 
HIGH_CUT_FREQUENCY_HZ: 
LATE/NORMAL_TRIGGERED: 
DATABASE_VERSION: 
HEADER_FORMAT: DYNA 1.2
DATA_TYPE: Acceleration
PROCESSING: Automatic Paolucci et al., 2011
DATA_TIMESTAMP_YYYYMMDD_HHMMSS: 
DATA_LICENSE: U (unknown license)
DATA_CITATION: Turkish Accelerometric Archive v 1.0 - Disaster And Emergency Management Presidency, Earthquake Department
DATA_CREATOR: AFAD
ORIGINAL_DATA_MEDIATOR_CITATION: : AFAD - Disaster And Emergency Management Presidency
ORIGINAL_DATA_MEDIATOR: AFAD PROCESS SERVICE
ORIGINAL_DATA_CREATOR_CITATION: AFAD PROCESS SERVICE
ORIGINAL_DATA_CREATOR: network: TK
USER1: GuestUser
USER2: 
USER3: 
USER4: 
USER5: 
[...]
-0.000093
0.000379
0.000149
-0.000314
0.000158
-0.000305
-0.000301
0.000405
-0.001227
-0.001223
-0.000049
-0.001448
-0.001209
0.000665
0.000670
-0.000261
-0.000724
-0.000252
-0.000014
-0.000477
-0.000239
0.000233
-0.000464
0.000242
0.000012
-0.000451
0.000021
-0.000208
0.000497
0.000034
-0.001130
-0.000658
-0.000420
-0.000650
-0.000412
-0.000641
-0.000169
0.000771
-0.000160
0.000312
0.000784
-0.000848
-0.000844
0.000797
0.000100
-0.000363
0.000343
-0.000121
0.000118
0.000122
-0.001276
-0.000337
0.000135
-0.000328
-0.000558
0.000382
0.000386
0.000391
0.000161
-0.000068
0.000872
0.001110
0.000179
-0.000986
-0.000514
0.001127
0.000898
0.000201
0.000205
0.000210
0.000448
0.000218
0.000457
0.001162
0.000465
-0.000232
-0.000227
0.000245
0.000249
0.000955
0.000726
-0.000439
0.000033
0.000505
-0.000192
-0.000655
0.000284
0.000523
0.000293
0.000999
0.000302
-0.000395
0.000311
0.000783
0.001021
-0.000144
-0.000139
0.000800
0.000571
0.000575
-0.000122
0.000584
0.000588
-0.000109
-0.000338
-0.000100
0.000840
0.000377
-0.000321
0.000853
0.000390
0.000628
0.000866
-0.000299
-0.000060
0.000178
0.000182
0.000420
0.000191
-0.000272
0.000901
0.000906
0.000442
0.000681
0.000919
0.000923
0.000694
0.001166
0.000702
0.000239
0.000945
0.000482
0.000954
0.001192
-0.000206
-0.000202
0.000270
0.000041
0.000279
0.000283
0.000054
0.000760
0.000998
0.001470
0.001708
0.001245
0.001483
-0.000149
-0.000379
0.001730
0.000799
0.000102
0.001042
0.001280
0.001050
0.000120
0.000592
0.001064
0.000133
-0.000097
0.000142
0.000380
-0.000083
-0.000547
0.001328
0.001099
-0.000066
0.001341
0.001346
0.000649
0.000419
0.001125
0.001129
0.000199
0.000203
0.000207
0.000913
0.000684
0.000221
0.000225
-0.000004
0.000701
0.001407
0.000944
0.000481
0.000251
-0.000212
0.000260
0.001200
0.000970
0.000039
0.000511
0.000983
0.000520
-0.000411
-0.000172
0.001936
0.001239
0.000308
0.000547
0.000317
0.001257
0.001729
0.001265
0.000101
0.000573
0.001512
0.001517
0.001054
0.000590
-0.000574
-0.001271
0.000604
0.000608
-0.000089
0.000851
0.000621
0.002028
0.002734
0.001102
0.000639
-0.000058
0.000881
0.001821
0.001358
0.000427
0.000431
0.000903
0.000674
0.001847
0.002319
0.000921
0.000925
0.000696
0.000700
0.001406
0.001177
0.001882
0.001419
0.000255
0.001194
0.000497
0.000735
0.001909
0.000744
0.000982
0.001688
0.001692
0.001229
0.001000
0.001004
0.000541
0.002182
0.002420
0.001022
0.000792
0.000797
0.000567
0.001039
0.001044
0.000113
0.001286
0.002226
0.001763
0.001066
0.000602
0.000373
0.000144
0.001317
0.001789
0.001326
0.002032
0.001568
0.001339
0.001811
-0.000055
0.000417
0.002525
0.001828
0.000898
0.000902
0.001374
0.001378
0.000681
0.000920
0.000690
0.001864
0.002102
0.000937
0.000708
0.001180
0.000950
0.000721
0.001894
0.001665
0.001436
0.001674
0.000509
0.000513
0.000985
0.001224
0.002163
0.001700
0.001471
0.001475
0.001012
0.001951
0.001488
0.001726
0.001731
0.000800
0.001506
0.001276
0.001281
0.001987
0.001290
0.000592
0.000363
0.001069
0.001307
0.000610
0.001082
0.001086
0.000623
0.000861
0.001100
0.001338
0.000407
0.000645
0.001819
0.002291
0.001827
0.000663
0.000901
0.002542
0.002312
0.001148
0.002087
0.001858
0.001395
0.002101
0.001637
0.001174
0.001179
0.001651
0.001655
0.001659
0.001196
0.000967
0.002374
0.001911
0.000512
0.000751
0.000989
0.000526
0.001231
0.001937
0.001240
0.001244
0.002418
0.001955
0.001959
0.002197
0.001968
0.001738
0.001041
0.001280
0.001284
0.001055
0.002228
0.001765
0.001769
0.002241
0.001778
0.001081
0.001085
0.002259
0.002497
0.002267
0.001804
0.001575
0.002281
0.001817
0.001822
0.002761
0.001597
0.001367
0.001606
0.001844
0.002550
0.001385
0.000922
0.001394
0.002099
0.001636
0.001874
0.002113
0.001883
0.002589
0.001658
0.001663
0.001199
-0.000199
0.001208
0.002148
0.001685
0.002157
0.001927
0.000763
0.001702
0.002408
0.001711
0.001481
0.002187
0.001958
0.001728
0.001967
0.002672
0.002677
0.001980
0.002218
0.002456
0.001993
0.001530
0.002236
0.002006
0.001543
0.001781
0.001318
0.002725
0.002496
0.001799
0.001569
0.001340
0.001578
0.001115
0.001353
0.002526
0.002297
0.001834
0.001838
0.001375
0.001613
0.001384
0.001154
0.001860
0.002566
0.002570
0.002341
0.003047
0.002817
0.001419
0.000956
0.001194
0.001432
0.001670
0.001441
0.001913
0.002151
0.001922
0.002394
0.002866
0.002870
0.001238
0.001476
0.002649
0.002887
0.003126
0.003130
0.003134
0.001970
0.001507
0.001511
0.002451
0.002689
0.001992
0.002464
0.002468
0.002239
0.001776
0.001546
0.002720
0.003192
0.002495
0.001798
0.001802
0.001806
0.000875
0.000412
0.002053
0.003227
0.002062
0.001365
0.002071
0.002075
0.001846
0.002084
0.002556
0.002794
0.002565
0.002335
0.002340
0.001643
0.002349
0.003288
0.002591
0.001660
0.001898
0.001903
0.002375
0.002379
0.001215
0.001920
0.001691
0.001929
0.003804
0.002406
0.001241
0.001947
0.002185
0.002657
0.002194
0.001497
0.002203
0.001973
0.002445
0.002917
0.002454
0.002692
0.002229
0.002233
0.002705
0.003411
0.001779
0.001316
0.002489
0.002727
0.002498
0.000866
0.001571
0.002511
0.002048
0.001818
0.002524
0.002528
0.002533
0.002771
0.001606
0.002546
0.002784
0.002789
0.002793
0.002797
0.003036
0.003040
0.003278
0.002114
0.001650
0.003058
0.003296
0.003534
0.002837
0.001672
0.002612
0.002382
0.001685
0.002625
0.002629
0.002400
0.001937
0.001941
0.002413
0.002418
0.001721
0.002193
0.003366
0.003604
0.002440
0.001509
0.002215
0.002453
0.002223
0.003163
0.003167
0.002236
0.001773
0.001310
0.001548
0.002254
0.003194
0.002964
0.002267
0.002505
0.002977
0.003216
0.002285
0.001822
0.002527
0.002064
0.002302
0.003008
0.002779
0.002783
0.001852
0.001155
0.002562
0.003034
0.002571
0.003043
0.002580
0.001883
0.002121
0.002359
0.002130
0.003070
0.003308
0.002845
0.003083
0.003321
0.002858
0.002862
0.002399
0.002169
0.003343
0.002412
0.003118
0.003356
0.001724
0.003131
0.002902
0.001737
0.002443
0.002213
0.002452
0.002456
0.002227
0.003166
0.002469
0.001772
0.002478
0.001547
0.001318
0.002257
0.002495
0.002500
0.002270
0.002742
0.002981
0.002751
0.002756
0.002994
0.003700
0.003003
0.002773
0.003479
0.003016
0.002552
0.002557
0.002327
0.002098
0.002570
0.003276
0.003280
0.003285
0.003523
0.003761
0.002129
0.001899
0.003073
0.002376
0.002380
0.003320
0.002155
0.002160
0.002865
0.002636
0.002874
0.003112
0.002649
0.002420
0.002658
0.003130
0.002433
0.001970
0.003377
0.003381
0.002684
0.002922
0.003161
0.003399
0.003871
0.002940
0.002711
0.002715
0.001550
0.001555
0.003196
0.002966
0.002737
0.003676
0.003213
0.002984
0.002988
0.002759
0.002763
0.002534
0.001603
0.001607
0.003716
0.003487
0.001621
0.002093
0.004201
0.003972
0.002807
0.003513
0.003283
0.003054
0.003760
0.003530
0.002833
0.002604
0.002842
0.002613
0.002383
0.002855
0.002626
0.001929
0.002869
0.004743
0.003345
0.001947
0.003120
0.002423
0.002193
0.003367
0.002670
0.002908
0.003146
0.002449
0.002687
0.002692
0.003398
0.003636
0.003406
0.003878
0.002948
0.002952
0.002956
0.003896
0.004134
0.002969
0.003208
0.003913
0.004385
0.003922
0.002991
0.002762
0.002533
0.002771
0.003243
0.004650
0.003953
0.003256
0.003962
0.003499
0.003035
0.003040
0.002810
0.003750
0.004923
0.004460
0.003295
0.003300
0.003538
0.002841
0.002144
0.002850
0.002854
0.002391
0.002863
0.003101
0.004041
0.004747
0.003816
0.003586
0.004058
0.003595
0.003599
0.004071
0.003374
0.002444
0.003149
0.004790
0.004093
0.003163
0.004570
0.004340
0.003643
0.003882
0.002951
0.003890
0.004362
0.003432
0.002735
0.003207
0.004380
0.003917
0.003921
0.004627
0.002995
0.002064
0.004406
0.003943
0.002311
0.003484
0.003722
0.003727
0.003264
0.003034
0.004441
0.003511
0.003047
0.004221
0.003290
0.003061
0.003766
0.004004
0.004710
0.004948
0.003784
0.003321
0.002156
0.002628
0.003801
0.003338
0.003343
0.003815
0.003585
0.002888
0.003126
0.004066
0.003369
0.002672
0.004079
0.005252
0.004088
0.003625
0.003863
0.002464
0.002235
0.003642
0.003413
0.003183
0.004123
0.002958
0.002963
0.004838
0.003439
0.002508
0.003214
0.004154
0.005093
0.004396
0.003465
0.003704
0.003708
0.003479
0.003483
0.003955
0.004661
0.003964
0.003501
0.004440
0.003743
0.004215
0.004453
0.002821
0.003527
0.003531
0.003536
0.004475
0.003778
0.003783
0.004021
0.004259
0.005199
0.004268
0.004272
0.004744
0.004749
0.003818
0.004290
0.005463
0.003831
0.004069
0.004775
0.003610
0.003615
0.003152
0.003390
0.005031
0.004801
0.004572
0.005511
0.005282
0.003650
0.003187
0.004360
0.003663
0.003200
0.002970
0.003676
0.004850
0.003919
0.004391
0.005097
0.004166
0.003936
0.004175
0.003945
0.003949
0.003252
0.004192
0.004664
0.003266
0.003738
0.003742
0.002811
0.003985
0.004223
0.003993
0.003998
0.003535
0.003773
0.004011
0.003314
0.003318
0.004024
0.004730
0.005669
0.004972
0.004275
0.004981
0.004752
0.003821
0.004059
0.005233
0.004068
0.003371
0.003843
0.004081
0.005021
0.004324
0.003861
0.004800
0.004571
0.004341
0.004112
0.004350
0.005290
0.004593
0.003896
0.004601
0.004138
0.004376
0.005316
0.004853
0.004623
0.004394
0.003697
0.003935
0.005109
0.004178
0.004416
0.005122
0.004425
0.004429
0.003966
0.004204
0.005377
0.004447
0.002814
0.003754
0.003758
0.003997
0.004702
0.004005
0.004477
0.004248
0.004720
0.005192
0.004261
0.005435
0.004971
0.004041
0.004746
0.004283
0.003586
0.004759
0.004764
0.004768
0.005006
0.003842
0.003379
0.004552
0.004323
0.003626
0.004331
0.005505
0.005042
0.004111
0.004115
0.004353
0.004825
0.004128
0.004366
0.004371
0.003674
0.004380
0.004618
0.005090
0.004860
0.004397
0.005103
0.005341
0.005579
0.005116
0.004653
0.004424
0.005597
0.005601
0.004437
0.004441
0.005381
0.005619
0.004220
0.004225
0.004229
0.003766
0.005173
0.005178
0.003779
0.004251
0.005425
0.005195
0.004264
0.004503
0.004273
0.004511
0.004983
0.004286
0.004525
0.004763
0.004767
0.005239
0.004308
0.004079
0.003849
0.003620
0.005261
0.005265
0.004802
0.005742
0.005045
0.004815
0.005521
0.005993
0.005530
0.004132
0.004370
0.004608
0.004846
0.005318
0.004855
0.004625
0.005331
0.005569
0.005106
0.005812
0.004881
0.004184
0.004422
0.004894
0.005834
0.005605
0.004206
0.004912
0.004916
0.003752
0.003522
0.004228
0.004466
0.004003
0.005176
0.005181
0.004250
0.004021
0.003791
0.004731
0.005670
0.005675
0.004978
0.003813
0.003584
0.004991
0.005463
0.005234
0.004770
0.004073
0.004545
0.004550
0.004788
0.005494
0.004329
0.003632
0.004572
0.005044
0.005282
0.005286
0.005524
0.006698
0.005299
0.004602
0.005308
0.005546
0.004616
0.004854
0.004858
0.004161
0.004633
0.004637
0.005343
0.006049
0.004417
0.004889
0.005595
0.004430
0.004902
0.004673
0.004443
0.005383
0.004920
0.004924
0.005162
0.004699
0.004002
0.004942
0.005413
0.004249
0.004487
0.004959
0.005197
0.004734
0.005440
0.005912
0.004747
0.005453
0.005224
0.004527
0.005934
0.005704
0.004540
0.005479
0.005951
0.005488
0.004791
0.003860
0.005034
0.005973
0.005510
0.004813
0.004817
0.005523
0.005060
0.006233
0.006472
0.005541
0.005311
0.005082
0.005320
0.004623
0.004861
0.005100
0.004636
0.005108
0.005580
0.005117
0.004654
0.004658
0.004896
0.005368
0.005373
0.005377
0.005615
0.004918
0.004923
0.005862
0.004932
0.004936
0.005876
0.004711
0.005417
0.005187
0.005425
0.006131
0.004733
0.005672
0.004975
0.004512
0.006387
0.005222
0.004058
0.004764
0.005236
0.005708
0.004777
0.004547
0.004786
0.004322
0.005496
0.005500
0.005037
0.005275
0.005046
0.005518
0.005756
0.005994
0.005765
0.005769
0.006007
0.005544
0.006016
0.006020
0.005791
0.005795
0.005332
0.005570
0.005809
0.005112
0.005116
0.005588
0.006060
0.004895
0.004666
0.006541
0.005844
0.005147
0.005852
0.004220
0.005160
0.006567
0.005402
0.005407
0.005411
0.004480
0.005420
0.006360
0.005429
0.004966
0.005204
0.005676
0.005914
0.006152
0.005455
0.004992
0.005698
0.005001
0.005706
0.006178
0.005481
0.005018
0.005023
0.005495
0.004798
0.005503
0.006677
0.005278
0.004348
0.005287
0.005291
0.004594
0.005300
0.006006
0.005309
0.005313
0.005318
0.006024
0.006028
0.005565
0.005569
0.005106
0.005110
0.005115
0.004885
0.004656
0.005829
0.007470
0.006072
0.005141
0.006314
0.005384
0.005622
0.006561
0.006098
0.005635
0.005639
0.005410
0.005648
0.006120
0.005423
0.005895
0.007069
0.007073
0.006844
0.005679
0.005216
0.005688
0.005458
0.005696
0.006402
0.005471
0.005476
0.005948
0.005952
0.005957
0.004792
0.005965
0.006204
0.005039
0.006212
0.006451
0.005754
0.005290
0.005762
0.006468
0.006472
0.006009
0.005312
0.006018
0.006256
0.005559
0.005564
0.005334
0.005105
0.005811
0.006049
0.005118
0.005356
0.006296
0.005365
0.005369
0.005608
0.005144
0.006084
0.006088
0.005859
0.006331
0.005400
0.005404
0.006110
0.006348
0.007054
0.006591
0.006128
0.005665
0.005201
0.006842
0.006613
0.005916
0.006388
0.005691
0.005695
0.006167
0.005938
0.005942
0.005947
0.005717
0.005020
0.006194
0.006432
0.005735
0.006207
0.005977
0.005982
0.005986
0.005289
0.006229
0.005766
0.005069
0.005307
0.004844
0.006017
0.006021
0.005324
0.006731
0.006268
0.005571
0.005809
0.006281
0.006286
0.006290
0.005593
0.006065
0.007472
0.007243
0.006546
0.006083
0.005853
0.005624
0.005395
0.006334
0.007040
0.006109
0.005646
0.006118
0.006590
0.006360
0.006599
0.007304
0.006374
0.006846
0.006850
0.007088
0.006391
0.007097
0.007803
0.006872
0.007110
0.007348
0.006885
0.006188
0.005257
0.005495
0.006201
0.006673
0.006911
0.006448
0.005751
0.005989
0.006929
0.007401
0.006704
0.007410
0.006947
0.005782
0.006488
0.006960
0.006730
0.005800
0.006973
0.006977
0.005813
0.007454
0.007692
0.006995
0.007233
0.007004
0.007008
0.005843
0.005146
0.005852
0.006792
0.007264
0.007034
0.007740
0.006576
0.006580
0.007052
0.006589
0.006827
0.006364
0.006602
0.007074
0.006844
0.006381
0.005684
0.005922
0.006862
0.006633
0.006169
0.005940
0.006412
0.006884
0.007122
0.007360
0.006430
0.005733
0.005971
0.006443
0.006213
0.005516
0.006222
0.006928
0.006465
0.006937
0.006240
0.005776
0.007417
0.007656
0.007192
0.007664
0.006266
0.006270
0.007911
0.007214
0.007219
0.007457
0.006292
0.007466
0.007236
0.006773
0.006777
0.006314
0.007020
0.006791
0.006327
0.007501
0.007973
0.005873
0.005176
0.007285
0.006821
0.006358
0.007064
0.006133
0.005436
0.006843
0.007315
0.007086
0.007324
0.006627
0.006398
0.006636
0.006173
0.005709
0.005246
0.005952
0.006892
0.006428
0.005498
0.006437
0.007143
0.006914
0.006684
0.005987
0.006225
0.007399
0.007637
0.006940
0.005775
0.006949
0.007654
0.007425
0.006728
0.006265
0.007438
0.006741
0.006044
0.006750
0.007222
0.006993
0.006997
0.007936
0.007941
0.008413
0.008183
0.007253
0.006556
0.006794
0.008435
0.007972
0.007508
0.006578
0.006348
0.007054
0.007526
0.007530
0.007535
0.007072
0.006375
0.006847
0.007085
0.006855
0.006392
0.005695
0.005466
0.006171
0.007111
0.006882
0.007120
0.007124
0.005960
0.007367
0.008540
0.007142
0.006211
0.006917
0.007155
0.006224
0.006930
0.007636
0.007172
0.007177
0.007649
0.007419
0.006956
0.007428
0.007900
0.006736
0.006039
0.007913
0.007918
0.007221
0.007225
0.007230
0.007935
0.007005
0.006541
0.006780
0.006316
0.007490
0.008195
0.008200
0.006801
0.006572
0.008447
0.007516
0.006819
0.007525
0.007295
0.007300
0.007070
0.007075
0.007079
0.008019
0.008257
0.007560
0.007798
0.007569
0.007573
0.007811
0.005478
0.006417
0.008058
0.005958
0.005963
0.006669
0.007141
0.007379
0.006916
0.007154
0.007158
0.007396
0.007401
0.007171
0.007643
0.008115
0.007652
0.007890
0.007661
0.006730
0.006968
0.007908
0.008847
0.007917
0.006752
0.006289
0.007228
0.007934
0.008640
0.008644
0.006778
0.006315
0.007021
0.006792
0.007497
0.007502
0.007038
0.007744
0.007515
0.006116
0.007290
0.008931
0.007065
0.006368
0.007541
0.007312
0.007550
0.008490
0.007793
0.007329
0.007801
0.008273
0.008044
0.006879
0.007585
0.008992
0.008763
0.008533
0.008538
0.008776
0.008547
0.007616
0.006685
0.006456
0.007395
0.008101
0.007404
0.007408
0.007880
0.008119
0.008357
0.007894
0.007664
0.008370
0.007673
0.006508
0.007915
0.008621
0.008859
0.008864
0.007465
0.006768
0.007708
0.008881
0.008652
0.007955
0.007959
0.007964
0.008436
0.007739
0.007977
0.008683
0.009388
0.008925
0.009397
0.010337
0.009640
0.009878
0.009882
0.010588
0.010826
0.011532
0.013173
0.013411
0.013883
0.014355
0.014360
0.015065
0.016005
0.017178
0.018819
0.019291
0.020699
0.022340
0.023980
0.026089
0.028431
0.030774
0.033116
0.035458
0.039671
0.043416
0.045759
0.049971
0.054184
0.057929
0.062610
0.066121
0.069399
0.075248
0.080162
0.084842
0.090925
0.093502
0.096779
0.100057
0.101230
0.102170
0.100538
0.096100
0.092130
0.091900
0.096113
0.097988
0.098460
0.099399
0.097767
0.097070
0.099646
0.103625
0.108072
0.116960
0.131694
0.146895
0.161161
0.173791
0.189927
0.221494
0.269661
0.325543
0.372307
0.393353
0.388447
0.375827
0.381442
0.419789
0.477775
0.533424
0.564523
0.564995
0.544191
0.512867
0.482711
0.449984
0.406035
0.359981
0.322578
0.285642
0.231873
0.151218
0.062379
-0.001209
-0.039080
-0.085835
-0.185662
-0.357031
-0.570951
-0.764531
-0.885166
-0.926310
-0.915317
-0.881646
-0.841662
-0.804250
-0.773618
-0.725919
-0.598496
-0.359083
-0.101200
0.009624
-0.116622
-0.399746
-0.618576
-0.572046
-0.257818
0.144084
0.504370
0.809480
1.051464
1.179824
1.069709
0.638825
0.079119
-0.205174
-0.029120
0.338881
0.485009
0.210301
-0.349171
-0.763923
-0.679518
-0.174745
0.415831
0.806277
0.847430
0.569683
0.085259
-0.575214
-1.339259
-1.902238
-1.885166
-1.213229
-0.228938
0.534648
0.657163
0.119433
-0.653028
-1.129971
-1.060528
-0.554587
0.155226
0.927229
1.581866
1.817772
1.550546
1.061680
0.708183
0.658856
0.780201
0.772490
0.432554
-0.167366
-0.669792
-0.857526
-0.887682
-0.960155
-1.007377
-0.688941
0.133094
0.994174
1.199920
0.543422
-0.439925
-1.019270
-0.995185
-0.857006
-1.144572
-1.695862
-2.005405
-1.860213
-1.247893
-0.428663
0.135494
0.000000
0.000000
0.000000
0.000000
0.000000
0.000000
0.000000
0.000000
0.000000
0.000000
0.000000
0.000000
0.000000
0.000000
0.000000
0.000000
0.000000
0.000000
0.000000
0.000000
0.000000
0.000000
0.000000
0.000000
0.000000
0.000000
0.000000
0.000000
0.000000
0.000000
0.000000
0.000000
0.000000
0.000000
0.000000
0.000000
0.000000
0.000000
0.000000
0.000000
0.000000
0.000000
0.000000
0.000000
0.000000
0.000000
0.000000
0.000000
0.000000
0.000000
0.000000
0.000000
0.000000
0.000000
0.000000
0.000000
0.000000
0.000000
0.000000
0.000000
0.000000
0.000000
0.000000
0.000000
0.000000
0.000000
0.000000
0.000000
0.000000
0.000000
0.000000
0.000000
0.000000
0.000000
0.000000
0.000000
0.000000
0.000000
0.000000
0.000000
0.000000
0.000000
0.000000
0.000000
0.000000
0.000000
0.000000
0.000000
0.000000
0.000000
0.000000
0.000000
0.000000
0.000000
