EVENT_NAME: 202302060117
EVENT_ID: 13194
EVENT_DATE_YYYYMMDD: 2023/02/06
EVENT_TIME_HHMMSS: 01:17:32.00000
EVENT_LATITUDE_DEGREE: 37.288
EVENT_LONGITUDE_DEGREE: 37.043
EVENT_DEPTH_KM: 8.6
HYPOCENTER_REFERENCE: AFAD
MAGNITUDE_W: 7.7
MAGNITUDE_W_REFERENCE: AFAD
MAGNITUDE_L: 
MAGNITUDE_L_REFERENCE: 
FOCAL_MECHANISM: 
NETWORK: TK
STATION_CODE: 0140
STATION_NAME: 
STATION_LATITUDE_DEGREE: 37.56261
STATION_LONGITUDE_DEGREE: 35.52924
STATION_ELEVATION_M: 322.0
LOCATION: Kahramanmaras_Pazarck_Turkiye
SENSOR_DEPTH_M: 
VS30_M/S: None
SITE_CLASSIFICATION_EC8: unknown
MORPHOLOGIC_CLASSIFICATION: 
EPICENTRAL_DISTANCE_KM: 137.11
EARTHQUAKE_BACKAZIMUTH_DEGREE: 
DATE_TIME_FIRST_SAMPLE_YYYYMMDD_HHMMSS: 2023/02/06 01:17:35.6704660
DATE_TIME_FIRST_SAMPLE_PRECISION: millisecond
SAMPLING_INTERVAL_S: 0.01
NDATA: 12501
DURATION_S: 
STREAM: HNZ
UNITS: cm/s^2
INSTRUMENT: sensor = ACEBOX/SARA | digitizer = 
INSTRUMENT_ANALOG/DIGITAL: 
INSTRUMENTAL_FREQUENCY_HZ: 
INSTRUMENTAL_DAMPING: 
FULL_SCALE_G: 
N_BIT_DIGITAL_CONVERTER: 
PGA_CM/S^2: 18.931
TIME_PGA_S: 
BASELINE_CORRECTION: BASELINE REMOVED
FILTER_TYPE: BUTTERWORTH
FILTER_ORDER: 
LOW_CUT_FREQUENCY_HZ: 
HIGH_CUT_FREQUENCY_HZ: 
LATE/NORMAL_TRIGGERED: 
DATABASE_VERSION: 
HEADER_FORMAT: DYNA 1.2
DATA_TYPE: Acceleration
PROCESSING: Automatic Paolucci et al., 2011
DATA_TIMESTAMP_YYYYMMDD_HHMMSS: 
DATA_LICENSE: U (unknown license)
DATA_CITATION: Turkish Accelerometric Archive v 1.0 - Disaster And Emergency Management Presidency, Earthquake Department
DATA_CREATOR: AFAD
ORIGINAL_DATA_MEDIATOR_CITATION: : AFAD - Disaster And Emergency Management Presidency
ORIGINAL_DATA_MEDIATOR: AFAD PROCESS SERVICE
ORIGINAL_DATA_CREATOR_CITATION: AFAD PROCESS SERVICE
ORIGINAL_DATA_CREATOR: network: TK
USER1: GuestUser
USER2: 
USER3: 
USER4: 
USER5: 
[...]
-1.303233
-1.360046
-0.767838
-0.126298
0.223930
0.121060
-0.535911
-1.451928
-2.456789
-3.366962
-3.559611
-3.041282
-2.616940
-2.555452
-2.531137
-2.204054
-1.353032
-0.202282
0.823854
1.524778
1.966187
2.535717
3.388376
3.965154
3.287843
1.115399
-1.228886
-2.818006
-4.246741
-5.456876
-5.628951
-5.225884
-5.237808
-5.049835
-3.474275
-1.036004
1.027491
2.560967
4.059374
5.815659
7.428626
8.077647
7.486374
6.025609
4.407965
3.234069
2.438457
1.868226
1.712283
1.985124
2.348445
2.408531
2.569851
3.722939
5.436206
6.182720
5.098135
3.184972
2.401283
2.477735
1.761614
0.425696
-0.998129
-2.439255
-3.124281
-3.429855
-4.928261
-7.488575
-9.417636
-9.494088
-7.542816
-4.121427
-0.320117
2.288359
2.774190
1.865653
0.640789
-0.538250
-1.634058
-2.566909
-2.849804
-2.255725
-1.032965
0.731736
1.854431
1.175951
0.285885
0.745998
1.767692
2.468149
2.384917
1.084069
-0.885907
-2.590991
-3.876174
-4.759460
-5.141485
-5.384868
-5.186374
-3.473575
-0.479568
2.852979
5.901461
7.906039
8.976830
9.643386
9.624683
8.604859
6.324868
2.970345
-0.403584
-3.095759
-4.776528
-5.457579
-5.783259
-5.561619
-4.300049
-2.745297
-1.399794
0.188157
2.362705
4.714472
5.906371
5.492549
4.593365
3.753565
2.891321
2.034220
0.982366
-0.238991
-1.378986
-2.214811
-2.681471
-2.917606
-2.666040
-1.798185
-0.753111
0.286352
1.172911
1.510046
1.301265
0.826657
-0.185919
-2.033619
-3.849522
-4.966138
-6.055633
-7.117540
-7.316502
-6.911565
-6.905720
-7.629089
-8.312946
-8.226207
-7.864757
-7.552404
-6.554089
-4.734445
-2.611098
-0.182646
2.398709
4.368919
5.082001
4.087661
1.395485
-1.802394
-4.090334
-5.231031
-5.411288
-4.746603
-4.126339
-4.048718
-3.595619
-2.493732
-1.456842
-0.563268
0.287520
1.453233
3.560448
5.511252
5.612720
4.112443
2.289759
0.986573
-0.113443
-1.592210
-2.588421
-2.662768
-2.864535
-3.349197
-3.730053
-4.394972
-4.971049
-4.347979
-2.902177
-1.692510
-0.410833
1.220838
2.421153
2.464873
1.095055
-0.389558
0.142799
1.832218
1.782419
-0.328303
-2.699007
-4.157434
-4.066020
-2.518282
-0.982935
-0.602080
-0.757555
-0.070191
1.436633
2.045207
1.219201
0.162437
-0.389558
-0.332511
-0.412236
-1.602264
-2.814503
-2.789019
-2.393902
-2.316281
-2.113813
-1.562519
-0.472790
1.156543
2.293967
1.803226
-0.152722
-2.141869
-3.068875
-3.623910
-4.986246
-7.211295
-9.623849
-10.957429
-10.253699
-8.001062
-4.780505
-1.119006
1.626709
2.998164
3.744912
4.320755
5.067270
5.978144
6.104394
4.872049
3.460381
3.289475
3.511582
2.765068
1.830580
1.603095
1.647751
1.928307
3.040013
4.697402
5.480155
4.795831
3.606972
2.280406
0.445331
-1.244556
-1.847986
-1.430892
-0.408964
1.058581
2.601409
3.643678
3.999985
3.849653
3.436065
3.144754
3.542209
4.576295
5.180661
4.838381
3.898984
1.893471
-1.625879
-5.244360
-7.386176
-8.449720
-9.328330
-9.864895
-9.761089
-9.109262
-8.317157
-7.415869
-5.311693
-1.828816
1.644243
4.189594
5.225783
4.801441
3.850588
2.483809
0.673049
-0.960726
-1.801228
-1.223281
0.263670
1.178752
0.842786
-0.328539
-0.923787
-0.101989
0.958983
1.066997
0.656215
0.491856
0.153785
-0.991588
-2.005099
-1.723607
-0.529137
1.018835
2.955144
4.966501
6.758557
8.203658
8.611167
7.805502
6.514005
4.744628
2.316877
-0.055932
-1.950157
-3.653838
-5.260259
-5.955338
-4.625265
-2.110542
0.009765
2.655649
6.362972
8.829533
8.929598
7.817191
6.476364
5.386401
4.255290
2.322254
-0.411070
-3.440147
-6.266289
-8.532486
-10.212553
-11.399074
-11.556653
-9.700771
-6.400488
-3.373048
-0.803850
1.826136
3.878876
4.739951
4.866435
4.745328
4.110335
2.774417
1.198858
-0.419253
-2.557797
-5.447063
-8.343812
-9.777456
-8.724901
-5.596226
-1.457547
2.968235
6.973416
9.948954
11.917527
12.991591
12.681576
10.413977
6.601211
2.261700
-2.145145
-6.147754
-8.853490
-9.844323
-9.242529
-7.613897
-5.407786
-2.362343
1.171269
4.699036
8.695333
12.293706
13.640378
12.875861
11.099704
8.736481
6.109067
3.759405
1.902353
-0.154595
-2.590062
-4.342138
-5.238283
-5.680862
-5.122086
-3.581128
-2.204764
-1.353742
-0.308668
0.956876
1.983480
3.036269
3.505968
2.300743
0.642185
-0.000523
-0.339296
-1.327323
-3.021652
-4.669922
-5.587343
-6.237533
-6.540301
-5.875615
-4.891562
-4.044047
-3.136213
-2.475735
-1.787670
-0.131450
2.115575
3.545479
4.153352
4.426895
3.401928
1.232055
-0.315449
-0.863937
-0.739323
0.203581
1.636057
2.843386
3.436530
3.798214
3.982212
3.001199
1.099492
0.143027
0.669305
1.042679
-0.023904
-2.059109
-4.243711
-5.819271
-5.842884
-4.122136
-1.065705
2.524720
5.615987
7.831450
8.930531
8.878161
8.518580
8.285251
7.682521
6.212638
3.713111
0.523883
-2.599181
-5.119983
-6.813377
-7.270217
-6.197087
-4.159778
-2.151927
-0.644402
0.426155
1.107908
1.157941
0.367238
-0.998605
-2.482049
-3.794821
-4.894837
-5.869771
-6.578411
-6.879074
-6.508973
-5.066912
-3.239786
-2.113351
-1.647159
-1.681060
-2.451188
-3.525720
-4.205603
-4.469794
-4.521697
-4.830075
-5.521180
-5.218179
-3.626721
-2.038068
-0.238297
1.845538
3.097289
3.645543
4.378965
5.423571
5.511947
3.938959
2.146201
0.350171
-1.552238
-1.819234
-0.931506
-0.361508
0.081304
-0.009176
0.411659
3.212083
6.709924
9.035972
10.708792
11.924070
12.785379
13.531660
13.220242
10.941186
7.043084
2.636941
-1.155017
-4.076547
-6.603194
-8.604265
-9.152520
-7.801172
-5.119283
-1.949928
1.065823
3.124876
3.728774
3.652322
3.380884
2.324822
1.015089
0.196331
-0.974058
-2.932344
-4.335829
-3.580196
-0.714543
3.458504
8.295068
12.059906
14.004631
15.354577
16.285791
16.038434
13.919997
10.069356
6.224560
3.008912
-0.098955
-2.355333
-3.386378
-3.502108
-2.373569
-0.387461
1.851382
4.644324
7.522602
9.249662
9.495617
9.331491
9.483927
8.846829
7.299793
5.720960
3.530046
0.910581
-1.843083
-5.331572
-8.359247
-9.913998
-10.505038
-10.433964
-9.670382
-7.509394
-4.045687
-0.292306
3.431149
6.434041
8.714500
10.905414
12.161139
11.995143
10.363238
6.858617
2.342589
-1.686439
-4.442909
-6.487934
-8.382627
-9.274797
-9.131947
-8.156545
-6.291077
-5.128870
-4.657769
-3.338451
-1.880725
-0.863239
0.554507
2.439147
3.520927
3.092844
2.937603
4.342724
5.952886
6.482437
5.779642
4.326592
2.600233
0.609216
-1.357253
-3.489251
-6.471802
-9.346807
-10.527717
-9.856719
-7.740386
-4.693307
-1.211130
2.779789
6.464668
8.139825
7.790766
6.714129
4.993615
2.286243
0.251505
0.165234
-0.004736
-1.747227
-3.266442
-2.518057
0.291485
2.891778
3.868583
4.249205
4.755610
4.976782
4.864325
4.433671
3.522095
2.317805
1.248650
0.413760
-0.619624
-1.986870
-2.681482
-1.648332
0.371209
1.621323
1.530376
0.711618
-0.491035
-1.888208
-2.492574
-1.890779
-1.159462
-0.708233
-0.078383
0.723775
1.926428
3.650683
5.256169
6.283007
6.667603
6.941847
7.702857
8.009132
6.432870
3.157605
-0.355667
-2.840698
-4.026752
-4.850186
-6.623070
-8.900022
-10.317301
-11.021031
-11.169492
-10.588038
-9.772787
-8.371874
-6.049332
-3.096940
0.415630
2.877515
2.872372
1.758561
0.760715
-0.046587
-0.373904
-0.035599
0.775678
1.056234
0.164531
-0.537094
0.424046
2.489411
3.945267
4.312562
4.214601
3.696039
3.243875
3.288297
2.819533
1.241168
-0.773463
-2.006510
-2.037839
-1.700470
-1.570946
-2.167129
-3.484109
-4.068368
-3.018151
-1.058696
0.451400
1.190901
1.531777
0.570871
-2.067064
-4.692841
-6.036006
-6.520902
-6.801225
-6.721500
-5.946462
-4.427247
-2.489536
-0.929173
-0.491972
-1.208794
-1.796795
-0.747746
1.819114
4.497729
5.831075
5.544673
4.295261
2.322246
-0.062720
-2.491874
-4.885958
-6.857804
-8.401801
-9.570554
-9.466280
-7.392732
-3.714868
0.434566
3.600415
4.885365
4.872038
5.192340
6.123087
5.839959
3.108739
-1.029005
-4.641406
-6.936594
-8.405075
-9.451318
-10.036980
-9.811365
-8.416999
-6.496588
-4.600726
-2.003004
1.195576
3.864605
5.690328
6.307553
5.292873
3.204596
0.726345
-1.566739
-3.449742
-4.956098
-5.500144
-4.970360
-4.031664
-3.269485
-2.807735
-2.336400
-2.015162
-1.614668
-1.050749
-1.263504
-1.229604
0.417031
2.417868
3.066421
1.764170
-0.085166
-0.774167
-0.524004
0.217134
0.823838
0.556374
-0.117898
-0.441006
-0.460411
-1.139592
-2.665119
-3.712998
-3.216413
-1.103120
1.713670
4.045564
5.111679
5.017927
4.858944
4.465697
3.300686
2.415529
1.806487
0.821499
-0.053136
-0.782116
-1.219551
-1.028305
-0.957932
-0.899716
0.197027
1.547440
1.430307
-0.061319
-1.419448
-1.785107
-1.422253
-1.069687
-1.413135
-2.139310
-2.193551
-1.565337
-1.080909
-0.917018
-0.574738
0.202170
0.960842
1.544400
2.150402
2.000538
0.897015
-0.002637
-0.485428
-0.140109
1.660363
2.977109
2.720166
2.324815
2.059221
1.843660
1.796433
1.138995
-0.520732
-3.112374
-5.443099
-6.173950
-6.165533
-6.111526
-6.280094
-7.605023
-8.969931
-8.496258
-6.547090
-4.371607
-2.908503
-2.613451
-2.982617
-3.440158
-4.242784
-5.540359
-7.068692
-8.841810
-10.743985
-12.418909
-13.042212
-11.491903
-8.623444
-6.390212
-4.652865
-2.468965
-0.321303
0.652930
0.163359
-0.667323
-0.848048
-1.145439
-2.432960
-3.790153
-4.059254
-3.322325
-1.740920
0.507274
2.710813
4.959475
7.884981
11.163520
13.703961
14.396936
13.205271
10.827553
7.379745
3.201787
-1.185652
-5.387690
-8.075657
-8.382166
-6.825076
-4.133836
-1.110837
2.160688
6.172415
10.122420
12.836105
14.041330
13.352329
10.719071
7.275471
3.958355
0.792273
-2.260886
-5.110875
-7.648043
-9.161412
-8.785700
-7.280280
-6.499631
-6.513892
-5.817878
-4.549060
-3.984206
-3.330742
-1.368482
0.894442
2.343751
3.003293
3.643664
5.698508
8.803569
10.973208
11.942999
12.266107
11.531749
9.666515
7.448480
5.437590
3.487954
1.430538
-0.076285
-0.185001
0.218767
-0.609810
-2.145858
-2.384332
-0.737931
1.399209
2.438906
2.763884
3.164145
2.980848
2.071143
1.199079
0.796480
1.066750
1.312938
0.469398
-1.242700
-3.179944
-4.397794
-4.047098
-3.164046
-2.751627
-2.558043
-1.833038
-0.080260
1.135720
0.875269
0.119403
-1.043271
-1.991787
-1.482576
0.075683
0.855864
0.375644
1.038460
3.514840
6.164932
9.027312
12.030906
13.983113
14.256889
13.480916
12.942014
12.377159
10.689844
8.227492
6.042189
4.345054
2.974067
1.960790
1.266646
1.499508
2.844543
4.434832
6.349632
8.877214
11.463479
12.815061
12.119982
11.311277
11.545542
10.885532
8.771070
6.827981
5.891389
4.986360
3.192901
1.309196
-0.001939
-1.107332
-2.224649
-3.204728
-3.992624
-4.957740
-6.101943
-7.087165
-8.038720
-9.007576
-9.666183
-9.535724
-8.804172
-8.322082
-8.038252
-7.378710
-6.403074
-5.680641
-5.386992
-4.956103
-4.745686
-5.578705
-6.967929
-8.580195
-10.471147
-11.793972
-12.007896
-11.655096
-10.861121
-8.730526
-5.259572
-2.010492
-0.076755
0.291710
-0.607474
-1.241766
-0.538270
0.821027
1.670412
1.302883
0.135533
-0.830517
-1.390695
-2.052108
-3.302222
-4.271312
-3.249851
-0.896214
1.146706
3.487952
6.032368
7.393301
8.532596
10.220612
11.692132
13.379914
14.785036
14.921807
14.897258
14.974879
14.199607
12.549466
10.559618
8.920465
7.931736
7.516045
7.445204
7.134020
6.519133
6.373010
7.242969
8.559949
9.835547
11.252826
12.370611
13.477875
14.856343
15.213819
14.980490
14.935367
13.859666
11.626902
8.865522
5.652914
2.222874
-0.729050
-2.368670
-3.299885
-4.121682
-4.320877
-4.074221
-3.410939
-2.224417
-0.853664
1.039159
3.441893
5.620416
6.979713
6.794546
4.897281
2.283895
-0.047298
-2.026158
-3.788521
-5.117425
-5.946236
-6.122987
-5.325037
-3.813772
-1.916273
0.508438
3.156894
5.150249
5.752745
4.871329
3.213706
1.539017
0.439000
0.425206
1.229937
2.351930
3.501277
4.059585
3.698836
2.475375
0.470797
-1.473461
-2.363060
-2.376153
-2.249435
-2.338745
-2.584232
-2.991741
-4.062532
-5.465082
-5.615881
-3.776365
-0.165600
4.661612
9.247780
12.269609
13.497980
13.362144
12.218641
9.847703
6.006414
1.129637
-4.063234
-9.019035
-12.605485
-14.135220
-14.481942
-13.539739
-11.088842
-8.399940
-5.597879
-2.535603
0.583954
3.972144
6.678581
8.210654
8.958806
8.675677
7.192935
4.628880
2.504832
1.794556
0.641935
-1.565345
-3.711603
-5.362212
-6.325457
-7.205236
-8.383340
-9.129154
-9.023010
-7.767986
-4.955639
-0.826545
3.189858
5.833637
7.282947
7.231511
5.571550
3.573987
1.416038
-1.108973
-3.590731
-5.873527
-6.781128
-5.465083
-3.317889
-1.679672
-0.456211
0.887188
2.498051
4.256207
6.043821
7.160670
7.146642
6.897648
6.815819
6.200465
4.937258
3.308626
1.830794
1.376292
1.832664
2.417157
3.372687
5.270887
7.112274
7.523991
6.600959
4.747181
2.260279
-0.393554
-2.953634
-5.216090
-7.168765
-7.842802
-5.865579
-1.945266
2.455266
6.301699
8.687600
9.501214
9.071728
8.013328
6.445250
3.252982
-1.938720
-7.647815
-12.066818
-14.498543
-14.874021
-13.417464
-11.112457
-8.723517
-6.394428
-4.221283
-2.133006
-0.098970
1.794554
3.278232
3.659555
2.783751
1.434039
-0.287878
-2.800731
-5.202998
-6.533070
-6.940579
-6.423420
-4.967564
-2.846789
-0.318038
2.247887
4.674936
6.628546
7.752410
8.499392
9.010473
8.571402
7.018053
4.620462
1.570342
-1.203195
-2.785301
-3.309007
-2.917162
-1.671958
-0.158355
1.757146
4.847479
8.362620
11.036092
12.986896
13.955518
13.080415
10.531324
6.688398
1.912387
-3.029619
-7.811007
-12.209201
-15.426953
-17.266002
-18.459771
-18.931106
-18.198620
-16.787186
-14.939252
-12.515710
-9.836861
-6.823214
-3.595409
-1.125574
0.026578
0.059310
-0.708714
-1.927032
-3.122671
-4.041494
-4.327194
-3.487862
-2.342723
-2.167142
-2.595224
-2.674248
-2.349270
-2.013771
-1.813406
-1.733448
-1.676869
-1.151059
0.106303
1.559119
2.292074
1.934364
1.241622
0.377508
-1.143811
-2.071986
-1.195013
0.529476
1.768835
2.465083
3.795624
6.042181
7.907884
8.782052
8.629148
7.214908
4.660673
1.311060
-1.950880
-4.449003
-6.689015
-8.529000
-8.964096
-8.139260
-6.573987
-4.411128
-2.445829
-1.193844
-0.490115
-0.349602
-0.593687
-1.192208
-2.094665
-2.845856
-3.427076
-3.604060
-2.956208
-1.772493
-0.199505
1.638609
2.871656
3.202947
3.515066
3.701403
2.747510
0.567350
-2.697862
-6.207861
-8.449275
-9.115130
-8.746665
-8.351080
-8.307360
-7.785291
-6.342762
-3.689631
-0.354746
2.293943
3.862722
4.274673
4.069165
3.496830
1.091757
-2.984498
-6.782769
-9.766957
-12.097448
-13.320675
-12.984007
-11.365897
-9.237640
-6.939881
-4.317143
-1.392807
1.429828
3.627054
4.933280
5.646361
6.185965
6.354533
5.451842
3.394426
0.972052
-1.412446
-3.227414
-3.606399
-3.148157
-2.714697
-2.108227
-1.068063
0.409302
1.595356
2.070899
2.507165
2.938053
3.219545
3.581931
3.640380
3.113168
1.839674
-0.453877
-3.304801
-6.637348
-10.520486
-13.429859
-14.576635
-14.609834
-13.443186
-11.515995
-9.553267
-7.184667
-4.557955
-2.147973
-0.069047
1.257051
1.722775
1.950026
2.466484
2.760835
1.918697
-0.029770
-2.427594
-4.641888
-6.545232
-8.450212
-9.885260
-10.131448
-9.452033
-8.166850
-6.680133
-5.550191
-3.982814
-1.497549
0.865206
2.365951
2.404995
1.135943
-0.258891
-1.563714
-3.215258
-5.700055
-8.354355
-9.282531
-8.604986
-7.426180
-6.180742
-5.366894
-4.383075
-3.099294
-2.270717
-1.721995
-1.914176
-2.679862
-2.749768
-2.699267
-3.234196
-4.184114
-5.534995
-6.648805
-7.062626
-6.739752
-5.669896
-4.168683
-2.365639
-0.732331
0.019795
-0.249540
-1.556467
-3.718390
-6.186120
-7.962044
-8.345472
-7.828546
-6.733206
-5.074180
-3.291243
-1.975432
-2.048143
-3.304335
-4.240226
-4.429368
-4.465139
-4.382141
-3.367461
-1.587094
-0.221485
0.544201
0.619016
0.348513
0.898872
2.381380
4.433185
6.031423
6.543439
7.117879
7.424387
6.278079
3.811050
0.571322
-2.013541
-3.476410
-4.955646
-6.195005
-6.368950
-5.875872
-5.311018
-4.809289
-4.763465
-5.512551
-6.332244
-6.753079
-6.911594
-6.415710
-5.461116
-4.604950
-3.832718
-3.543744
-3.875970
-4.217314
-4.440591
-4.810224
-5.139645
-4.821213
-3.974867
-3.451862
-3.283528
-3.108882
-2.988710
-2.833469
-2.760290
-3.110285
-3.610845
-4.075634
-4.973415
-6.294837
-7.448393
-8.080581
-7.923001
-7.100269
-5.885458
-3.818924
-1.225177
0.563138
1.451567
2.180080
3.091188
4.196347
5.022587
5.076126
4.085527
1.964518
-0.667104
-3.047627
-4.941619
-6.319153
-6.996931
-6.708191
-5.882653
-5.084235
-3.902156
-2.357458
-1.374107
-1.129087
-1.109916
-1.067131
-1.016865
-0.900200
-0.754544
-0.961221
-1.556469
-2.504517
-4.160503
-5.855767
-6.494968
-6.235687
-5.303538
-3.663917
-1.672432
0.621586
2.995798
4.738289
5.632329
5.793649
5.284205
4.367954
3.318438
2.027643
0.288659
-1.718023
-3.597052
-4.940685
-5.588771
-5.859742
-6.001423
-5.800825
-4.758323
-2.788113
-0.506018
1.652398
3.362859
4.119427
4.140702
4.077577
4.160809
4.507063
5.008558
5.422613
5.954268
6.334188
6.016224
5.381464
4.436456
2.862532
1.260320
0.033118
-0.796862
-1.157378
-1.234297
-1.142415
-0.876587
-0.203719
0.871281
1.637902
1.777479
1.427718
0.562902
-0.769508
-2.292698
-3.395987
-3.726109
-3.518964
-2.981698
-2.329170
-1.673602
-0.831231
0.422624
2.461803
5.103479
7.468338
9.142560
9.858681
9.343860
8.025711
6.498781
4.877163
2.675728
-0.251882
-2.779931
-3.857737
-3.343149
-1.629415
0.192099
1.263592
1.574075
1.289544
0.911026
0.747835
0.328871
-0.297940
-0.543427
-0.267312
0.530871
1.534329
2.328305
3.212526
4.506360
6.167490
7.925177
8.959730
8.813139
8.029918
6.767647
4.646404
2.262140
0.200282
-1.866486
-3.538370
-4.190665
-3.846749
-2.648304
-1.213490
0.400646
2.564206
4.405593
5.269474
5.521274
5.370942
4.742729
3.606708
2.094039
0.193268
-1.969591
-3.778247
-4.640257
-4.450881
-3.584195
-1.793542
1.398960
5.280930
9.191189
12.738361
14.754161
14.632353
13.173224
11.263100
8.983811
6.304026
3.394653
0.464238
-1.828144
-2.964165
-2.903378
-1.647886
0.318349
2.589923
5.417467
8.622827
11.422783
13.480199
14.901920
15.561930
15.386582
14.356705
12.440503
10.016960
7.065971
3.478820
0.052287
-2.629134
-4.561936
-5.849925
-6.533782
-6.384152
-5.590176
-4.658728
-3.669766
-2.744864
-1.977073
-1.133065
-0.552547
-0.204189
0.654549
1.168435
0.973916
1.075384
0.822882
0.359029
0.378901
-0.095941
-0.513970
-0.284615
-0.515841
-1.294386
-2.315846
-3.659245
-4.748507
-4.688421
-3.547724
-1.897115
-0.044506
1.365759
2.526095
3.955765
5.355977
6.930134
8.146114
8.075039
7.183337
6.174501
5.627650
5.061159
3.420837
1.566825
0.590020
0.128972
-0.176134
-0.230609
-0.425829
-1.399595
-2.909925
-4.763938
-7.045098
-8.795538
-9.561224
-9.915661
-9.708282
-8.835283
-7.507081
-5.194592
-1.574242
2.538486
5.776578
7.364529
7.508782
6.718313
5.433831
3.712148
1.213790
-1.962345
-4.929700
-6.596675
-6.690428
-5.808544
-4.402955
-2.499378
-0.015983
2.514638
3.948984
4.258532
4.431542
4.614605
4.493732
4.109369
3.250866
1.693074
-0.282512
-2.101455
-3.469637
-4.797371
-5.913753
-5.889439
-4.850210
-3.537204
-2.774558
-3.210122
-4.133855
-5.093359
-6.434654
-7.416135
-7.360257
-6.617016
-5.347731
-3.703434
-2.166217
-0.843159
0.445532
1.720195
2.854579
