EVENT_NAME: 202302060117
EVENT_ID: 13194
EVENT_DATE_YYYYMMDD: 2023/02/06
EVENT_TIME_HHMMSS: 01:17:32.00000
EVENT_LATITUDE_DEGREE: 37.288
EVENT_LONGITUDE_DEGREE: 37.043
EVENT_DEPTH_KM: 8.6
HYPOCENTER_REFERENCE: AFAD
MAGNITUDE_W: 7.7
MAGNITUDE_W_REFERENCE: AFAD
MAGNITUDE_L: 
MAGNITUDE_L_REFERENCE: 
FOCAL_MECHANISM: 
NETWORK: TK
STATION_CODE: 5504
STATION_NAME: 
STATION_LATITUDE_DEGREE: 40.972266
STATION_LONGITUDE_DEGREE: 35.669231
STATION_ELEVATION_M: 680.0
LOCATION: Kahramanmaras_Pazarck_Turkiye
SENSOR_DEPTH_M: 
VS30_M/S: 404
SITE_CLASSIFICATION_EC8: B
MORPHOLOGIC_CLASSIFICATION: 
EPICENTRAL_DISTANCE_KM: 426.45
EARTHQUAKE_BACKAZIMUTH_DEGREE: 
DATE_TIME_FIRST_SAMPLE_YYYYMMDD_HHMMSS: 2023/02/06 01:18:06.2292370
DATE_TIME_FIRST_SAMPLE_PRECISION: millisecond
SAMPLING_INTERVAL_S: 0.01
NDATA: 21001
DURATION_S: 
STREAM: HNZ
UNITS: cm/s^2
INSTRUMENT: sensor = GMS+/GEOSIG | digitizer = 
INSTRUMENT_ANALOG/DIGITAL: 
INSTRUMENTAL_FREQUENCY_HZ: 
INSTRUMENTAL_DAMPING: 
FULL_SCALE_G: 
N_BIT_DIGITAL_CONVERTER: 
PGA_CM/S^2: 4.395
TIME_PGA_S: 
BASELINE_CORRECTION: BASELINE REMOVED
FILTER_TYPE: BUTTERWORTH
FILTER_ORDER: 
LOW_CUT_FREQUENCY_HZ: 
HIGH_CUT_FREQUENCY_HZ: 
LATE/NORMAL_TRIGGERED: 
DATABASE_VERSION: 
HEADER_FORMAT: DYNA 1.2
DATA_TYPE: Acceleration
PROCESSING: Automatic Paolucci et al., 2011
DATA_TIMESTAMP_YYYYMMDD_HHMMSS: 
DATA_LICENSE: U (unknown license)
DATA_CITATION: Turkish Accelerometric Archive v 1.0 - Disaster And Emergency Management Presidency, Earthquake Department
DATA_CREATOR: AFAD
ORIGINAL_DATA_MEDIATOR_CITATION: : AFAD - Disaster And Emergency Management Presidency
ORIGINAL_DATA_MEDIATOR: AFAD PROCESS SERVICE
ORIGINAL_DATA_CREATOR_CITATION: AFAD PROCESS SERVICE
ORIGINAL_DATA_CREATOR: network: TK
USER1: GuestUser
USER2: 
USER3: 
USER4: 
USER5: 
[...]
2.128160
2.053607
1.969702
1.879823
1.782410
1.678503
1.572778
1.457961
1.338988
1.216118
1.087533
0.960247
0.828805
0.696064
0.560985
0.424867
0.292386
0.160424
0.034697
-0.088693
-0.206107
-0.315209
-0.420675
-0.518087
-0.610824
-0.698625
-0.779413
-0.855784
-0.925921
-0.991902
-1.054765
-1.114512
-1.168803
-1.222315
-1.275567
-1.326481
-1.378694
-1.428049
-1.476885
-1.525462
-1.573518
-1.622094
-1.670411
-1.721585
-1.774837
-1.828608
-1.882900
-1.940308
-2.002132
-2.061619
-2.123963
-2.188125
-2.250729
-2.313332
-2.375157
-2.438280
-2.499325
-2.557513
-2.613882
-2.671290
-2.723503
-2.769482
-2.818058
-2.861179
-2.899625
-2.938589
-2.971580
-3.003011
-3.031845
-3.054704
-3.073407
-3.085096
-3.091330
-3.095486
-3.093148
-3.087173
-3.079899
-3.067170
-3.052363
-3.036517
-3.016514
-2.997811
-2.978587
-2.952870
-2.930010
-2.910008
-2.888187
-2.868444
-2.851299
-2.835193
-2.820645
-2.805319
-2.792590
-2.779601
-2.761677
-2.745311
-2.724789
-2.698032
-2.670497
-2.637506
-2.599320
-2.555938
-2.505802
-2.452550
-2.392283
-2.325522
-2.255385
-2.179792
-2.100822
-2.022112
-1.942103
-1.859237
-1.776370
-1.692205
-1.606222
-1.521537
-1.437112
-1.356064
-1.276834
-1.193968
-1.112660
-1.035509
-0.958877
-0.883284
-0.809250
-0.734177
-0.660142
-0.586887
-0.513632
-0.440637
-0.365824
-0.287893
-0.207105
-0.125797
-0.039814
0.051106
0.142285
0.240997
0.341008
0.440499
0.548043
0.655068
0.763652
0.874313
0.984975
1.097714
1.204479
1.311244
1.420087
1.525294
1.628682
1.727913
1.821690
1.912869
1.999372
2.077563
2.152376
2.220955
2.282261
2.339410
2.392403
2.439422
2.484102
2.526445
2.563851
2.603337
2.639185
2.672955
2.708284
2.738677
2.766213
2.791151
2.811673
2.825961
2.835053
2.839210
2.839210
2.835833
2.830638
2.824664
2.813494
2.802844
2.791155
2.778427
2.769076
2.759984
2.752451
2.744658
2.733489
2.726216
2.717124
2.706994
2.697383
2.681018
2.665951
2.648288
2.625948
2.602050
2.570878
2.537628
2.501001
2.459698
2.411901
2.356831
2.299682
2.237598
2.171358
2.103299
2.036019
1.966142
1.897824
1.831323
1.759888
1.690010
1.616756
1.541943
1.464793
1.382447
1.298542
1.206325
1.110730
1.012798
0.905515
0.793815
0.675880
0.551972
0.426244
0.296620
0.160243
0.019189
-0.122904
-0.266295
-0.413064
-0.559572
-0.705042
-0.850772
-0.992085
-1.130021
-1.263801
-1.388230
-1.506684
-1.621501
-1.730343
-1.830873
-1.924389
-2.010372
-2.092978
-2.171427
-2.244162
-2.314299
-2.379760
-2.441844
-2.501071
-2.550946
-2.597704
-2.640825
-2.677712
-2.709663
-2.734600
-2.755121
-2.770447
-2.779279
-2.781617
-2.779018
-2.773043
-2.765250
-2.755119
-2.742130
-2.725245
-2.704203
-2.681863
-2.656925
-2.629129
-2.599775
-2.566524
-2.530676
-2.491451
-2.448069
-2.401830
-2.350395
-2.292467
-2.231681
-2.168817
-2.105952
-2.040750
-1.972431
-1.908268
-1.843585
-1.778383
-1.719156
-1.658370
-1.597064
-1.535758
-1.475232
-1.417823
-1.360154
-1.307161
-1.257805
-1.208968
-1.163508
-1.120646
-1.078823
-1.040377
-1.003490
-0.965304
-0.929975
-0.891529
-0.852303
-0.815156
-0.770736
-0.727094
-0.685011
-0.641890
-0.602145
-0.560841
-0.519538
-0.477455
-0.431735
-0.385496
-0.336660
-0.283147
-0.226777
-0.166770
-0.103127
-0.034807
0.039746
0.116898
0.194828
0.278994
0.367575
0.456416
0.547075
0.638514
0.730732
0.825028
0.919064
1.014140
1.108696
1.200654
1.297028
1.390026
1.478607
1.568227
1.654211
1.739934
1.824359
1.906446
1.986195
2.063607
2.140498
2.212195
2.282852
2.353509
2.419491
2.484173
2.546258
2.604706
2.661076
2.711212
2.758230
2.803430
2.844993
2.883699
2.920067
2.953058
2.982672
3.008130
3.031509
3.050992
3.063201
3.077229
3.088919
3.093595
3.100869
3.107104
3.111001
3.115158
3.115678
3.116457
3.114120
3.111263
3.110743
3.106847
3.102432
3.095418
3.083210
3.067104
3.045544
3.020866
2.992292
2.961900
2.930988
2.896179
2.861630
2.826562
2.790455
2.756426
2.720578
2.684211
2.648623
2.613035
2.576668
2.537963
2.498219
2.455357
2.410938
2.363920
2.313006
2.259754
2.203125
2.138183
2.070384
2.003884
1.932708
1.856856
1.777108
1.697099
1.615013
1.526952
1.439151
1.352908
1.267445
1.184579
1.102493
1.025862
0.956504
0.886108
0.817789
0.753107
0.688945
0.627380
0.563478
0.501394
0.442686
0.381122
0.320336
0.258512
0.194609
0.126551
0.054076
-0.018139
-0.095810
-0.176597
-0.257644
-0.340770
-0.425973
-0.511696
-0.596640
-0.683142
-0.769904
-0.856666
-0.942390
-1.026814
-1.107861
-1.185791
-1.266319
-1.342170
-1.416464
-1.493095
-1.568167
-1.642980
-1.714936
-1.785852
-1.857288
-1.929503
-1.999640
-2.067179
-2.134978
-2.194984
-2.249275
-2.302787
-2.353182
-2.399680
-2.445918
-2.492156
-2.535018
-2.573983
-2.609051
-2.641262
-2.669836
-2.693734
-2.712697
-2.725945
-2.731140
-2.728801
-2.722566
-2.706980
-2.680483
-2.648532
-2.607228
-2.560210
-2.509814
-2.453444
-2.392398
-2.326677
-2.262254
-2.201208
-2.138864
-2.075999
-2.013135
-1.947933
-1.882731
-1.818048
-1.754924
-1.692580
-1.631014
-1.572047
-1.515677
-1.460865
-1.406573
-1.357217
-1.311497
-1.266557
-1.226033
-1.188107
-1.151479
-1.115890
-1.077964
-1.043674
-1.010683
-0.976134
-0.942883
-0.911191
-0.877161
-0.837156
-0.795593
-0.752991
-0.710908
-0.665189
-0.617651
-0.570373
-0.518419
-0.469842
-0.418927
-0.364635
-0.311382
-0.256311
-0.204617
-0.150585
-0.094734
-0.041222
0.013850
0.066063
0.116978
0.167114
0.212574
0.256994
0.299597
0.340121
0.381684
0.418312
0.450004
0.481436
0.505335
0.525857
0.540924
0.547418
0.552095
0.550796
0.545601
0.535471
0.519885
0.499883
0.474946
0.447151
0.415719
0.382729
0.351038
0.319087
0.286357
0.255445
0.222454
0.187906
0.154396
0.119328
0.084779
0.047892
0.008408
-0.032375
-0.072899
-0.112123
-0.153426
-0.194469
-0.233953
-0.273178
-0.311104
-0.346951
-0.378643
-0.408516
-0.435531
-0.459170
-0.482548
-0.503329
-0.522552
-0.539177
-0.553723
-0.569049
-0.584375
-0.598922
-0.613988
-0.630093
-0.645939
-0.663083
-0.681266
-0.698151
-0.716854
-0.737895
-0.760494
-0.782314
-0.802576
-0.825435
-0.846476
-0.864919
-0.883882
-0.901286
-0.918950
-0.935315
-0.950900
-0.969603
-0.987267
-1.007529
-1.030128
-1.052468
-1.079223
-1.106239
-1.131956
-1.156893
-1.179752
-1.202092
-1.224691
-1.246511
-1.267292
-1.283657
-1.295347
-1.303659
-1.308075
-1.308334
-1.301060
-1.290149
-1.278459
-1.261574
-1.242351
-1.221050
-1.197151
-1.174031
-1.147534
-1.119739
-1.091683
-1.060771
-1.029338
-0.996607
-0.961538
-0.925170
-0.886724
-0.849058
-0.809053
-0.765931
-0.724887
-0.682545
-0.639683
-0.597340
-0.551880
-0.509538
-0.467975
-0.425632
-0.388745
-0.350818
-0.313671
-0.280420
-0.242754
-0.206905
-0.173395
-0.134429
-0.096763
-0.061953
-0.026625
0.006366
0.040916
0.076245
0.110534
0.147682
0.187946
0.233666
0.283282
0.336534
0.393424
0.452911
0.516295
0.581497
0.647478
0.716837
0.789312
0.865165
0.944135
1.024144
1.104153
1.185720
1.270665
1.358986
1.449646
1.541344
1.629925
1.716688
1.801373
1.880602
1.955935
2.026852
2.092314
2.154139
2.210250
2.258567
2.299351
2.335459
2.368190
2.394427
2.417027
2.438069
2.453395
2.462228
2.467943
2.468463
2.463788
2.455216
2.440669
2.424824
2.407679
2.384820
2.359103
2.331309
2.300656
2.266108
2.230000
2.192854
2.152330
2.107651
2.062711
2.016213
1.963221
1.907891
1.851521
1.793334
1.737224
1.677738
1.612536
1.547075
1.480835
1.412516
1.343418
1.273021
1.201326
1.128591
1.055337
0.981304
0.905452
0.828821
0.749592
0.667765
0.585679
0.502554
0.417870
0.329289
0.238371
0.142517
0.045364
-0.050750
-0.149461
-0.250251
-0.354158
-0.454947
-0.563010
-0.678867
-0.783553
-0.891616
-1.000718
-1.103586
-1.211649
-1.317114
-1.413747
-1.499990
-1.587012
-1.666500
-1.736637
-1.814827
-1.886263
-1.950166
-2.006275
-2.055371
-2.098752
-2.133300
-2.170187
-2.207853
-2.245259
-2.275652
-2.300329
-2.319552
-2.328384
-2.339553
-2.344488
-2.350982
-2.365529
-2.369685
-2.373841
-2.380075
-2.382412
-2.388387
-2.390724
-2.400075
-2.417220
-2.423973
-2.433584
-2.445793
-2.451508
-2.455923
-2.458521
-2.460598
-2.459299
-2.453064
-2.445531
-2.438257
-2.429684
-2.407344
-2.376691
-2.355389
-2.335647
-2.309929
-2.269405
-2.223426
-2.185240
-2.138221
-2.085748
-2.020026
-1.947810
-1.888063
-1.814289
-1.721291
-1.629593
-1.547506
-1.456067
-1.351900
-1.252149
-1.150839
-1.051607
-0.953415
-0.852884
-0.754951
-0.659876
-0.567138
-0.472842
-0.384001
-0.302174
-0.224763
-0.150469
-0.079552
-0.017467
0.038644
0.094494
0.148007
0.194246
0.239186
0.282048
0.318416
0.353485
0.383099
0.412973
0.442067
0.466485
0.491164
0.513504
0.535585
0.555328
0.573512
0.594553
0.614296
0.629623
0.643391
0.661575
0.680798
0.697943
0.715868
0.734311
0.751976
0.768602
0.787565
0.810165
0.832246
0.857963
0.888356
0.922386
0.959014
0.998239
1.040322
1.079547
1.119812
1.161115
1.200081
1.239046
1.273076
1.307106
1.338279
1.363477
1.386856
1.403482
1.416211
1.422965
1.424784
1.421407
1.410757
1.398808
1.382443
1.361402
1.338024
1.312826
1.286330
1.258795
1.231001
1.202686
1.175671
1.149435
1.123198
1.100339
1.081377
1.061375
1.042412
1.026307
1.008123
0.990460
0.975913
0.961886
0.949937
0.940066
0.931234
0.925260
0.920585
0.914091
0.910454
0.908377
0.905520
0.904221
0.905001
0.905001
0.904742
0.906820
0.910717
0.915913
0.923447
0.933058
0.947606
0.967608
0.989689
1.015406
1.044760
1.079050
1.115158
1.151266
1.193349
1.235951
1.281411
1.331547
1.379085
1.430779
1.485071
1.541701
1.597811
1.650804
1.711070
1.763284
1.803808
1.856282
1.905118
1.942006
1.983309
2.023574
2.058903
2.094231
2.132158
2.169565
2.194243
2.207492
2.221000
2.237366
2.257628
2.280748
2.296074
2.305946
2.306206
2.292958
2.282048
2.271139
2.259969
2.244123
2.218926
2.195028
2.164895
2.129048
2.087225
2.037610
1.990852
1.938120
1.881491
1.820446
1.751348
1.689264
1.620945
1.545872
1.470540
1.390012
1.312082
1.236231
1.159599
1.080111
1.001142
0.925030
0.847620
0.776703
0.712801
0.653834
0.598504
0.545252
0.495117
0.448099
0.405238
0.365494
0.327568
0.293539
0.262886
0.231715
0.203920
0.178463
0.150149
0.123393
0.102872
0.084948
0.069362
0.060531
0.051179
0.040789
0.031438
0.022606
0.015073
0.008060
0.002085
-0.007266
-0.017137
-0.028306
-0.041294
-0.054802
-0.070907
-0.089091
-0.110131
-0.131952
-0.155330
-0.182865
-0.213777
-0.247027
-0.284693
-0.324697
-0.367039
-0.411199
-0.456918
-0.507312
-0.558486
-0.610180
-0.663172
-0.714606
-0.766819
-0.819032
-0.871245
-0.923198
-0.973073
-1.023727
-1.077499
-1.129452
-1.180366
-1.235697
-1.289728
-1.342460
-1.396752
-1.451302
-1.505074
-1.557027
-1.607682
-1.658596
-1.710549
-1.759385
-1.807182
-1.858356
-1.909270
-1.960444
-2.013176
-2.065649
-2.116304
-2.169036
-2.222548
-2.274241
-2.324636
-2.373472
-2.420749
-2.467247
-2.512966
-2.555828
-2.597130
-2.638693
-2.678437
-2.717661
-2.756107
-2.789876
-2.819230
-2.847024
-2.873520
-2.894821
-2.913004
-2.929889
-2.942617
-2.951189
-2.955605
-2.959761
-2.960799
-2.956643
-2.952746
-2.947290
-2.940536
-2.934561
-2.928326
-2.921572
-2.912480
-2.905725
-2.898711
-2.885722
-2.875072
-2.862862
-2.848055
-2.834806
-2.816103
-2.797399
-2.779734
-2.757134
-2.733495
-2.702842
-2.670111
-2.634522
-2.588283
-2.537368
-2.477881
-2.414497
-2.345918
-2.264611
-2.178108
-2.085110
-1.985879
-1.881711
-1.774946
-1.665584
-1.550246
-1.432051
-1.311519
-1.190207
-1.066817
-0.940309
-0.813542
-0.685476
-0.558449
-0.431682
-0.302577
-0.171914
-0.039951
0.093830
0.227351
0.360612
0.496731
0.631291
0.768449
0.906906
1.043284
1.183040
1.321496
1.458394
1.592435
1.722060
1.850645
1.974555
2.094048
2.208866
2.316410
2.419279
2.518511
2.610729
2.698790
2.781657
2.858808
2.933622
3.001162
3.062467
3.120915
3.172610
3.222745
3.271062
3.313665
3.355228
3.392115
3.424067
3.452642
3.477061
3.498362
3.515247
3.528236
3.538627
3.545641
3.553435
3.556292
3.552916
3.551358
3.547981
3.544345
3.539669
3.532396
3.527721
3.520188
3.509797
3.502005
3.490575
3.473171
3.454208
3.427193
3.395242
3.359654
3.317052
3.271593
3.219121
3.166648
3.111318
3.050532
2.990267
2.924546
2.858565
2.787649
2.713615
2.640101
2.562691
2.484761
2.401376
2.315653
2.230449
2.141089
2.050690
1.958473
1.866256
1.774299
1.680003
1.587007
1.497647
1.408547
1.318408
1.231386
1.147221
1.063057
0.981490
0.901742
0.824591
0.750817
0.677303
0.606387
0.540666
0.476764
0.411822
0.350517
0.293628
0.237519
0.182189
0.124261
0.067892
0.012561
-0.042509
-0.096540
-0.152650
-0.206681
-0.261232
-0.321758
-0.384881
-0.447225
-0.513206
-0.584901
-0.658675
-0.737904
-0.821808
-0.908570
-0.999749
-1.096122
-1.195353
-1.296403
-1.400569
-1.505775
-1.612019
-1.720862
-1.829185
-1.938287
-2.048168
-2.152854
-2.255722
-2.360408
-2.463795
-2.562767
-2.658361
-2.751098
-2.838120
-2.924362
-3.003331
-3.073728
-3.144125
-3.204650
-3.258941
-3.311934
-3.361289
-3.409606
-3.453246
-3.494289
-3.535072
-3.574557
-3.616639
-3.659240
-3.696906
-3.734053
-3.776135
-3.823412
-3.868871
-3.913031
-3.958750
-3.999014
-4.037719
-4.076164
-4.118766
-4.163705
-4.201371
-4.236699
-4.269689
-4.296185
-4.321902
-4.346839
-4.364244
-4.383986
-4.394895
-4.383205
-4.377230
-4.377750
-4.377489
-4.366579
-4.333848
-4.313845
-4.291765
-4.259553
-4.234355
-4.192272
-4.155645
-4.123693
-4.069921
-4.007576
-3.955362
-3.909383
-3.843661
-3.777680
-3.719491
-3.654809
-3.594023
-3.527262
-3.461281
-3.400754
-3.335812
-3.268272
-3.197615
-3.130334
-3.063314
-2.993436
-2.923558
-2.853940
-2.784841
-2.715223
-2.646384
-2.575987
-2.506888
-2.440387
-2.374406
-2.309983
-2.242443
-2.175163
-2.108142
-2.040602
-1.972542
-1.900586
-1.828111
-1.753297
-1.679783
-1.607307
-1.531714
-1.457420
-1.384685
-1.310910
-1.235058
-1.157127
-1.076339
-0.994511
-0.910086
-0.823064
-0.736820
-0.643823
-0.545631
-0.444840
-0.340933
-0.235467
-0.128961
-0.017261
0.097557
0.212115
0.333947
0.454999
0.573453
0.694246
0.814259
0.932194
1.044934
1.158193
1.268854
1.374840
1.481605
1.587850
1.691758
1.789691
1.885546
1.979062
2.066864
2.154926
2.237792
2.318061
2.396252
2.465870
2.533670
2.595754
2.651865
2.701221
2.742524
2.781490
2.811364
2.835263
2.857084
2.875008
2.889036
2.897608
2.906701
2.915533
2.922028
2.927483
2.930081
2.929043
2.928783
2.929303
2.929823
2.927485
2.920732
2.913978
2.902289
2.886963
2.870598
2.850596
2.829296
2.807216
2.780460
2.755263
2.729546
2.700453
2.670320
2.637330
2.605119
2.569012
2.530307
2.492900
2.448221
2.402502
2.357822
2.310025
2.258592
2.206638
2.152347
2.091822
2.033115
1.973109
1.910505
1.845563
1.779323
1.714121
1.646582
1.580082
1.516699
1.452537
1.390452
1.329407
1.269142
1.210694
1.154844
1.101333
1.048340
0.997946
0.951967
0.907547
0.866244
0.825981
0.784418
0.745713
0.708827
0.672200
0.637911
0.603622
0.571671
0.539720
0.505171
0.473999
0.440749
0.407759
0.376587
0.342818
0.307749
0.278136
0.247224
0.204882
0.168775
0.134226
0.102015
0.081494
0.061233
0.040192
0.021749
0.007981
-0.015657
-0.044491
-0.063714
-0.079299
-0.092547
-0.099301
-0.108132
-0.122939
-0.142421
-0.163202
-0.174891
-0.186061
-0.190736
-0.192554
-0.205023
-0.210218
-0.219309
-0.230479
-0.233076
-0.241129
-0.248921
-0.255415
-0.267104
-0.281391
-0.289444
-0.292561
-0.297496
-0.309705
-0.325030
-0.334901
-0.342954
-0.348668
-0.355941
-0.368410
-0.382437
-0.397243
-0.410491
-0.421921
-0.431791
-0.443481
-0.453092
-0.456208
-0.462702
-0.467118
-0.466858
-0.466078
-0.462701
-0.458025
-0.451530
-0.444776
-0.437762
-0.432046
-0.427110
-0.418538
-0.412822
-0.406068
-0.399054
-0.397235
-0.395157
-0.395156
-0.401131
-0.411001
-0.419833
-0.428405
-0.440094
-0.453602
-0.469447
-0.485553
-0.505295
-0.529972
-0.553870
-0.581146
-0.609460
-0.637255
-0.664530
-0.691286
-0.718301
-0.741680
-0.765319
-0.783762
-0.795970
-0.807400
-0.811036
-0.811555
-0.808438
-0.799865
-0.789474
-0.773368
-0.756483
-0.737519
-0.715179
-0.693358
-0.672057
-0.651015
-0.633870
-0.613348
-0.590488
-0.574382
-0.555678
-0.535416
-0.516453
-0.498788
-0.483721
-0.466316
-0.449691
-0.432026
-0.413582
-0.399035
-0.382929
-0.363966
-0.345522
-0.326818
-0.307335
-0.286294
-0.267590
-0.246289
-0.224468
-0.206024
-0.183164
-0.162122
-0.144977
-0.127572
-0.110687
-0.094321
-0.080293
-0.066525
-0.054835
-0.042886
-0.029637
-0.022363
-0.018726
-0.015349
-0.013011
-0.011711
-0.014568
-0.022621
-0.029115
-0.036648
-0.049376
-0.061325
-0.074832
-0.090418
-0.106264
-0.124967
-0.141591
-0.160034
-0.177179
-0.191725
-0.209129
-0.224715
-0.240561
-0.255627
-0.270433
-0.286538
-0.302903
-0.322126
-0.337971
-0.353297
-0.372520
-0.391223
-0.411744
-0.433045
-0.456164
-0.481361
-0.505779
-0.530456
-0.560329
-0.593319
-0.625790
-0.661118
-0.696706
-0.731514
-0.765284
-0.801131
-0.837239
-0.871787
-0.907375
-0.939846
-0.972836
-1.004008
-1.035439
-1.064013
-1.086873
-1.109732
-1.127396
-1.142722
-1.153112
-1.158307
-1.162463
-1.158306
-1.151552
-1.144278
-1.134666
-1.123496
-1.107909
-1.090764
-1.072061
-1.049461
-1.024263
-0.995948
-0.966334
-0.935161
-0.900352
-0.861646
-0.820862
-0.775662
-0.730722
-0.682405
-0.629412
-0.575639
-0.519789
-0.464718
-0.406270
-0.346003
-0.286776
-0.224691
-0.161567
-0.097923
-0.032461
0.034559
0.102359
0.170678
0.233543
0.295108
0.358232
0.418239
0.478505
0.538252
0.594362
0.649693
0.702946
0.752822
0.801399
0.845560
0.885305
0.923231
0.958040
0.988174
1.018048
1.045843
1.070262
1.093122
1.113903
1.135724
1.156506
1.174690
1.193134
1.214695
1.236516
1.257038
1.279119
1.300420
1.326917
1.356011
1.381729
1.407966
1.433683
1.459660
1.483299
1.504860
1.530318
1.553178
1.575778
1.599937
1.624615
1.650852
1.674232
1.698650
1.726965
1.756579
1.784894
1.811911
1.841525
1.872437
1.902571
1.931146
1.961799
1.993491
2.021806
2.047004
2.074020
2.100516
2.122857
2.142600
2.157926
2.175591
2.190658
2.200270
2.208842
2.216116
2.220533
2.222611
2.225209
2.225210
2.224431
2.222613
2.218976
2.216898
2.211703
2.205729
2.201313
2.196378
2.192222
2.188326
2.182352
2.176897
2.172222
2.163909
2.156377
2.150922
2.145727
2.141311
2.139753
2.140273
2.140273
2.143131
2.148327
2.153003
2.160796
2.171187
2.181059
2.190931
2.201062
2.210154
2.217948
2.224442
2.227560
2.225482
2.221586
2.216651
2.207299
2.195870
2.182103
2.159763
2.131189
2.101056
2.065208
2.023646
1.980785
1.935845
1.886749
1.833238
1.778427
1.723097
1.664389
1.605423
1.546196
1.483852
1.422287
1.358644
1.292404
1.225384
1.157845
1.092384
1.025624
0.959903
0.895481
0.828721
0.762480
0.696760
0.631558
0.566357
0.499857
0.434395
0.369454
0.304772
0.239311
0.174889
0.110986
0.048383
-0.010325
-0.066694
-0.121764
-0.174497
-0.226710
-0.276845
-0.323862
-0.372179
-0.416079
-0.457642
-0.499204
-0.538169
-0.576614
-0.611423
