EVENT_NAME: 202302060117
EVENT_ID: 13194
EVENT_DATE_YYYYMMDD: 2023/02/06
EVENT_TIME_HHMMSS: 01:17:32.00000
EVENT_LATITUDE_DEGREE: 37.288
EVENT_LONGITUDE_DEGREE: 37.043
EVENT_DEPTH_KM: 8.6
HYPOCENTER_REFERENCE: AFAD
MAGNITUDE_W: 7.7
MAGNITUDE_W_REFERENCE: AFAD
MAGNITUDE_L: 
MAGNITUDE_L_REFERENCE: 
FOCAL_MECHANISM: 
NETWORK: TK
STATION_CODE: 3117
STATION_NAME: 
STATION_LATITUDE_DEGREE: 36.55712
STATION_LONGITUDE_DEGREE: 36.17471
STATION_ELEVATION_M: 193.0
LOCATION: Kahramanmaras_Pazarck_Turkiye
SENSOR_DEPTH_M: 
VS30_M/S: 597
SITE_CLASSIFICATION_EC8: B
MORPHOLOGIC_CLASSIFICATION: 
EPICENTRAL_DISTANCE_KM: 112.08
EARTHQUAKE_BACKAZIMUTH_DEGREE: 
DATE_TIME_FIRST_SAMPLE_YYYYMMDD_HHMMSS: 2023/02/06 01:17:31.3679700
DATE_TIME_FIRST_SAMPLE_PRECISION: millisecond
SAMPLING_INTERVAL_S: 0.01
NDATA: 12501
DURATION_S: 
STREAM: HNE
UNITS: cm/s^2
INSTRUMENT: sensor = CMG-5T/GURALP | digitizer = 
INSTRUMENT_ANALOG/DIGITAL: 
INSTRUMENTAL_FREQUENCY_HZ: 
INSTRUMENTAL_DAMPING: 
FULL_SCALE_G: 
N_BIT_DIGITAL_CONVERTER: 
PGA_CM/S^2: 1093.245
TIME_PGA_S: 
BASELINE_CORRECTION: BASELINE REMOVED
FILTER_TYPE: BUTTERWORTH
FILTER_ORDER: 
LOW_CUT_FREQUENCY_HZ: 
HIGH_CUT_FREQUENCY_HZ: 
LATE/NORMAL_TRIGGERED: 
DATABASE_VERSION: 
HEADER_FORMAT: DYNA 1.2
DATA_TYPE: Acceleration
PROCESSING: Automatic Paolucci et al., 2011
DATA_TIMESTAMP_YYYYMMDD_HHMMSS: 
DATA_LICENSE: U (unknown license)
DATA_CITATION: Turkish Accelerometric Archive v 1.0 - Disaster And Emergency Management Presidency, Earthquake Department
DATA_CREATOR: AFAD
ORIGINAL_DATA_MEDIATOR_CITATION: : AFAD - Disaster And Emergency Management Presidency
ORIGINAL_DATA_MEDIATOR: AFAD PROCESS SERVICE
ORIGINAL_DATA_CREATOR_CITATION: AFAD PROCESS SERVICE
ORIGINAL_DATA_CREATOR: network: TK
USER1: GuestUser
USER2: 
USER3: 
USER4: 
USER5: 
155.752673
155.085647
-64.382772
228.880938
-14.340556
257.930416
-367.951483
216.636578
-19.492005
177.869598
-167.159711
32.837389
429.574180
164.603690
-186.159668
308.704486
-385.387605
525.876826
-488.731440
144.393923
328.648270
-266.419152
183.755608
341.316479
-201.062329
233.669180
256.707514
-128.212558
-270.871962
-386.801277
159.397431
-182.937262
-14.940943
-107.288240
272.900925
207.781885
-575.051278
10.484805
-53.274772
-69.547705
261.824163
-148.471938
-309.431563
177.493392
337.788193
39.837390
346.336200
71.183849
332.339043
-341.627305
-136.216065
29.390542
317.003631
262.467089
125.087381
18.870268
547.866227
-8.528847
-35.208417
-412.971656
-89.148556
259.319224
239.134162
-200.986378
-648.102297
45.664384
-268.418704
166.787567
-269.955625
44.374948
160.871057
-103.950281
257.534424
-39.566789
87.611452
-14.340611
-148.765515
321.348324
130.287564
-125.479696
313.726035
-16.435620
150.258257
121.914921
440.968199
-393.803922
-279.794159
-81.911578
84.971663
303.098827
-432.521683
105.643894
-180.662950
509.099770
157.605362
-37.736953
-429.628096
-133.453996
139.274632
163.313506
-77.379029
675.888583
371.443572
96.811298
470.902390
-111.681688
125.918196
-161.454310
290.889888
-139.111212
398.112645
-113.984968
-227.003893
56.930545
104.662174
-246.838535
-105.159964
431.455586
-182.722034
-231.803021
-281.444898
-170.674736
358.524393
165.220070
-483.560215
-79.217038
-168.911133
132.271370
204.572353
69.207529
-280.600905
-176.378969
-45.259187
96.406479
512.522360
18.939242
235.682035
334.582262
520.957430
-335.627308
-314.302857
497.961213
285.075533
-14.210424
-105.767253
97.754545
-85.808465
-23.543795
359.330683
-200.967217
113.847720
167.296594
-108.426252
-165.991123
209.551562
-353.048721
460.653438
304.444428
-176.018829
297.039911
73.810614
337.627112
-187.731409
141.207831
-76.276613
44.002282
-86.061539
63.649264
365.432571
103.036356
282.245988
170.339541
-356.366739
-462.324864
-209.514908
422.779473
-113.855082
40.307134
124.494858
-164.670157
217.563002
43.217326
-315.990604
402.808488
241.850663
-164.747880
144.497164
84.132941
188.305960
104.770559
527.250102
-226.217476
-702.838827
-2.816218
208.891763
106.731129
198.740113
-111.232477
-92.444489
-195.104492
-259.233496
-350.779221
-352.018241
287.122367
104.925121
-259.473074
386.935105
72.438777
-195.782117
110.325060
-130.898655
-454.508182
60.046267
-479.829990
66.407131
-157.721572
-244.869302
93.073900
-182.880624
630.618066
-379.065826
186.417139
-92.301325
-171.994820
152.144288
8.225056
-282.866614
243.456636
36.415443
-6.720223
-44.612806
-245.764797
-197.065938
131.618815
424.561416
-134.169052
136.424951
133.603793
224.731977
373.768450
-187.025820
-345.340646
132.979784
135.595574
-135.444479
-329.689322
-167.626020
88.071818
213.910104
-366.577161
242.727903
-341.050581
245.835661
303.791767
-92.524680
-315.299623
-259.043295
-36.415501
152.267151
-160.471179
-165.328530
85.655005
-385.516192
284.777108
181.724871
-99.643494
133.142754
54.386478
-87.974024
-89.604378
34.781414
-226.606457
110.104525
-161.547736
-18.290928
-56.150200
-39.503139
83.190077
17.988809
18.613422
-24.322675
235.594897
-290.447857
-507.895388
149.416098
-171.023750
-30.125144
-13.386853
244.768221
-454.957986
140.309206
23.735271
-550.297099
-518.313024
116.573638
29.687898
-4.782922
273.646745
-63.812490
-155.537676
-211.184295
515.053126
-591.651053
20.191374
491.030260
-3.319318
517.071815
-71.619939
-394.973179
90.929029
127.154446
18.115473
-217.750520
-17.008568
135.953240
-109.188007
86.442908
-111.783689
-621.184584
-22.162816
-363.078327
580.194987
187.705741
228.399678
525.360645
-231.452771
189.853974
-21.804889
274.000985
251.217940
-417.309359
-653.109030
-429.415574
-25.175932
-398.161246
-213.033002
-183.268181
-76.704249
-6.016314
637.841898
-489.989764
233.686587
-127.617256
-484.580123
-400.203934
261.839861
460.650357
396.971507
383.699295
-259.897327
-302.593343
235.911950
-174.982254
41.498550
405.398777
124.964630
152.861616
348.828645
356.341200
164.718049
-158.625287
-374.882914
402.397362
-115.271345
-154.126955
-352.552820
-309.097044
314.916921
59.629524
-164.823589
217.163487
60.967681
311.126536
-51.538870
-202.125769
-15.802818
279.442466
-138.399400
433.838262
485.467916
263.443829
-141.760140
115.298661
216.836784
-213.624072
-91.602784
183.395816
149.816600
-49.840283
230.157717
-129.213768
-481.550862
271.144155
-4.075119
-36.088703
-280.710174
289.003329
107.276643
71.272902
124.841216
199.454785
-103.503220
127.832935
-269.597491
434.510407
-49.632101
-270.816503
139.924549
-300.960951
114.452090
25.293077
170.553066
-171.420005
29.291638
42.152011
-241.731209
-377.074124
410.920994
-320.363342
34.420386
217.854554
-185.644535
38.323515
245.201954
259.691881
499.429693
-404.524351
206.119768
301.853318
-231.777515
173.799681
270.906498
312.830553
-638.771591
-161.034260
-48.939147
-69.227144
55.668221
8.850004
-228.651846
241.719481
-378.681355
-640.092634
284.201326
-676.346859
-219.328573
-380.368926
-4.522537
93.816499
-116.561829
204.870358
-334.707298
-137.463934
127.516060
242.220260
-113.655337
-272.667601
195.445458
384.848356
-517.619283
302.255075
294.497238
5.580707
-246.287927
476.333264
-208.002509
-408.221483
-355.999727
-6.939846
-93.953430
176.772017
-216.855215
-118.666530
89.294977
0.049234
94.537661
114.621490
-290.286578
-307.484125
-208.717443
-234.566331
521.980495
-36.467576
301.598667
-102.188820
446.093796
244.721230
26.421409
88.569340
-92.766013
-86.042127
-201.108048
-68.136037
-99.630145
72.118951
-294.747283
-655.151720
-151.872104
-248.852377
-59.340542
59.202863
-146.074031
-37.341561
57.650137
-339.631738
-346.393837
689.822577
313.804432
-292.932758
376.611488
-118.642298
-561.985634
-896.694735
5.159096
216.671411
-286.768858
42.411064
-559.294315
-39.173274
-38.010277
300.419089
377.957153
437.832711
-49.438961
217.302932
151.592691
-514.514584
-57.554517
12.153584
-152.169285
-438.717411
37.260422
-503.404203
-44.292405
-226.894188
207.787804
-66.769745
-82.635439
101.028308
-84.183464
-182.460777
169.514295
-2.733069
119.619232
-17.616728
253.939102
118.646903
267.764404
99.589425
-363.432502
-93.768816
-8.660978
164.702066
192.076574
74.367353
68.134335
270.191935
81.932627
425.981104
-269.768450
-36.937487
84.356354
-614.947009
-52.751362
-26.583864
60.113614
119.515611
156.524295
-47.474764
62.724004
175.850868
202.809134
596.810795
-253.597243
-58.969269
46.175781
-369.674307
-110.092849
-74.371003
352.345982
524.828226
-301.221130
-209.361897
-171.807028
442.147817
215.939107
-196.078978
85.419832
214.909459
-354.176630
-17.872586
-3.713071
-103.716271
538.139360
100.500364
-27.082514
370.335209
-35.008007
-73.579421
-213.585022
-151.658266
-99.343179
392.458735
-88.465479
-45.127343
160.480464
7.523059
-282.258666
371.543127
46.755700
428.822003
202.571279
-330.928411
342.369511
-199.978086
-182.911183
41.361470
-660.724438
-47.115611
-250.437039
36.717494
-128.783876
-484.076075
-178.607214
-234.526927
-148.703646
469.535456
52.216368
318.017141
-119.349363
-339.859436
-129.824823
-487.270854
120.750073
-95.009084
-283.936119
-407.617970
-344.803212
-167.067081
58.446794
227.645622
-513.920810
-129.119677
134.808159
-137.748009
301.699304
235.017332
4.413928
-170.543057
572.743461
-348.309796
187.124852
268.202619
291.753227
125.121073
-204.066450
164.280088
175.227011
-472.335160
-70.251151
-470.376192
-369.730272
14.054415
-9.374450
47.588618
-464.078048
-277.989477
-253.891783
151.103516
-23.863372
25.633457
-234.318126
-130.326368
-287.862730
-56.007398
171.440335
-226.261984
333.500136
385.781312
-246.346010
149.818486
-89.598615
-273.189835
-498.484735
145.755207
180.184814
170.680683
-98.986403
-195.087677
228.881574
-226.545971
-142.441975
-364.304008
327.032747
406.154750
306.994236
146.998238
-353.169419
-209.614609
296.499170
270.205531
-167.003120
-404.029908
20.036275
505.589764
-178.738507
-20.514710
122.566538
17.174105
-123.944575
-46.891476
214.584527
-207.714455
200.419011
-408.767011
-20.039643
181.907219
-214.065911
-166.597471
-217.104843
226.562505
771.694350
60.244058
-157.763764
291.402053
511.385348
-325.532804
135.090309
-111.598265
3.798871
-41.385891
141.982555
259.070165
1.187185
-84.423122
-470.681049
-284.592478
13.023612
127.237446
400.541970
513.914917
207.737718
-349.796543
13.832691
346.625541
-557.230969
114.491717
41.736881
-17.677819
-222.145638
-140.184970
-13.859919
131.469093
-404.703005
-129.720610
-99.111002
719.597760
195.677327
-592.116522
293.852008
-21.860634
197.935998
205.869296
-97.125922
-131.925353
235.672431
61.085772
-127.021384
241.450297
87.999224
52.364009
-91.651556
143.550514
348.874424
-583.828194
-471.107668
-419.042265
323.270121
243.531311
217.812667
162.868587
-236.961755
511.588553
-108.837791
317.070418
59.491142
569.968104
-239.936362
-145.149334
-21.142271
-221.375350
-10.029892
-203.503772
284.837364
513.744794
395.663146
-396.143367
329.483047
-62.117897
-24.792906
106.706504
2.218579
-262.764514
-135.663700
396.658591
78.340163
-652.899458
-55.348490
318.191915
-170.061391
320.908339
-174.290528
-132.405786
14.602597
-191.799979
-104.999866
49.342411
418.592256
1093.245439
-198.207254
165.814814
-177.887744
263.088288
-457.647161
-376.839486
72.708961
-432.050256
15.297843
-292.078265
155.227820
76.812760
48.693900
23.638782
126.501856
-114.585013
259.924121
-170.965881
139.934825
-99.444763
202.926744
-60.975082
-369.713953
-469.319218
57.091963
-17.833511
-168.159622
268.644092
34.678045
-566.575081
-269.000105
268.004077
-304.620514
-401.614892
-122.343439
536.476060
12.495608
182.597143
370.301463
-403.753715
119.793892
-174.702136
-63.716801
-139.031207
-128.734906
129.572920
-15.901141
144.291025
57.439796
47.467206
258.388920
49.194795
-494.352911
71.857801
-52.306614
301.954636
289.900538
-198.695184
342.784420
-54.588086
-100.564518
225.259663
176.974847
333.040310
-86.968292
317.721803
-282.624114
-138.110479
192.025568
-366.153612
212.109798
187.486527
-6.902065
-361.270850
367.200531
344.478406
-309.559366
82.011169
133.919618
115.498256
-522.646413
-86.251738
-137.594594
-359.961398
161.172488
-73.632945
363.209182
-21.699787
-256.493216
68.775476
-181.018853
-268.987662
-68.987861
-46.051562
-204.236745
-109.913974
455.937816
-287.138129
135.053317
3.583517
-9.346578
136.704180
-224.788427
-239.411999
137.292682
265.156956
-133.730765
379.202833
29.849053
300.284602
228.734676
29.200535
-65.878291
431.781013
-71.853122
-52.771333
275.861203
61.208221
173.654754
99.157225
-46.140075
-135.489654
-85.442437
67.204564
-52.607172
-193.397540
122.414037
-301.710165
475.449770
224.036991
-282.770423
-230.450234
-100.983715
149.426025
-117.224135
-275.775742
-609.834221
-300.584976
23.287942
94.636701
742.280400
-42.573049
127.999346
-167.569247
19.277082
173.907157
-239.191596
-318.084119
-135.323380
-67.364273
472.571306
-180.004970
-342.838132
-125.960293
-521.612614
777.555003
31.210947
0.942756
164.478659
-70.963591
-377.393476
211.356099
-3.828663
430.171198
184.011704
178.060782
147.978054
445.570736
116.851672
325.313750
-363.928992
-94.958541
105.046661
-240.614363
226.593588
45.506419
302.597931
-147.169989
-104.107047
207.687363
-341.394824
252.412071
2.138179
187.674862
87.186996
-10.212219
-148.440316
-34.445857
596.472856
-7.078451
-125.420886
451.038911
-221.503153
-331.147732
167.850028
-77.355741
52.400377
-256.454934
286.358924
434.963550
103.415424
-120.811412
-183.854646
-384.620106
-299.956420
-622.404551
-89.028603
-242.888114
-45.786999
96.120850
141.722355
231.532491
177.267542
-38.954973
198.507765
48.371619
-215.905935
99.413474
-108.014550
156.195382
-151.524643
-77.658628
189.228215
434.578834
-155.896727
263.017305
-309.605186
328.504872
-164.048296
-166.904266
-470.445970
-83.722083
132.121905
-412.180257
34.442795
301.832908
453.604211
-68.047150
324.505619
-179.048089
-564.104707
-62.425536
184.012654
-239.398205
70.951514
30.974423
259.755509
370.023901
6.641552
33.518490
319.870851
183.768677
54.508829
-606.622155
245.979230
134.008261
386.398074
130.484064
419.471620
-429.368085
178.398357
7.649703
-351.455593
105.346021
36.081071
-272.380805
-2.769337
-159.474116
5.632821
563.690962
-626.958358
-453.253798
-266.669759
383.712372
43.870926
184.368596
67.626304
-52.873265
436.893956
131.338868
-239.930763
214.134820
-340.268176
-156.524002
111.685389
184.615686
-31.944744
93.324849
218.363062
93.463097
-409.147990
193.923655
113.228119
-39.483502
-4.721083
216.663689
211.646384
96.457720
26.837750
317.174265
167.863700
207.773770
-77.800825
-242.394686
-129.278926
380.358952
75.254617
-139.249814
-420.755625
3.057572
120.873830
-98.420530
280.315841
-54.578722
107.617225
-19.599828
-162.474105
-131.237283
439.941318
136.283175
-549.967550
-448.436329
188.208931
136.219356
160.097075
-533.795748
99.153455
117.822003
114.079231
763.204534
-145.930771
-13.027783
-62.004935
-440.820632
-327.553320
168.640286
-244.138258
68.019877
346.259279
-179.830291
-146.138935
-365.032659
628.884074
-81.202555
-505.038359
369.633730
190.229834
-184.713046
57.168394
79.077444
-198.488328
-190.326352
624.578616
-113.031871
42.248225
115.505333
-165.130482
517.899148
-25.874534
355.431911
-148.166812
112.249230
-60.015840
148.724733
157.010351
-33.816330
172.843035
-277.813788
113.436238
74.665256
18.548977
-702.710150
-254.940108
312.095285
-206.707807
-100.367151
-90.469385
-193.302247
48.697433
-268.621055
136.219692
376.634534
-156.786529
16.057038
-340.389053
251.340236
507.516437
53.781167
-71.383488
-100.341733
149.711185
111.717768
20.815162
190.831168
93.664832
38.884908
34.848936
-121.734302
-478.708272
59.604055
352.051487
185.429236
-230.106945
-3.545714
-118.762587
119.419496
304.405191
575.943915
78.855606
-437.638502
-297.333197
-183.791292
-161.323452
-214.801234
267.005181
109.311865
526.114079
-211.528219
-271.592940
411.422886
-152.070802
-126.613045
-102.306480
-287.768237
255.696542
-24.980088
97.420529
270.069631
422.040801
15.327019
-244.829533
482.723536
-32.487035
-432.935587
113.050048
-180.659112
-268.124049
-73.482571
65.334528
499.098208
321.914466
76.818834
-376.658948
39.431724
-126.573217
179.281874
204.392713
408.054058
-112.522637
174.489948
50.534703
26.067785
147.912613
-470.096709
-22.177216
-702.269847
-233.167952
450.347844
200.880926
-188.892396
17.935326
-179.143080
-237.410490
-5.251156
-118.072014
-63.385520
-108.664214
275.961959
20.113071
118.702993
-262.612254
300.980068
139.486261
-496.618014
-284.582621
-267.443093
195.407677
-47.358863
-74.300123
-232.897945
148.586760
518.510335
242.841208
324.555491
217.579720
-326.731145
-119.022923
-48.992813
252.193591
-670.121595
111.114926
105.904055
23.589769
24.247693
195.736000
522.080557
-47.328141
-72.709170
0.207322
-263.864361
-381.629701
-84.328718
-132.913036
-184.874402
-64.000104
70.720001
293.210949
231.264288
-388.806436
120.179920
564.942940
-106.576976
-69.755256
909.593023
54.057742
291.527382
-152.925731
95.808839
308.279980
165.713008
214.642044
191.963734
-57.493881
159.814305
42.194815
178.086218
105.401306
227.880250
150.818049
259.263621
-140.241710
-142.463865
149.392667
93.900000
80.122717
-491.764825
518.921609
-679.030093
-496.075788
-460.481786
-347.304505
-493.659365
185.454835
555.933898
-398.969368
652.147712
-257.218072
192.790432
331.929540
389.799216
183.992042
188.398841
-186.536236
197.598070
-174.849161
-376.445903
-166.770213
154.063271
46.378659
-225.782575
-358.397864
410.604397
817.166229
-99.112405
399.057373
-129.821045
-549.748019
174.896160
117.243359
-303.762482
127.199746
46.705278
211.939758
444.148010
46.370366
-693.039533
-205.153051
-157.970008
291.929859
585.570497
-206.490803
-136.379965
-77.331487
-392.438223
52.443637
-186.041047
77.229566
225.142457
-268.775875
161.020457
-346.276124
0.198378
-97.860161
-123.793077
-60.737638
-519.336061
736.201523
-92.274459
212.601100
413.653658
247.874994
-12.671091
120.429664
140.683951
-575.379810
236.268451
32.011604
-202.948381
-345.074804
-376.393351
644.051801
375.198891
164.007587
-4.301838
337.645025
20.349345
186.131512
354.402124
181.289266
322.299511
-52.226828
-124.451383
-253.299491
71.946993
14.699030
-118.656011
10.486098
567.652035
-254.174285
215.888537
299.217670
82.703756
-62.734893
158.672386
-320.809837
-583.526560
396.111918
198.726807
-93.965608
64.570295
-163.587278
60.301545
-134.407555
-201.876694
-30.739507
115.912956
-435.968283
383.304070
-700.590254
-209.250197
-611.637108
77.998969
445.505221
148.224847
137.092963
47.421675
379.694148
-134.935125
18.091805
157.103369
-197.802298
-193.662590
-118.278959
-19.200171
97.999377
-354.716746
-170.186905
-74.899607
171.470460
-205.793709
58.576777
-67.820097
381.678533
44.225600
60.454318
-82.049633
71.308310
-297.399650
-147.771376
-150.428679
-103.483917
-66.698509
-183.510425
-339.758449
-439.301893
-254.539173
348.569085
-270.868724
-231.209539
186.357335
-140.990863
185.213847
132.219830
-26.879163
70.335090
-218.459299
151.244901
-296.599366
81.893623
219.090770
22.434608
55.652703
129.412782
-33.679369
-356.253243
-138.548323
-148.922450
199.656668
-211.244138
265.902593
450.553975
-380.114852
-389.300575
-26.613960
-75.990248
-39.176931
-58.268421
-198.727476
-13.943149
184.280047
161.330145
-50.546592
299.774017
-609.771528
-228.700963
4.707096
-62.877582
17.965205
-118.303825
474.501629
450.540083
-19.644679
273.058440
309.405399
-696.764298
179.690997
-215.902204
-199.305560
-199.196223
-462.068699
540.353826
-50.332107
-226.325944
366.625060
-157.154024
-373.043726
-407.573966
34.759728
-55.274683
-129.259037
-325.664914
181.739304
-166.323137
-115.108223
-425.166342
-508.674734
-219.954569
96.922070
0.222693
325.779182
470.589318
43.401375
-287.242843
-22.095092
-100.250865
-36.260607
33.718186
-115.671606
-313.925812
195.411364
134.301687
-301.262104
179.424630
153.826027
670.706867
-522.788020
85.511102
-275.627084
-288.452444
-253.256677
84.631305
-27.221724
-328.372815
77.929429
-13.296387
-93.614995
-536.907914
-166.463362
-47.637861
-89.295824
-226.100237
40.671966
-63.051299
-186.241883
51.755337
498.397295
-19.937038
267.595924
-475.823038
-36.794967
192.775087
-192.006638
-417.989072
161.271878
-409.742366
510.904454
-122.560723
-272.852022
