EVENT_NAME: 202302060117
EVENT_ID: 13194
EVENT_DATE_YYYYMMDD: 2023/02/06
EVENT_TIME_HHMMSS: 01:17:32.00000
EVENT_LATITUDE_DEGREE: 37.288
EVENT_LONGITUDE_DEGREE: 37.043
EVENT_DEPTH_KM: 8.6
HYPOCENTER_REFERENCE: AFAD
MAGNITUDE_W: 7.7
MAGNITUDE_W_REFERENCE: AFAD
MAGNITUDE_L: 
MAGNITUDE_L_REFERENCE: 
FOCAL_MECHANISM: 
NETWORK: TK
STATION_CODE: 2516
STATION_NAME: 
STATION_LATITUDE_DEGREE: 39.6153
STATION_LONGITUDE_DEGREE: 40.9756
STATION_ELEVATION_M: 1919.0
LOCATION: Kahramanmaras_Pazarck_Turkiye
SENSOR_DEPTH_M: 
VS30_M/S: 373
SITE_CLASSIFICATION_EC8: B
MORPHOLOGIC_CLASSIFICATION: 
EPICENTRAL_DISTANCE_KM: 429.16
EARTHQUAKE_BACKAZIMUTH_DEGREE: 
DATE_TIME_FIRST_SAMPLE_YYYYMMDD_HHMMSS: 2023/02/06 01:18:06.5646510
DATE_TIME_FIRST_SAMPLE_PRECISION: millisecond
SAMPLING_INTERVAL_S: 0.01
NDATA: 21001
DURATION_S: 
STREAM: HNE
UNITS: cm/s^2
INSTRUMENT: sensor = GMS+/GEOSIG | digitizer = 
INSTRUMENT_ANALOG/DIGITAL: 
INSTRUMENTAL_FREQUENCY_HZ: 
INSTRUMENTAL_DAMPING: 
FULL_SCALE_G: 
N_BIT_DIGITAL_CONVERTER: 
PGA_CM/S^2: 22.956
TIME_PGA_S: 
BASELINE_CORRECTION: BASELINE REMOVED
FILTER_TYPE: BUTTERWORTH
FILTER_ORDER: 
LOW_CUT_FREQUENCY_HZ: 
HIGH_CUT_FREQUENCY_HZ: 
LATE/NORMAL_TRIGGERED: 
DATABASE_VERSION: 
HEADER_FORMAT: DYNA 1.2
DATA_TYPE: Acceleration
PROCESSING: Automatic Paolucci et al., 2011
DATA_TIMESTAMP_YYYYMMDD_HHMMSS: 
DATA_LICENSE: U (unknown license)
DATA_CITATION: Turkish Accelerometric Archive v 1.0 - Disaster And Emergency Management Presidency, Earthquake Department
DATA_CREATOR: AFAD
ORIGINAL_DATA_MEDIATOR_CITATION: : AFAD - Disaster And Emergency Management Presidency
ORIGINAL_DATA_MEDIATOR: AFAD PROCESS SERVICE
ORIGINAL_DATA_CREATOR_CITATION: AFAD PROCESS SERVICE
ORIGINAL_DATA_CREATOR: network: TK
USER1: GuestUser
USER2: 
USER3: 
USER4: 
USER5: 
[...]
-2.874461
-3.367500
-3.416855
-3.083052
-2.749769
-2.580140
-2.139314
-1.752518
-1.872790
-2.099827
-2.193343
-2.266077
-2.410507
-2.585330
-2.877309
-3.270597
-3.647779
-3.877673
-3.825199
-3.484123
-2.707157
-1.809398
-1.182837
-0.787990
-0.607190
-0.321705
0.191857
0.420454
0.344602
0.519946
0.991685
1.637469
2.130769
1.924774
1.465505
1.262626
1.210674
1.337701
1.509408
1.805804
2.178571
2.034401
1.640853
1.386801
0.901295
0.453976
0.312143
-0.157777
-0.915779
-1.318938
-1.319197
-1.134761
-0.714975
0.043548
0.643872
0.792200
0.929878
1.246795
1.525787
1.700092
1.840886
1.663725
1.033529
0.549842
0.473990
0.309558
-0.141139
-0.592615
-0.671324
-0.788219
-1.420493
-1.554793
-1.172933
-1.209819
-0.940439
-0.768732
-1.413475
-0.834452
0.814296
1.455403
1.843238
2.038064
1.565547
1.536713
1.753101
1.795963
1.889740
1.048093
-0.079819
0.769623
2.106129
2.834519
3.533555
3.418998
3.207548
3.061819
2.409802
1.080311
-0.122674
-0.069161
-0.537782
-1.547499
-1.481777
-1.664134
-1.978712
-1.381245
-0.345809
0.290882
-0.045776
-0.485303
-1.158621
-1.433714
-0.839105
-0.272290
0.362063
0.261794
0.122819
-0.129156
-0.930799
-1.103544
-0.854945
-0.341124
-0.411780
-0.882219
-0.919365
-0.846629
-0.983526
-1.079640
-1.032881
-1.223290
-1.166400
-1.157308
-1.260695
-1.530333
-1.579948
-1.557088
-2.018175
-2.191700
-2.417437
-2.086752
-1.804124
-1.968297
-1.818410
-2.126494
-2.346777
-2.585243
-3.087374
-3.156991
-2.755389
-2.079732
-1.196780
-0.660099
-1.391605
-2.202859
-2.756424
-3.554690
-3.607163
-3.512866
-3.657816
-2.971508
-1.573177
-0.898299
-0.488125
0.156620
0.371189
1.030480
1.843554
1.801992
1.386104
1.008922
0.212994
-0.152759
0.233517
0.182083
0.240532
0.776694
1.101144
1.246096
1.718874
2.392712
2.435055
1.560937
0.616162
-0.645531
-1.734477
-1.549262
-1.433405
-0.814897
0.680848
1.335204
1.225323
0.672277
-0.508107
-1.554971
-1.764344
-2.112172
-2.424932
-1.872405
-1.148951
0.177944
1.317547
1.186365
0.018968
-1.819928
-2.895626
-3.056162
-1.993711
-1.022438
-1.369487
-1.475732
-1.609511
-1.833690
-1.650813
-1.272590
-0.678241
0.160031
0.627094
0.412787
-0.055055
-0.637454
-1.399352
-1.641975
-1.593658
-2.466477
-2.814046
-2.509857
-2.594541
-2.445173
-2.040974
-1.534945
-1.010733
-0.135055
0.676461
1.271850
1.593183
1.086117
0.628666
-0.032442
-0.346761
0.634643
0.867396
-0.424689
-1.670016
-2.550888
-2.683629
-1.683002
-1.308676
-1.474407
-1.098003
-0.631199
-0.268043
0.357738
0.990014
1.144577
1.274202
1.137305
0.587377
-0.254271
-1.489207
-2.618937
-2.462296
-1.426601
-1.075134
-0.797701
-1.134360
-2.102514
-2.560744
-2.566459
-1.302947
0.099541
-0.295306
-1.632330
-1.406332
-0.169056
0.732339
1.612953
0.480106
-1.445553
-1.959893
-1.754676
-1.383986
-1.930537
-3.455374
-4.797335
-4.678101
-3.985819
-3.502130
-2.704382
-1.860136
-0.957441
-0.215544
-0.053967
-0.361792
-0.231128
-0.276067
-1.103947
-1.354102
-1.119012
-1.348906
-2.100414
-2.811398
-3.050384
-2.795551
-2.394209
-2.118075
-1.914935
-1.888179
-1.433065
0.112815
1.875861
3.152621
4.600308
5.446892
5.079321
4.415355
3.869583
3.150027
1.902362
0.466885
-2.009741
-4.362459
-5.808846
-7.711645
-8.227024
-7.597086
-6.798819
-5.095260
-2.486150
0.182706
2.062647
3.655804
3.976878
3.855048
3.876090
2.745320
0.439361
-3.128551
-6.333826
-8.116613
-8.171683
-6.695941
-3.833298
-0.379942
2.268652
4.620592
5.925407
6.349608
5.892937
4.237437
3.006657
2.052530
1.529098
1.624434
0.721221
-0.472671
-1.203917
-2.136224
-2.391315
-1.472515
0.271048
1.972009
3.183827
3.892214
4.407595
5.188977
4.760880
3.283061
2.477522
2.422711
2.732095
2.895750
2.916532
3.378660
3.801822
2.934718
1.630424
1.533531
1.679002
0.997891
0.127409
-1.195848
-2.350516
-1.845786
-0.790348
0.587461
1.939294
3.020449
4.321368
4.665561
4.732582
5.255235
6.458221
6.450169
5.059372
4.231233
3.457125
3.243596
1.274296
-0.564860
-0.140398
-0.816833
-2.323487
-5.195740
-6.728370
-4.837778
-4.243429
-3.491400
-0.581479
0.745416
0.779966
0.392393
0.127171
1.692273
2.597305
2.762518
1.443158
-0.795782
0.642554
0.608525
1.075069
4.370745
5.028219
6.434083
7.255730
7.276252
7.859692
5.898445
1.688127
-0.809541
-0.653160
0.221219
0.648278
-2.920413
-3.943378
0.465663
3.432474
4.738587
6.232773
8.390926
9.181660
8.459506
6.445266
4.991346
5.243841
1.232765
-2.600890
-3.538651
-5.125053
-2.430480
-0.830049
-1.854833
0.468272
3.637182
5.266707
6.501384
7.451356
4.398045
2.004544
1.872323
0.121488
-1.549859
-2.900391
-5.152579
-6.457652
-4.033497
-1.652204
-0.100609
0.152405
0.468543
1.802972
3.217929
7.133931
7.145101
6.247604
5.466742
1.006787
-1.561278
-2.041848
-1.022778
-2.007297
-4.104143
-3.958932
-1.858968
-0.657800
-2.234591
-2.188871
-1.444635
-2.408374
-4.281040
-2.682947
-1.855845
-3.368213
-0.552069
1.289167
2.693993
5.555077
6.797808
6.109683
3.707090
2.951686
0.375048
-2.594358
-1.754788
-2.755153
-1.276294
-0.439840
-1.703611
3.343941
5.731728
5.381042
6.569221
5.755109
2.295780
1.013566
2.836359
1.708187
2.667511
3.546306
3.883486
6.004492
5.722124
5.146999
3.706586
5.411704
5.524963
1.938608
2.237342
2.483343
2.446196
2.847279
2.767271
1.914713
1.350758
1.706900
-0.738294
-3.494172
-3.925386
-3.431307
-1.710863
-2.214552
-1.977124
2.041487
2.106949
0.544186
-0.810503
0.394041
2.471406
-0.780888
-0.841673
-1.799696
-1.889835
1.818872
0.313518
-1.453683
-3.964859
-3.529487
-0.852838
-0.183675
0.558483
-0.681129
2.691179
3.032515
2.681829
6.448204
3.536726
3.720123
4.718152
2.979786
6.207922
8.708449
6.461457
4.005612
4.510861
2.142558
-1.140908
0.010644
5.715667
12.082320
12.602116
13.931609
15.893637
13.668985
9.355280
2.303101
-3.559081
-5.656966
-3.564795
-2.413503
-3.391788
-1.675501
-2.343104
-3.732342
-3.487899
-3.748186
-1.115438
2.974609
6.836579
11.964918
10.598540
1.776822
-2.333226
-1.650295
-2.767037
-2.876139
2.360264
7.560039
8.664053
5.679320
1.718120
2.412221
2.298443
-2.301787
-6.207137
-4.760748
-1.447927
-1.855243
-2.844698
-3.743235
-3.825840
-2.177872
-1.377786
-0.502367
1.002469
3.206340
4.525183
7.461340
12.907376
11.592691
7.154037
8.664069
10.658567
9.093986
4.511940
-0.130891
0.327859
3.149199
6.154195
6.732180
4.526491
5.562446
9.097369
11.982352
12.102365
10.880678
9.879533
7.342380
3.222461
0.849222
-0.241802
-2.607508
-2.403590
-1.012532
1.533714
3.862015
1.683601
-0.059960
2.171707
3.403267
-0.807830
-3.220294
-2.430339
-2.003800
-3.143401
-6.561686
-4.884624
-0.218672
2.439015
4.124909
1.399944
0.148903
5.699884
8.395756
6.722332
5.334133
5.432066
5.253346
2.730221
2.172760
2.839065
3.758644
4.510933
3.361201
1.154213
-1.715962
-2.209261
-0.729102
2.906350
9.278458
13.605153
13.635287
7.677770
-0.677405
-4.472613
-5.769114
-4.308439
-1.490216
-2.411612
-0.988343
4.241306
7.630498
8.841537
6.143848
1.844689
-0.857676
-2.360692
0.546112
5.406110
6.842887
4.822413
1.703380
-0.498152
-1.195109
-0.417883
1.157351
0.650025
-2.067407
-2.239892
-1.619825
-1.201079
-0.116028
-1.364991
-4.025014
-6.373835
-3.637958
1.638708
2.396971
1.496357
0.087116
-0.112125
-0.260452
-4.230744
-6.469943
-2.820203
2.180070
4.653581
5.324822
4.323937
2.139809
0.382739
-1.899061
-4.301914
-2.853967
1.401812
2.507125
1.641839
4.030405
5.174943
2.601164
2.141635
3.067448
2.882234
2.571033
3.253184
3.823895
3.851171
1.680551
-3.390118
-5.100689
-4.313851
-3.425704
-1.355093
-0.162238
-0.673201
-0.752170
0.463804
0.144810
0.963859
1.655881
0.063245
0.823586
2.771846
3.870925
3.043565
2.414148
2.254131
0.515505
-0.000133
0.318862
-0.002470
-2.337003
-5.409278
-5.682293
-4.672835
-2.888488
-0.479919
0.042734
-0.425626
-1.418719
-2.192826
-0.476019
1.064405
-0.147152
-3.814815
-6.707849
-4.501120
0.951669
5.575539
6.433813
4.983269
4.100059
3.808080
6.270941
7.562508
4.728700
1.635904
-1.530407
-4.015086
-4.149645
-2.236974
-0.038297
2.403522
5.078093
5.824667
5.701018
6.587347
6.689696
5.310849
4.007334
2.266370
-1.278942
-4.377453
-2.406334
-0.019585
0.474754
2.216498
3.212449
4.077997
4.155408
4.684556
5.771166
5.089536
3.095038
0.710109
-1.537142
-4.391991
-5.791360
-7.450237
-8.900781
-6.656905
-3.242774
-0.872911
1.272513
3.412742
6.379811
9.699646
8.391196
6.133813
5.162282
3.006728
0.924169
-2.660627
-3.930892
-1.497125
0.741555
0.827020
0.975867
4.570017
5.771444
4.093864
3.683431
1.921686
0.808321
0.772474
-1.214750
-2.741666
-2.899604
-2.554891
-1.824683
-1.068498
-1.327226
-0.564027
2.526692
3.698246
3.392760
2.706194
0.328019
-2.015606
-2.598785
-2.098731
-1.612704
-0.218529
1.177984
1.256694
-0.103969
-0.447382
1.213315
1.294104
1.722462
1.386842
0.260229
2.238622
3.473820
4.284036
4.599915
2.288241
0.997714
2.080687
3.406024
4.741232
5.728351
5.318957
6.709755
7.728046
5.937726
6.315949
8.008597
7.485166
5.565741
3.096388
0.083081
-0.583223
1.804564
2.207205
0.497673
-0.007315
-1.749058
-4.293485
-2.566547
0.718219
2.083300
3.207836
2.437625
0.108287
-1.697359
-3.982018
-6.217320
-6.332916
-6.433186
-7.778783
-6.152375
-5.074597
-6.810626
-7.243139
-6.730356
-5.166293
-4.133974
-3.529494
-0.916488
0.940854
0.171941
-0.648925
-1.690334
-3.682493
-2.145705
0.576403
0.394566
0.162594
0.923975
2.564670
3.724794
3.467105
2.446217
2.441283
2.497393
1.362208
2.764176
4.055743
3.643492
4.850374
6.145838
6.438337
6.657841
6.774218
5.318220
3.842479
4.205635
4.599444
2.552213
-0.161062
-0.238992
-2.030091
-6.112603
-7.942927
-7.834084
-7.145438
-6.669802
-6.701493
-6.289761
-5.309915
-4.963904
-5.322643
-5.829709
-5.983491
-5.449407
-3.647397
-3.128639
-3.954961
-3.357753
-2.888352
-1.290259
0.998557
1.711880
1.285082
1.018561
1.030771
1.114936
1.564075
-0.941905
-3.054597
-1.892914
-0.846049
0.566050
1.354187
0.874656
0.695417
1.733970
3.372846
4.715847
6.622804
7.548877
5.436705
2.459505
1.958933
3.431039
3.605863
1.616561
1.019355
3.144777
4.422057
4.995105
5.399825
4.534798
5.214092
5.506072
3.944088
4.716638
4.747551
1.532404
0.226552
1.551628
0.240061
-3.329669
-5.216363
-5.936959
-4.962049
-3.554626
-2.865461
-0.964478
-0.264403
-0.622882
-1.398549
-4.388996
-6.016442
-5.402869
-6.392324
-7.861311
-7.070837
-4.983341
-4.042461
-4.704349
-5.082571
-3.339267
1.363312
5.118258
5.402445
4.136337
1.942337
2.067546
3.821240
2.866594
0.911841
0.495953
2.311472
4.188295
3.611871
3.372625
4.932533
6.417886
6.886768
5.054366
3.060907
3.687728
4.074263
5.001116
6.546995
3.485891
0.382444
1.329819
1.076805
-0.998480
0.104495
2.671003
0.160087
-3.249107
-3.532513
-0.883139
2.826607
1.371648
-0.546478
2.576453
3.516034
0.806395
1.531928
0.954984
-3.142075
-3.372229
-3.227797
-4.461954
-4.290766
-5.538950
-7.640472
-8.073245
-6.835190
-6.249932
-7.754248
-8.883718
-6.892856
-2.338085
-2.522519
-5.122276
-2.607462
-0.754277
-1.291736
0.179330
2.275398
3.164065
2.505814
-0.163561
-1.338231
-1.000272
-1.304719
-1.224710
-2.148704
-2.572904
-1.489671
-1.437198
-1.954914
-2.219098
-2.122463
-0.791412
-0.679971
-2.984891
-4.848206
-5.554254
-5.405666
-5.428525
-4.981204
-3.393502
-3.364147
-4.220861
-5.091083
-5.498399
-4.427375
-3.130872
-1.416144
-0.793479
-0.400190
-0.071583
-1.217159
0.564330
4.319276
7.204259
8.180728
5.709556
3.855333
2.627411
-1.426786
-2.779657
-2.780436
-6.414588
-6.622921
-5.320704
-6.276649
-5.056259
-3.096569
-2.533651
-2.089707
-0.361471
0.550835
0.562525
0.524080
-0.979456
-0.906980
0.464595
0.626172
0.963351
-1.132456
-4.697770
-3.288269
-0.228721
-0.271842
-1.208565
-1.578733
-1.139465
-0.264826
-0.569793
-0.904893
0.476554
2.060360
2.222715
0.393690
-0.477831
-0.351583
-2.642995
-4.062626
-2.719366
-1.301811
0.849327
2.683549
1.941133
0.904141
0.013916
-0.586407
-0.252344
0.025608
-1.490137
-4.131716
-3.248505
-1.572222
-2.216186
-2.583237
-2.812352
-3.534246
-2.810792
-1.133470
-1.102817
-1.859000
-4.082873
-6.090359
-6.257649
-5.549780
-3.811153
-2.811046
-1.475578
-1.150348
-0.685882
1.376676
1.897771
2.969054
3.359226
2.455754
1.519032
-0.115947
-0.834464
-1.302306
-0.881741
1.949211
3.341827
1.838031
1.884790
2.350035
1.251997
0.877932
0.657390
1.301874
1.555928
-0.515720
0.619466
4.321160
2.162229
-2.478784
-1.598690
-0.688722
-2.057698
-0.875234
0.782606
2.644103
3.435357
1.605033
0.649867
1.220837
0.949121
-0.735214
-0.054881
2.004300
2.809322
2.786203
1.616469
1.091478
0.358154
-1.025369
-1.506459
-0.620130
-0.848465
-3.193390
-3.302491
-2.606832
-1.820774
-1.881559
-4.175049
-3.388731
-1.526974
-1.375788
-1.764660
-2.129114
0.737945
3.963225
1.925606
-2.354849
-2.653842
-0.408147
0.280238
-0.347101
-1.877912
-2.173527
-1.514496
-1.784394
0.626513
3.652290
3.911539
4.063504
3.806854
2.677124
1.642210
-0.390993
-3.461190
-3.891625
-3.591072
-5.157472
-4.840815
-3.286103
-2.850731
-4.386219
-4.578446
-2.529916
-2.627068
-3.033345
-2.314826
-0.982216
1.076705
0.918507
-1.176520
-1.602799
-0.768943
0.739790
1.430773
-1.029488
-2.378722
-0.195892
1.039825
0.734598
4.199643
9.638665
10.905294
8.169938
2.696369
-5.013542
-14.390644
-21.155780
-22.956490
-20.602213
-11.545403
-0.302907
9.258372
13.249707
5.836970
-5.260575
-11.230301
-12.695911
-11.142238
-4.625180
3.463994
7.798742
7.008009
0.196635
-5.865828
-6.261194
-3.507134
0.162088
1.687966
2.113986
1.431316
-2.030090
-3.370492
-0.482652
5.011181
7.376888
3.615969
-2.448573
-11.757615
-17.529658
-13.029957
-1.886172
9.684931
13.457021
9.350351
2.719516
-1.042443
-0.188065
1.224034
3.388680
6.786186
4.628034
-1.909025
-5.542398
-6.408723
-4.578398
-0.262613
4.092397
4.216567
2.013476
2.484176
2.261296
0.370965
-4.256800
-8.531280
-6.611075
-2.831971
1.373153
6.618128
10.645311
10.040572
3.139578
-6.491837
-13.208396
-10.863470
-1.639111
8.415727
13.950083
11.430335
5.143952
-1.820685
-5.827345
-4.493436
-0.429106
5.156944
8.602766
7.781900
4.600523
2.683177
2.609923
2.016094
3.032047
4.268283
2.218975
-2.426195
-8.765570
-13.359306
-12.282048
-6.321672
1.694247
5.791827
2.847618
0.737005
3.721739
4.521305
0.926637
-0.116590
0.868710
0.263971
-0.703144
-1.452054
-1.774166
-4.418863
-8.488906
-10.147783
-8.775948
-4.207669
-0.384923
3.348202
7.819329
7.759323
5.159047
1.820250
-0.462590
0.855993
2.891275
4.569636
3.348728
-1.672066
-6.513620
-8.971283
-7.940783
-4.074137
-0.680009
1.943908
5.424539
6.841054
5.271277
3.205863
2.050676
2.193289
-0.317627
-3.163904
-2.011313
-0.908338
-0.187481
1.069537
2.712050
3.246393
1.606479
1.509067
3.477329
4.059469
1.472182
-1.198232
-1.306295
0.757562
3.808277
4.812541
3.229516
2.077705
1.979773
1.073184
-0.777921
-1.747894
-1.135101
0.212576
1.286457
0.661716
-0.452169
-0.308776
-0.101221
1.001755
3.120682
2.882216
1.698714
0.913436
-2.399903
-4.873153
-3.995396
-2.346649
-0.711409
0.208949
0.302467
-0.245903
0.160894
0.429755
-0.663867
-0.414490
-0.034189
0.672381
1.641316
1.457141
2.435687
2.522710
-0.633989
-3.545467
-2.997876
-1.214308
-0.751401
-0.030285
0.663296
1.442081
3.196814
3.959493
4.510202
4.890503
2.282174
-1.160530
-2.567172
-2.097511
-1.494849
-2.547948
-4.043950
-4.546341
-3.711706
-2.331298
-1.474323
-2.024511
-3.046697
-2.252586
-1.094021
-0.982579
-0.789571
-0.585653
-1.330666
-3.303603
-4.929490
-4.547890
-4.919877
-7.189988
-7.685105
-7.244798
-7.662764
-7.118809
-5.494480
-3.974837
-3.448546
-3.671946
-4.219536
-4.149138
-3.356326
-2.966154
-3.340479
-4.418255
-3.669863
-2.394662
-2.341928
-2.663261
-4.323177
-5.585129
-5.916592
-5.440177
-4.267324
-3.247475
-2.990564
-3.082001
-2.039032
-1.472997
-0.963072
-1.164132
-1.800043
-0.550559
-0.170777
-0.646931
-1.857969
-4.150420
-4.914137
-3.426446
-1.722887
-1.438960
-0.123494
1.257952
1.062867
0.960259
-0.081669
-0.606400
1.231979
3.717699
4.965105
4.252822
2.707723
1.483697
1.111710
1.617479
2.300150
3.139980
4.800157
5.590632
3.960589
2.004017
1.124704
1.256667
2.452639
3.175833
2.198587
1.460067
1.355122
0.841821
0.271112
-0.258035
0.484382
1.319537
0.614528
-0.238030
-0.699377
-1.415297
-1.947301
-0.202959
2.063517
2.704365
3.365995
3.064665
1.220313
-0.239582
-1.916383
-3.319909
-2.517745
-1.474256
-0.357254
1.351241
0.869112
-1.524909
-3.729039
-4.014263
-2.457473
-1.445417
-1.379435
-1.757397
-2.246020
-2.142891
-2.559818
-3.331588
-2.932843
-2.231469
-2.553841
-3.591353
-3.454714
-3.312361
-3.705649
-3.255990
-3.066619
-2.307836
-1.627243
-2.297963
-2.382127
-1.179141
0.440512
1.605312
1.722728
0.856922
0.865495
1.939376
2.306949
2.058351
1.551545
1.097731
1.016424
1.118514
1.209433
2.026404
3.229909
3.607872
3.725808
3.492797
2.958455
2.484639
2.815584
3.730227
3.270439
1.547139
-0.237206
-0.919356
-1.465388
-2.512252
-2.816439
-3.039839
-3.857068
-4.639489
-4.686766
-4.637669
-4.794828
-3.980455
-3.391560
-4.777681
-5.950533
-6.108991
-5.820128
-5.394627
-6.123536
-5.550487
-3.826407
-3.385060
-3.592095
-4.091628
-4.710654
-5.930264
-6.825163
-7.441073
-7.848908
-6.404337
-5.135111
-4.419709
-3.216723
-2.280259
-0.554880
1.112311
1.931620
2.927831
2.718458
0.846831
-0.776718
-1.553423
-2.685231
-3.781971
-4.159933
-4.214223
-3.535969
-3.001366
-2.626520
-1.330797
-0.429921
0.353280
2.155550
3.149423
3.060843
3.400360
2.706261
0.998547
0.961401
1.464053
1.041671
0.141316
-0.901652
-0.967112
0.034813
0.863473
0.564221
0.971278
2.576385
2.948114
2.896940
2.902396
2.485469
1.691619
0.116387
-1.668478
-2.337380
-0.851506
0.163148
-0.068045
-0.160002
-0.080253
0.675932
0.144448
-0.852801
-0.751231
-0.606799
-0.837472
-1.591838
-1.785104
-1.445327
-0.250914
0.975192
1.645653
2.047515
1.488755
1.198075
0.663733
-0.033224
0.312009
0.854405
0.725041
1.031828
1.499930
0.699326
0.537491
1.353683
2.217152
2.436137
1.489024
0.714137
0.817265
1.825685
2.267811
2.470950
3.846162
3.795248
3.126346
3.609256
3.464565
2.590967
1.811664
1.465394
0.817533
0.401645
0.044205
0.032776
2.303928
4.654568
5.793392
5.833916
5.040326
5.096696
5.683253
5.707412
5.337243
4.851997
4.626779
5.565841
6.203052
6.182791
6.150840
5.674167
4.200504
2.380051
2.219775
2.260559
3.527448
5.048909
4.520282
4.343121
3.884112
3.811897
3.674481
3.151049
3.274699
2.369149
2.340055
2.811015
2.360059
2.026258
1.690119
1.669078
1.163311
0.181129
-0.135787
0.578835
1.218384
0.852632
0.061639
-0.443869
-0.083570
0.313356
-0.087985
-0.617911
-1.508914
-3.139477
-3.825263
-3.343133
-2.680465
-2.421735
-2.624094
-3.213506
-3.141031
-1.961424
-1.824266
-1.668144
-0.106679
1.391663
0.845891
-0.102261
0.047886
0.115686
0.482219
0.145560
0.800696
2.457756
3.277325
3.799459
4.151964
5.750837
6.992009
7.811577
8.123559
6.642103
6.383375
6.282586
5.414961
4.768660
3.626461
4.249645
5.435226
5.327423
