EVENT_NAME: 202302060117
EVENT_ID: 13194
EVENT_DATE_YYYYMMDD: 2023/02/06
EVENT_TIME_HHMMSS: 01:17:32.00000
EVENT_LATITUDE_DEGREE: 37.288
EVENT_LONGITUDE_DEGREE: 37.043
EVENT_DEPTH_KM: 8.6
HYPOCENTER_REFERENCE: AFAD
MAGNITUDE_W: 7.7
MAGNITUDE_W_REFERENCE: AFAD
MAGNITUDE_L: 
MAGNITUDE_L_REFERENCE: 
FOCAL_MECHANISM: 
NETWORK: TK
STATION_CODE: 6303
STATION_NAME: 
STATION_LATITUDE_DEGREE: 37.7524
STATION_LONGITUDE_DEGREE: 39.3291
STATION_ELEVATION_M: 800.0
LOCATION: Kahramanmaras_Pazarck_Turkiye
SENSOR_DEPTH_M: 
VS30_M/S: 986
SITE_CLASSIFICATION_EC8: A
MORPHOLOGIC_CLASSIFICATION: 
EPICENTRAL_DISTANCE_KM: 208.12
EARTHQUAKE_BACKAZIMUTH_DEGREE: 
DATE_TIME_FIRST_SAMPLE_YYYYMMDD_HHMMSS: 2023/02/06 01:17:47.8876210
DATE_TIME_FIRST_SAMPLE_PRECISION: millisecond
SAMPLING_INTERVAL_S: 0.01
NDATA: 14501
DURATION_S: 
STREAM: HNZ
UNITS: cm/s^2
INSTRUMENT: sensor = CMG-5T/GURALP | digitizer = 
INSTRUMENT_ANALOG/DIGITAL: 
INSTRUMENTAL_FREQUENCY_HZ: 
INSTRUMENTAL_DAMPING: 
FULL_SCALE_G: 
N_BIT_DIGITAL_CONVERTER: 
PGA_CM/S^2: 38.941
TIME_PGA_S: 
BASELINE_CORRECTION: BASELINE REMOVED
FILTER_TYPE: BUTTERWORTH
FILTER_ORDER: 
LOW_CUT_FREQUENCY_HZ: 
HIGH_CUT_FREQUENCY_HZ: 
LATE/NORMAL_TRIGGERED: 
DATABASE_VERSION: 
HEADER_FORMAT: DYNA 1.2
DATA_TYPE: Acceleration
PROCESSING: Automatic Paolucci et al., 2011
DATA_TIMESTAMP_YYYYMMDD_HHMMSS: 
DATA_LICENSE: U (unknown license)
DATA_CITATION: Turkish Accelerometric Archive v 1.0 - Disaster And Emergency Management Presidency, Earthquake Department
DATA_CREATOR: AFAD
ORIGINAL_DATA_MEDIATOR_CITATION: : AFAD - Disaster And Emergency Management Presidency
ORIGINAL_DATA_MEDIATOR: AFAD PROCESS SERVICE
ORIGINAL_DATA_CREATOR_CITATION: AFAD PROCESS SERVICE
ORIGINAL_DATA_CREATOR: network: TK
USER1: GuestUser
USER2: 
USER3: 
USER4: 
USER5: 
[...]
-2.266261
-4.154383
-4.240409
-0.229963
3.170784
1.614511
0.535449
4.770372
10.372564
11.321017
6.133552
-0.102205
-3.307991
-5.839091
-8.269098
-5.253886
-0.478021
-0.130162
0.731011
2.156360
-2.833942
-10.860492
-10.333366
-4.366359
-4.854560
-9.143174
-7.836814
-2.471657
-1.726019
-4.101083
-3.800632
-4.829776
-10.572311
-14.225168
-9.909559
-4.148192
-2.409831
-3.474766
-6.400820
-10.164189
-12.317916
-10.001252
-7.682391
-7.181636
-2.440306
4.787541
7.096356
4.017720
1.811877
0.875035
-2.088379
-2.477998
1.154761
3.321041
1.410628
-2.591660
-7.138345
-11.913274
-12.639138
-5.388373
2.608975
2.269274
-1.735840
-2.841274
-4.142302
-8.509091
-9.116595
-6.618465
-9.739799
-14.643135
-11.155422
-2.282143
-0.518038
-1.052704
3.660056
6.139976
3.170283
2.035965
7.092505
9.640867
4.599077
-0.822597
-0.298610
4.827628
8.533538
6.573835
-1.010982
-8.999545
-11.535040
-6.621662
3.649654
11.788281
13.262921
11.120496
6.799858
-0.413551
-9.003335
-13.055228
-10.704029
-8.546854
-10.694930
-11.006061
-2.073130
6.614602
0.962172
-7.625101
0.185444
14.525291
18.214561
11.973467
3.931847
-2.695411
-8.466516
-13.684120
-16.864790
-12.541332
-5.830254
-7.074771
-12.596596
-12.407284
-8.344722
-11.189776
-15.853879
-10.104756
-0.510011
4.246704
3.005955
-5.892760
-17.275479
-20.817196
-14.382084
-8.342239
-10.129896
-12.676379
-7.571176
0.142671
0.995682
1.888564
8.546898
11.733215
10.710036
7.518377
0.913724
-3.715530
-3.997778
-7.105925
-15.640139
-18.517530
-13.016431
-10.539336
-8.311207
-1.898385
0.964873
-2.672287
-8.584358
-9.995583
-3.390308
5.315320
8.048915
8.310122
5.194754
-0.636944
0.009485
4.239698
6.042105
6.791511
5.742588
3.735164
7.848272
13.696605
12.390554
5.317795
-1.041659
-2.479257
-0.704478
2.028803
4.052548
2.724834
-0.601826
-1.355946
3.796351
12.242025
14.029048
8.823061
9.302466
15.755160
16.348844
8.580364
0.173301
1.073718
10.208207
13.920397
10.051225
7.498463
4.365513
-5.142586
-7.867396
5.774845
17.346245
15.584332
10.024832
8.943886
7.607067
5.021340
5.654268
2.579714
-9.126691
-17.092649
-10.201989
-4.607017
-9.182899
-10.399788
-5.620155
-0.072590
6.232859
14.329731
18.780340
13.385352
3.158298
-3.293774
-3.660161
-0.966752
-3.924201
-13.057753
-16.631494
-11.607919
-3.868328
-1.103965
-6.001650
-7.163283
-2.077544
1.623029
2.413562
2.661269
4.994259
2.473834
-6.847777
-14.783281
-14.017864
-7.115902
-3.877155
-5.645032
-9.591123
-14.560389
-21.464868
-26.790786
-22.081793
-10.808649
-7.894217
-16.534548
-23.422387
-17.978427
-11.178500
-16.551512
-22.081814
-14.612223
-3.589615
2.787730
7.791213
8.801514
4.528598
3.186442
0.787517
-4.418471
1.652455
14.038565
18.268151
15.847249
17.650912
23.591547
19.379852
4.848174
-2.452515
-0.766898
-5.336187
-15.966986
-18.901203
-13.730069
-10.379241
-7.428390
-3.814154
-2.440294
3.188899
14.951497
20.571271
12.438290
1.249594
1.054626
9.019323
12.065302
6.580523
0.782418
1.969789
3.661685
0.206932
1.336222
8.412743
9.314730
5.608815
1.740585
-2.881135
-6.693795
-10.547583
-10.526236
-5.281637
-2.923531
-10.150755
-18.671469
-17.755982
-13.319815
-14.849715
-13.673960
0.731817
15.570222
17.797095
11.751594
5.149767
6.839465
10.970783
5.007852
-0.493567
-2.353433
-6.967617
-11.275383
-11.476316
-8.501918
-10.728169
-18.725521
-17.511778
-1.189626
7.347409
-2.732087
-10.618300
-6.320900
2.373425
3.206970
-2.668995
-3.396743
2.566182
6.691849
2.700863
-0.727517
5.948084
15.534039
10.227272
-1.774878
-1.732497
6.161246
10.679042
5.651380
-2.750974
-6.225191
-8.273116
-7.100500
-3.214066
-5.649096
-10.755561
-13.918964
-13.256523
-13.024828
-12.309015
-5.881124
-0.241257
1.879814
7.355483
17.478613
23.448760
18.537575
9.982012
8.057471
6.452222
0.890524
2.094849
12.335712
14.769481
7.166768
3.333387
3.069349
-2.807558
-5.025960
-1.123828
-2.635833
-3.433279
0.601027
4.328915
5.375635
1.435195
-4.140944
-2.386258
5.846555
14.317031
11.013291
0.362713
1.996527
11.720621
12.391225
5.546397
3.611182
6.384963
8.476522
7.475948
3.751823
-0.323617
2.616246
10.325070
8.814007
0.583072
-5.862092
-10.572033
-14.214529
-13.447542
-6.451394
-1.843180
0.065658
2.193949
-0.764756
-9.014528
-12.106977
-2.939209
6.949712
6.199045
0.375510
-1.805217
-2.852885
-1.706955
2.885247
3.652548
0.973576
-2.295629
-7.275884
-7.793911
-2.807382
-3.679863
-9.831166
-11.237055
-10.983696
-16.267231
-17.621003
-8.188886
0.051462
3.520651
5.975455
2.835599
-1.415341
-0.699215
2.405788
3.932857
1.232850
-2.210914
-3.370348
-4.801667
-11.202250
-18.753474
-20.621189
-19.433818
-17.778969
-12.134078
-2.488472
4.255885
2.202309
-3.313237
-1.807517
3.988072
0.920425
-10.035631
-12.818208
-4.300324
0.506937
-3.592677
-2.932121
7.151451
11.851026
2.890149
-0.036219
8.976456
9.078488
-1.060031
-3.152223
4.309833
7.794406
5.096910
0.350551
-2.669689
-4.565660
-5.885525
-5.301887
-3.762259
-1.315932
-0.186956
-0.848460
4.368511
14.477513
15.743059
9.739000
7.627971
10.246973
13.714278
13.697950
10.072093
4.073999
-2.002897
-4.097915
-4.167929
-3.226070
0.227735
2.955051
1.164569
-1.751124
-3.123106
-3.856819
-2.798169
4.521352
15.700624
13.599327
-2.985296
-11.488742
-4.670920
-1.807348
-7.932593
-10.504821
-5.170117
5.959235
8.357841
0.090174
-2.945450
-4.015407
-11.208410
-11.622518
-2.574680
-0.895657
-8.613591
-11.930203
-7.136128
-2.515984
1.467462
4.343278
6.535930
10.223317
11.248374
8.299088
0.788050
-9.286423
-12.531454
-8.284287
-5.212249
-1.770374
6.594613
12.208422
12.352211
11.917696
5.091391
-6.295409
-12.958771
-8.043510
2.199865
0.936825
-10.337894
-16.654651
-11.680366
-5.692638
-5.381826
-4.524106
4.778662
14.830838
12.947112
2.881116
-0.762637
2.241901
-0.552607
-5.102431
-5.942888
-7.117079
-9.526992
-8.635993
-3.567522
0.765982
0.199606
-3.077134
-3.372253
2.337625
8.167435
6.478046
1.362790
-4.105035
-6.118425
-2.486293
-1.661539
-3.348730
2.522521
14.293282
18.662577
9.917072
-4.972513
-14.255822
-8.567606
-1.633934
-4.714768
-1.784010
5.662663
2.656237
-4.716662
-3.771349
1.962705
1.882016
0.197336
4.612468
5.039443
0.576899
0.246930
-0.691481
-4.477769
-3.437328
5.256056
6.520974
-6.108770
-17.668559
-15.254569
-2.946633
2.285094
-4.249547
-7.809788
-2.366457
-1.670737
-2.962346
5.212699
15.869237
19.310170
14.437602
13.070015
18.836720
20.481208
12.112134
-2.071054
-14.694833
-17.358736
-5.342149
10.846572
14.035715
5.049407
2.746551
5.763019
3.996083
5.431792
10.846240
5.828625
-11.877755
-17.997977
-7.745498
-4.924624
-5.872140
-2.370927
0.048714
2.330843
3.884598
3.298130
5.333805
15.762098
24.804913
19.892158
10.829873
8.827472
4.455974
-3.413914
-11.907942
-10.026732
8.344598
24.560005
27.999997
18.885281
11.797453
14.089315
17.025410
17.474048
21.638645
30.008656
25.678914
10.601584
8.308776
18.117952
16.872808
-0.454002
-11.167685
-6.686622
-1.741535
-0.758548
-1.288819
-1.880625
-1.207510
-3.147434
-3.059530
5.127760
12.408665
9.555762
0.080314
-7.306085
-2.940243
8.677308
10.374541
5.932089
5.441691
6.480876
1.112260
-5.147672
3.150444
13.731947
11.669580
11.928276
18.258528
13.128831
1.198576
4.970417
13.040916
2.192547
-11.930362
-8.644209
-3.404005
-13.470001
-25.786733
-32.222478
-31.412166
-30.336248
-33.629628
-28.999123
-19.761657
-13.068474
-5.214290
2.616348
3.429173
1.527237
3.408447
0.249753
-10.424372
-12.767413
-2.842074
6.734148
8.507672
2.231415
-6.203904
-11.814578
-10.937707
-8.340997
-8.890733
-7.148604
-7.450945
-11.045721
-14.539089
-18.364308
-17.687425
-14.818830
-13.121911
-6.389171
-0.240698
-2.423937
-1.704985
6.591875
6.827652
-2.465075
-3.864371
4.512233
5.244999
-8.642758
-19.378732
-11.873350
0.556714
0.918386
-3.391891
-6.283410
-11.788282
-18.694644
-17.549657
-7.919434
-9.972696
-24.433420
-29.308814
-25.472299
-23.824671
-22.312043
-22.934303
-27.993360
-29.521691
-20.336655
-9.107151
-2.535468
-2.595750
-12.652013
-14.104995
-1.939280
5.179938
4.436179
6.588645
12.308570
10.313704
-1.196167
-12.166350
-14.868868
-15.397884
-14.716606
-10.304613
-10.625791
-12.497587
-9.918143
-7.160374
-4.504954
-6.316471
-12.960054
-10.931286
0.219416
5.042060
1.058609
2.037201
9.818549
10.407524
3.731289
-0.951023
-1.626655
1.124522
5.740899
8.968971
7.616455
7.996022
14.021425
16.901950
11.315136
8.370559
8.062254
5.893143
7.906841
12.737335
12.825553
8.369602
9.427624
13.816070
13.614823
11.181677
13.460981
15.371388
13.878534
15.093848
20.503900
22.933274
20.134057
14.835767
7.625497
4.415315
3.892893
-0.293373
-5.073639
-5.493398
-5.388854
-4.060517
0.046313
3.988630
8.991171
16.364064
17.247214
6.804787
-1.230868
3.209695
11.784090
13.761998
11.181293
13.305189
18.681963
20.312951
17.990003
12.565189
10.246950
14.892211
17.978062
13.592750
12.940037
22.099957
26.790741
19.753145
15.837195
21.346143
24.405936
19.309518
12.753842
14.519203
18.362625
13.791766
4.409248
-2.127905
-2.341710
-2.115038
-3.749485
-1.703449
-0.334926
-3.371806
-4.886009
-3.658765
-7.973751
-15.033010
-14.092406
-9.121261
-11.027906
-18.631247
-14.383452
-0.011896
4.257248
-1.780090
-3.076723
4.508717
14.324800
17.675943
10.034300
7.189874
12.736810
13.504111
11.217896
12.329290
16.587132
16.469710
7.802380
-0.472194
0.068746
2.759643
2.240046
-0.951927
-7.805859
-13.398638
-13.871141
-14.249145
-15.905882
-12.503566
-7.770712
-11.941593
-19.000537
-18.923307
-16.487655
-17.541287
-18.016930
-12.989901
-8.254222
-9.378807
-9.847857
-5.464434
1.613656
10.192447
18.851923
18.100001
7.065771
0.699723
3.274457
7.447531
8.908357
7.885178
5.719835
5.872100
6.586656
0.115434
-12.549473
-19.630394
-14.450470
-5.129806
-5.705600
-12.260334
-11.326324
-9.433498
-14.462416
-13.968882
-1.472574
11.774084
13.290480
3.946578
-5.092160
-9.277797
-11.445338
-18.128166
-22.994455
-20.058046
-17.807627
-13.166133
-3.122433
3.004062
0.085543
-5.872050
-5.717274
-2.262213
1.459082
2.897616
3.124602
4.319823
-1.064805
-9.571391
-13.387191
-11.588865
-7.307791
-6.637815
-6.445678
-0.851648
5.011126
8.559118
8.689720
6.925610
7.239247
6.746965
0.799417
-7.410796
-12.841261
-10.643586
-2.208900
-2.893008
-11.192385
-10.701050
-0.691257
-0.236026
-8.134170
-5.998343
2.737110
8.587955
7.292578
5.150467
9.983472
15.189769
15.187569
16.092067
19.576954
20.616767
19.013402
11.232677
-0.868369
-7.008056
-2.709400
3.227468
1.939312
-2.146802
-1.290024
2.992306
5.620098
11.945641
20.618303
20.728185
15.025522
13.301597
10.000369
-0.711117
-11.421974
-16.295484
-17.480349
-18.178586
-18.803357
-17.853334
-9.760859
5.210035
17.150331
20.895172
21.897310
28.069329
32.856183
30.171246
28.423148
28.312319
26.841128
24.599180
21.522114
18.637502
19.398838
21.350374
19.631159
18.092154
19.878864
19.903977
11.917613
-0.656561
-7.312075
-3.011849
2.480459
-0.574316
-6.352328
-6.026132
-3.545270
-7.342860
-14.503212
-15.486832
-8.766650
-4.153098
-5.915953
-5.102500
3.952558
12.319116
14.608466
19.130343
24.613547
23.020541
14.514583
6.554277
4.681225
2.594056
-5.826507
-12.564904
-11.085555
-13.361725
-20.854553
-21.090649
-14.104548
-8.022947
-5.705655
-6.164659
-5.752440
0.595394
11.014582
20.373235
20.930814
11.253808
3.134327
1.977404
2.188378
2.848307
4.328597
4.411165
0.313434
-6.265160
-9.650529
-9.131566
-7.970252
-8.011697
-5.318288
0.558928
5.353631
5.847164
2.806831
4.038156
12.229841
17.185288
12.046173
0.416686
-12.138965
-20.978028
-25.246235
-28.360348
-29.465468
-23.715404
-15.637684
-13.973102
-14.594734
-10.300473
-7.608948
-12.122982
-18.077436
-17.342786
-12.169455
-11.190549
-14.297754
-12.962510
-5.181791
2.771289
5.987745
5.464067
9.147373
15.690172
17.720510
11.606881
6.462428
13.485263
23.160694
21.349177
9.410760
0.022905
0.353182
5.268129
6.059918
3.805726
1.540545
-4.137315
-9.393850
-6.587418
1.626872
7.353391
8.827402
12.561568
17.298818
13.994449
2.435916
-3.860748
3.072296
12.194855
13.691785
9.800636
8.022398
11.407134
15.641115
17.535510
17.493124
17.663598
17.741770
14.968926
9.878159
4.950963
2.498037
1.284603
0.036947
-2.035152
-7.164849
-10.709392
-7.001598
-3.728944
-4.842228
-7.273176
-9.296612
-7.765461
-3.078759
4.910112
11.143038
10.043883
4.496941
1.471678
1.061023
-0.497761
-2.245859
-2.515235
-0.021501
0.431532
-4.891874
-9.421919
-6.243137
-2.570192
-0.396377
7.064423
15.213096
19.895718
20.062739
17.748895
17.722520
19.617230
21.042579
20.413098
16.989113
13.972641
13.208788
14.691590
15.223112
10.865742
7.170814
0.590964
-6.710981
-5.269307
-5.255495
-9.660272
-12.218686
-12.397957
-12.884902
-13.436208
-8.523772
-2.637765
-4.385863
-9.196583
-6.118895
1.022928
1.267182
-2.977479
-4.748810
-2.918461
-2.290869
-4.107096
-2.631828
2.505084
5.782447
2.245125
-1.526407
2.758121
8.942698
11.982398
11.833581
8.568771
8.029709
13.026285
14.966832
12.265883
11.354158
10.146688
5.229538
-0.053054
-3.047864
-7.403979
-13.375700
-13.789180
-7.863929
-6.084440
-10.069775
-9.575300
-5.985553
-8.951165
-16.401924
-23.291961
-28.993368
-31.223700
-34.683475
-38.941322
-33.495793
-23.260895
-20.597626
-21.751723
-17.003486
-8.904731
-5.047808
-6.230790
-9.395135
-9.806731
-5.672587
-1.588362
-2.976356
-8.689693
-15.054485
-20.057659
-18.705775
-15.348982
-15.936078
-15.700615
-11.511530
-7.325898
-6.462213
-4.093119
0.895922
0.623407
-5.933839
-10.059511
-10.151816
-9.156898
-5.916582
-5.890526
-12.705528
-19.739042
-22.768073
-19.317721
-12.721236
-11.451609
-14.280651
-12.507441
-5.231246
-1.871627
-6.725672
-11.155566
-7.272899
-3.434500
-7.933778
-14.918001
-15.863319
-11.489314
-11.067991
-14.352894
-13.879454
-8.137866
-3.347872
-4.480621
-6.748313
-7.679817
-8.593112
-8.528754
-8.292663
-11.075554
-14.892924
-17.622756
-16.779164
-7.510931
4.852261
11.715607
12.632978
11.333206
9.063316
4.808608
2.835719
5.683279
6.275708
6.136623
10.590058
15.082737
14.003361
10.824888
9.348046
6.395306
1.486947
-4.480694
-8.086772
-8.270438
-9.808501
-13.304695
-11.809021
-7.034411
-6.072459
-3.353620
3.253540
5.298633
0.664670
0.149469
6.307046
9.904328
10.336954
12.169187
14.487107
13.274928
9.708094
8.327636
8.135493
4.126612
-1.562551
-3.422417
-4.387514
-7.322673
-8.756817
-8.585087
-8.626532
-7.965347
-7.568198
-11.505498
-16.533787
-16.557965
-15.551745
-17.785844
-19.657326
-16.855289
-13.000251
-11.911461
-10.454403
-4.544850
0.076237
1.135201
6.607731
14.639299
19.041874
22.469621
25.152669
21.420067
15.939998
17.245416
23.069260
23.525118
18.089002
15.035169
15.267179
15.113966
13.299310
7.937915
0.652296
-2.779224
-3.704135
-4.149011
-4.154351
-7.369242
-10.450075
-7.634852
-1.026751
5.369431
12.115672
19.006332
20.797751
18.534140
15.145318
10.812750
6.510322
5.463910
10.805521
20.477499
27.136461
25.726177
19.717409
13.962316
13.343824
17.508735
21.870809
23.789379
20.875884
16.362164
12.607586
9.107938
8.527749
10.667970
10.057641
5.779387
5.671385
9.770993
9.584502
3.212489
-4.743108
-12.623356
-18.282065
-18.708103
-13.984354
-7.180660
-5.010298
-7.850957
-9.898881
-9.939070
-10.879365
-12.089660
-11.344650
-9.152939
-6.743973
-4.369542
-2.824577
-1.739554
-0.443241
-1.507233
-3.494879
-1.832495
0.896391
0.169899
-4.166123
-9.226436
-12.984154
-15.227358
-15.346349
-14.170594
-10.906417
-3.763338
3.810800
5.907382
6.953474
14.730112
24.736137
27.521535
23.228839
19.585714
18.051732
15.817319
10.505843
7.431603
11.060908
17.411881
20.740419
16.182118
9.525977
8.552403
11.011602
7.487466
1.260185
-0.296715
-3.167513
-8.840037
-13.467407
-14.449772
-11.010408
-7.712010
-6.554464
-5.755768
-1.932125
6.667700
13.659453
14.085800
11.906643
13.967435
18.200474
18.302820
15.057789
14.571158
18.066719
20.358267
17.724190
13.450645
10.800243
4.597451
-3.871146
-8.203714
-10.217104
-16.350198
-24.369841
-26.494685
-24.820998
-25.972270
-30.057756
-34.135079
-35.210375
-31.918883
-30.887233
-32.322319
-30.079749
-24.810661
-19.706400
-12.068216
-3.475297
-1.679483
-5.159980
-7.726870
-5.640020
-2.416657
-4.880885
-12.190678
-13.996230
-8.525899
-4.517650
-3.544710
-1.494907
-1.972747
-6.094652
-9.194322
-11.683038
-13.691718
-15.551898
-17.160287
-16.474301
-10.541200
-3.491680
0.348917
2.546592
4.501581
6.585919
8.125547
9.244162
11.910257
17.601927
19.727393
13.353182
6.422331
6.702061
9.788226
9.452293
7.291973
9.865765
14.898445
12.830742
4.445028
-3.427371
-5.296342
-2.759282
0.184348
0.683532
-5.144399
-10.412549
-7.724164
-1.214644
2.749022
4.674186
7.324583
10.351097
10.009198
4.103407
-3.692701
-10.261878
-13.840956
-14.894588
-13.414297
-11.709530
-10.582438
-10.595626
-15.889207
-21.537556
-21.307431
-19.532651
-20.500574
-20.701507
-21.439302
-25.253217
-28.904819
-30.118568
-28.321184
-23.437632
-17.270950
-12.026351
-10.092397
-14.711605
-21.371200
-20.773748
-15.806684
-14.917883
-13.535860
-4.771523
9.432067
20.469432
22.198374
19.743879
21.831984
27.517689
27.093220
18.958983
10.013176
4.726188
1.547715
-0.076372
1.761512
4.217886
4.623198
4.631672
6.185742
10.205292
17.700313
23.004877
23.265771
26.005958
30.219533
29.249412
25.068170
21.824395
21.564438
26.098559
31.369216
33.006798
33.061109
32.533978
30.151692
26.951557
22.134872
14.070019
7.772727
5.645372
3.614087
1.545442
-0.046308
-2.788699
-2.943480
3.862098
16.207708
25.061522
22.844377
17.823308
16.685536
11.809828
4.481825
2.148202
-1.593818
-11.386674
-16.554359
-9.899165
0.624256
7.025148
9.294091
13.460886
21.884269
26.676146
26.558725
25.041383
19.995825
13.205312
9.459838
9.210556
8.292238
4.234380
1.539082
3.093152
8.689379
14.025653
12.428566
7.291648
4.484269
4.273603
4.093705
1.916431
-0.226307
-2.130441
-6.053299
-10.246785
-10.885998
-7.073343
-5.148180
-6.452347
-6.001826
-4.950397
-2.651314
-0.356313
-2.982855
-9.701787
-14.911856
-14.389439
-15.381850
-20.986246
-19.273001
-7.309159
3.567461
6.569172
6.298541
9.840254
14.479236
12.751544
4.966738
-5.742235
-15.185032
-18.690645
-17.585216
-19.045419
-20.642505
-12.467146
4.728426
17.962527
17.464279
9.077937
5.181138
8.842467
7.160926
-3.886804
-13.205275
-14.765001
-13.101047
-14.708808
-17.187478
-14.599244
-8.981981
-7.273760
-5.871958
-0.542906
3.931878
5.746530
6.473645
4.709221
0.109792
-4.116659
-7.810959
-12.957923
-16.731025
-15.501584
-12.540686
-9.808975
-6.328170
-2.580503
3.066271
7.244682
6.108480
3.345682
1.191955
-4.118894
-10.967803
-13.507693
-12.819509
-13.473163
-16.174426
-16.930430
-15.629721
-12.871638
-10.571300
-10.566593
-10.947108
-9.367922
-5.531092
-0.837797
2.478183
3.593973
4.750577
7.347916
11.260722
15.291260
18.955101
19.924902
16.976558
13.842352
