EVENT_NAME: 202302060117
EVENT_ID: 13194
EVENT_DATE_YYYYMMDD: 2023/02/06
EVENT_TIME_HHMMSS: 01:17:32.00000
EVENT_LATITUDE_DEGREE: 37.288
EVENT_LONGITUDE_DEGREE: 37.043
EVENT_DEPTH_KM: 8.6
HYPOCENTER_REFERENCE: AFAD
MAGNITUDE_W: 7.7
MAGNITUDE_W_REFERENCE: AFAD
MAGNITUDE_L: 
MAGNITUDE_L_REFERENCE: 
FOCAL_MECHANISM: 
NETWORK: TK
STATION_CODE: 4611
STATION_NAME: 
STATION_LATITUDE_DEGREE: 37.7472
STATION_LONGITUDE_DEGREE: 37.28426
STATION_ELEVATION_M: 1097.0
LOCATION: Kahramanmaras_Pazarck_Turkiye
SENSOR_DEPTH_M: 
VS30_M/S: 731
SITE_CLASSIFICATION_EC8: B
MORPHOLOGIC_CLASSIFICATION: 
EPICENTRAL_DISTANCE_KM: 55.32
EARTHQUAKE_BACKAZIMUTH_DEGREE: 
DATE_TIME_FIRST_SAMPLE_YYYYMMDD_HHMMSS: 2023/02/06 01:17:16.6455890
DATE_TIME_FIRST_SAMPLE_PRECISION: millisecond
SAMPLING_INTERVAL_S: 0.01
NDATA: 10501
DURATION_S: 
STREAM: HNE
UNITS: cm/s^2
INSTRUMENT: sensor = CMG-5T/GURALP | digitizer = 
INSTRUMENT_ANALOG/DIGITAL: 
INSTRUMENTAL_FREQUENCY_HZ: 
INSTRUMENTAL_DAMPING: 
FULL_SCALE_G: 
N_BIT_DIGITAL_CONVERTER: 
PGA_CM/S^2: 321.114
TIME_PGA_S: 
BASELINE_CORRECTION: BASELINE REMOVED
FILTER_TYPE: BUTTERWORTH
FILTER_ORDER: 
LOW_CUT_FREQUENCY_HZ: 
HIGH_CUT_FREQUENCY_HZ: 
LATE/NORMAL_TRIGGERED: 
DATABASE_VERSION: 
HEADER_FORMAT: DYNA 1.2
DATA_TYPE: Acceleration
PROCESSING: Automatic Paolucci et al., 2011
DATA_TIMESTAMP_YYYYMMDD_HHMMSS: 
DATA_LICENSE: U (unknown license)
DATA_CITATION: Turkish Accelerometric Archive v 1.0 - Disaster And Emergency Management Presidency, Earthquake Department
DATA_CREATOR: AFAD
ORIGINAL_DATA_MEDIATOR_CITATION: : AFAD - Disaster And Emergency Management Presidency
ORIGINAL_DATA_MEDIATOR: AFAD PROCESS SERVICE
ORIGINAL_DATA_CREATOR_CITATION: AFAD PROCESS SERVICE
ORIGINAL_DATA_CREATOR: network: TK
USER1: GuestUser
USER2: 
USER3: 
USER4: 
USER5: 
[...]
-16.344924
13.663579
25.585879
14.450538
-2.974949
-25.402906
-38.984047
-30.548472
-7.372722
17.245862
30.906554
28.511075
14.361116
-6.427571
-30.221536
-17.999462
25.446778
53.259846
57.437717
34.355679
5.144981
-20.968547
-37.147031
-25.514865
-14.991111
-36.577289
-46.217071
-23.445038
3.047515
14.770367
14.581771
8.068684
-9.652962
-14.083293
3.636558
25.083256
37.159812
21.167821
-6.326478
-2.125710
16.212370
16.412427
5.553963
-2.860207
1.597855
19.939852
22.282921
4.320853
3.811092
18.014089
17.472995
7.070972
8.379744
19.709424
21.448726
17.329919
6.707660
-10.684083
-30.490293
-25.516437
3.814785
45.031546
72.686742
60.076932
-6.051540
-74.209742
-92.676155
-49.561324
16.625308
40.188204
45.801378
53.611191
49.856332
3.857954
-60.952112
-101.895597
-86.832141
-34.792161
7.858697
22.814295
17.736511
10.445215
-4.362140
-30.096355
-50.384614
-50.974817
-17.009289
31.618985
62.303863
60.493773
27.380884
-4.980008
-19.864792
-31.713868
-42.960683
-23.105050
13.328271
42.318745
41.140441
-8.725783
-67.071262
-87.925929
-54.463541
4.425763
43.987888
39.163782
-1.858639
-45.268109
-64.035803
-48.460470
-17.191106
9.939560
21.988097
16.101373
4.135400
8.534110
26.947812
30.825305
11.918118
-13.710649
-30.250972
-0.382565
60.475310
101.084988
84.007180
19.864753
-32.402380
-31.503351
18.795225
51.106419
33.969860
-8.300768
-41.834246
-38.593961
0.149583
34.377225
34.966236
18.606682
14.602964
22.648681
35.141306
50.503031
49.495855
25.870004
-0.743349
-3.686256
21.116412
38.559386
22.963579
-15.897753
-31.982539
-6.199503
23.323937
13.534419
-7.064763
0.496494
18.410069
7.874880
-17.524311
-36.415530
-58.152047
-74.526665
-52.751872
2.136419
38.487189
26.905651
-20.558761
-58.485218
-58.029976
-14.746729
45.071425
82.990362
73.117690
23.592817
-21.656878
-14.880760
28.496487
44.309832
16.784199
-19.284558
-34.021714
-27.143462
-6.847959
8.717733
-1.229656
-9.308200
13.754569
39.443907
53.617379
61.891467
60.859586
51.174913
46.506871
43.845361
44.712153
54.826164
66.754791
65.040509
42.984031
11.305240
4.167597
37.310025
61.433304
55.535734
45.468133
49.615273
55.913560
54.169450
42.063382
16.877498
-10.849692
-11.529676
20.425704
37.402898
18.399301
1.080468
17.670214
59.859509
97.928184
118.356853
115.416357
98.552157
78.489256
93.723237
122.356090
128.177751
122.335616
113.259531
100.958534
90.040417
99.604590
117.800465
132.408084
113.190577
50.843183
-21.560973
-67.214686
-75.527024
-57.711365
-35.765746
-28.330123
-30.556282
-26.810750
-25.291082
-41.066753
-83.018024
-142.744876
-184.185475
-178.461128
-130.537551
-76.574192
-41.238438
-38.682664
-62.301887
-89.477732
-106.031914
-106.679963
-82.541017
-51.680191
-24.598633
0.915057
17.610553
15.018940
-20.151096
-68.771524
-89.006456
-50.017067
24.533127
85.882391
113.834048
118.768435
97.791749
63.964823
38.418306
26.807845
32.156192
46.556529
78.258533
117.584453
121.598728
88.434320
36.168391
-3.064420
-6.106448
21.456255
29.701420
-20.047908
-102.607947
-176.245547
-210.761503
-197.632271
-144.681216
-69.686331
-2.309639
33.972137
18.311856
-16.695488
-59.581332
-91.663841
-97.485488
-88.944164
-49.574859
13.541418
66.406607
96.260553
99.132973
58.572717
-15.314043
-86.685106
-98.270862
-40.856932
31.434257
70.223897
104.490706
138.192312
154.810680
122.063545
74.810030
42.575375
70.438455
129.885731
156.328573
145.127251
109.964144
80.447345
53.062411
18.848038
-11.678956
-17.174617
-18.746394
-24.842207
-28.347907
-24.207997
-5.754225
1.338238
-19.863505
-61.712942
-85.542760
-80.429713
-39.202709
29.336325
78.626212
69.669736
2.890798
-51.693186
-44.556133
-4.380600
19.483577
13.091002
-14.446681
-21.963938
-2.594573
24.208600
49.165524
44.567680
-11.208775
-86.211781
-112.992044
-59.408300
17.787142
92.972738
142.715751
131.279129
41.218096
-69.367105
-124.623248
-105.004121
-54.872455
-18.640691
-23.546745
-73.368982
-138.361022
-178.533529
-168.602395
-122.104480
-71.251547
-40.938750
-54.137264
-80.831059
-98.529205
-117.167047
-102.232840
-63.168733
-21.182200
7.352135
33.488875
39.212016
32.937544
44.908651
43.651713
6.890612
-27.720549
-33.343350
-9.067925
-0.655549
-23.692696
-63.736857
-115.162211
-150.130390
-143.687187
-98.471523
-54.177177
-13.610581
13.225131
25.632794
18.307152
6.615647
0.153777
-0.917873
0.118842
19.376130
58.331173
82.674086
92.893244
90.851168
83.373982
100.231868
138.421959
186.312998
225.858853
215.686407
143.138539
46.734637
-5.436388
29.842123
120.749166
188.362966
204.852085
127.802175
-1.385324
-116.766016
-166.929003
-127.540717
-27.826928
55.501994
49.505001
-29.208282
-113.236764
-140.086925
-111.327232
-17.114232
87.152818
126.041279
85.407510
-5.043079
-69.976670
-116.249817
-110.124466
-28.226328
14.687849
-23.089172
-51.039912
-54.165696
-35.337733
-30.052353
-3.252494
39.955433
42.920949
38.888610
14.809934
-11.892298
-10.892339
1.371613
6.643737
-17.819976
-61.835323
-69.698149
-22.998375
16.603217
29.999987
34.145319
35.264886
36.552568
25.002664
-7.431138
-55.290228
-106.194969
-122.981739
-80.478811
-12.140429
38.253653
56.975866
28.944985
-10.578562
-17.654442
2.797124
25.490824
20.034330
11.701204
31.037729
63.955402
43.420996
-5.937269
-38.164995
-38.546711
-8.857566
38.272136
85.295787
88.300770
28.299150
-34.331147
-60.179548
-45.906955
-35.821866
-34.949049
-17.937208
9.384470
2.202238
-14.871352
11.905309
69.881429
111.022869
114.171263
65.041670
-14.357026
-69.948495
-70.800511
-42.109510
-17.511413
-13.017799
-16.778082
-0.217861
23.112446
33.766955
36.677638
25.357009
2.177657
-15.831110
-18.692369
-18.170845
-40.329457
-60.871094
-50.726050
-35.048583
-49.893899
-62.313601
-46.748211
-30.427207
-28.912661
-31.911003
-22.232343
-17.703480
-53.329957
-94.042058
-119.020360
-134.253123
-145.031446
-117.518153
-54.909534
9.953871
38.906384
23.234956
-17.270768
-55.582564
-89.133516
-70.309168
-8.166330
34.090753
22.677933
-37.359239
-76.998177
-58.555251
-12.173630
16.426082
15.535803
-14.965582
-66.321039
-101.133154
-92.628284
-58.767904
-29.060682
-12.830967
-7.635670
-18.929786
-42.586066
-74.309146
-81.584775
-59.888014
-35.290519
-21.924480
-18.524216
-46.894942
-78.654778
-87.424761
-66.389915
-31.002641
-14.319197
-40.228758
-77.952754
-85.573651
-62.942618
-27.684293
-4.089461
-11.392507
-55.617244
-89.944899
-89.857521
-60.492554
-32.717448
-7.122713
16.949047
15.525500
-14.068728
-59.706172
-83.794187
-73.190594
-42.797959
15.331213
64.740709
76.779906
66.041955
45.618119
28.119120
2.511443
-29.341188
-47.682268
-20.144571
40.001075
77.900128
72.545768
14.025245
-72.143840
-132.797733
-151.899849
-115.407176
-58.474692
-40.358656
-68.442261
-104.715589
-119.122842
-98.834269
-51.090255
6.160984
27.991815
6.862078
-19.262597
-43.574164
-45.359549
-23.276545
-15.181117
-43.204466
-82.492713
-106.725343
-107.600860
-63.880454
13.333366
60.992419
38.816332
-33.268164
-104.825419
-125.123621
-72.456976
-8.263619
36.288021
41.000063
4.614056
-38.808671
-54.123684
-47.243924
-30.743357
2.702159
43.057256
49.773118
4.105847
-58.441598
-99.498063
-101.049353
-46.111350
27.784461
67.310432
75.247387
54.778058
21.385278
8.345841
20.416371
43.372789
76.033468
97.341878
118.070322
118.317982
75.044087
26.615576
-6.481044
-17.481713
40.115698
115.546235
110.355169
15.862895
-81.512941
-134.251880
-109.339848
-29.838401
30.369007
53.185329
29.654984
-8.253697
-45.528182
-71.513665
-74.849443
-64.216324
-71.628434
-77.758292
-78.503654
-70.518796
-66.319233
-88.415781
-115.834760
-112.744514
-72.042342
-16.648501
18.191044
39.818811
49.391421
46.779019
37.926183
13.351599
-14.521411
-28.922638
-25.604021
-10.075387
15.792309
43.739447
64.914992
65.156626
45.589031
22.845633
17.365337
13.540279
8.507085
18.777762
48.614534
74.749768
86.892606
92.093024
97.805922
96.509516
75.854297
59.016610
57.893139
52.217011
39.259522
27.063370
19.525024
23.028025
41.818629
50.365678
43.198510
30.530552
1.108958
-53.158983
-117.263147
-161.064585
-160.001056
-117.611710
-58.682637
-6.626990
21.524416
6.616133
-47.379450
-113.779376
-162.725187
-174.321187
-134.804857
-45.601256
36.258317
75.002464
61.806662
-2.747315
-79.686354
-132.503024
-138.898611
-81.493418
-6.761250
57.808105
110.639250
118.083309
36.181870
-66.503140
-133.819262
-166.889972
-150.182124
-106.602115
-52.556506
-6.804261
14.133272
10.661315
12.060170
16.691167
12.389483
15.662908
29.324805
23.062082
-5.259535
-11.652411
36.734537
93.606764
116.031119
100.932125
39.230376
-44.939709
-99.878000
-91.339990
-24.094656
83.353921
172.577406
199.280554
170.815829
108.116839
25.781556
-49.397097
-60.841552
-19.376536
41.145711
81.759306
86.054978
65.896571
33.771582
25.407725
54.916101
94.141394
114.135616
96.563405
48.955885
-2.269419
-36.363882
-48.767315
-60.109636
-76.167608
-83.625211
-63.484265
-10.701627
37.684116
31.559078
-7.428490
-41.805254
-73.944704
-87.847613
-36.064926
33.079081
54.777348
7.334026
-73.431885
-124.126933
-132.505251
-95.365125
-29.054365
41.503553
67.187167
20.237945
-75.730908
-163.458218
-189.228888
-137.026517
-42.925895
41.041742
93.005197
105.606886
83.500396
26.786655
-10.265183
23.838332
72.622067
91.845612
95.928278
90.950218
83.560102
81.646973
93.528299
83.770114
46.052445
3.020781
-32.584908
-26.847908
54.396149
148.500989
213.405067
227.409521
166.466397
59.315498
-42.683796
-105.386703
-86.883219
8.059182
114.020938
169.399715
124.867973
-9.898648
-127.144270
-175.262161
-129.954004
-36.447809
23.069665
17.041942
-49.534233
-88.457027
-110.082672
-110.147441
-56.022596
61.381513
159.794672
212.261869
196.623883
178.868795
129.186352
61.617757
7.249790
-16.984045
-26.640398
-9.923812
9.358483
48.110463
100.207084
145.634247
124.142972
41.939349
-29.042459
-45.329405
4.375045
63.004343
115.100663
114.736421
78.280216
16.568826
-15.957168
8.241732
106.549744
187.680820
208.026034
161.861951
58.462001
-55.742791
-152.045464
-153.336447
-115.389791
-85.763915
-48.533103
-21.499751
4.025690
16.665943
17.832811
35.489996
64.025234
65.879927
22.982634
-46.738614
-78.575880
-85.343851
-26.234311
45.816154
78.348187
91.118895
79.918778
50.004891
49.651194
90.811915
114.330824
94.586980
27.238621
-49.068329
-98.097294
-114.063676
-70.062477
-8.240202
31.524685
45.076012
37.183358
27.041944
19.467142
15.219387
14.358634
24.784471
46.286002
52.081752
54.566725
63.916386
71.743674
64.190565
49.981856
39.305366
22.401397
6.002375
-11.376414
-38.169632
-66.970587
-77.703416
-64.094244
-32.994200
11.816843
53.194186
58.857373
31.711053
-13.502187
-55.113311
-90.286662
-104.045558
-94.152085
-62.281966
-16.813227
30.529481
57.170867
37.303497
-18.632637
-77.934381
-119.569608
-127.299268
-65.859017
32.581860
104.334960
131.250512
76.148023
-34.937306
-144.324012
-226.770166
-241.203329
-184.633890
-77.936104
30.148478
94.108643
92.587482
14.894638
-60.985397
-95.595352
-81.558662
-26.960504
4.446847
-15.676913
-54.347534
-81.253733
-84.616625
-67.329413
-43.442038
-19.406432
-8.369295
-12.369699
-16.740376
5.348653
44.173242
83.085202
97.707884
77.532002
26.534166
-31.776665
-68.529029
-92.867711
-94.291257
-48.640845
8.028921
48.555446
62.637028
63.485743
40.525723
-21.643614
-87.797092
-129.135858
-113.432180
-78.025323
-69.702729
-46.964138
-5.570225
23.960145
35.453722
37.175550
17.607654
-21.233793
-58.094920
-21.978246
70.516549
135.332352
171.196854
178.595721
166.571601
133.976915
86.784860
36.347106
-8.569975
-50.240452
-62.260655
-25.011465
33.578968
87.710140
130.042845
135.551776
69.392272
-37.909870
-125.068663
-136.166946
-19.056285
134.955279
255.625575
298.282760
258.688411
112.893398
-52.177578
-155.482323
-161.255464
-112.884785
-22.766496
123.645555
198.648875
145.959045
62.616278
14.720732
-20.645137
-40.145546
-41.714310
-13.028732
-18.079100
-68.391522
-95.587854
-77.815279
-35.973963
4.486582
44.397289
81.270480
87.344915
43.347947
-27.313600
-48.332466
-2.662470
48.738794
55.984911
26.055357
-44.044601
-120.188257
-142.767156
-75.915898
24.848157
75.607392
48.806039
-46.456913
-143.078039
-190.976296
-164.740736
-56.761301
63.360062
115.206318
78.871228
-3.902720
-52.704218
-35.093731
14.329623
32.977722
4.298183
-36.863430
-51.762675
-45.160094
-51.671073
-78.197055
-96.850864
-82.162201
-34.581180
6.530734
20.455649
6.515683
-27.399217
-77.616735
-110.388876
-90.479314
-14.270568
74.312394
158.167050
209.275168
202.297205
99.399791
-29.608746
-99.316437
-96.339774
-7.061456
91.722882
162.702895
157.084613
42.894282
-82.999612
-136.556831
-137.884871
-100.517881
-62.353097
-52.467156
-44.670900
-20.304487
-8.095066
-18.661287
-30.534465
-34.038056
-50.206598
-61.311811
-39.742191
-3.621298
5.770241
-27.711115
-79.013848
-114.069699
-137.759120
-130.589227
-95.696958
-56.724742
-34.186202
-32.677681
-33.681543
-22.974008
26.841916
117.072282
209.154321
273.590812
301.768128
321.114295
304.403447
256.403959
201.005612
166.064851
146.374936
148.054283
178.882571
185.930746
186.429373
178.263458
162.110583
146.634083
148.464974
172.396638
218.123877
259.036946
282.161177
258.693197
189.001475
111.195350
75.751147
68.177250
63.648399
39.713736
15.345227
0.210079
-18.377750
-6.540110
33.191335
79.824827
110.008374
100.197163
30.244230
-54.095175
-96.818930
-111.741675
-113.063087
-107.745168
-104.159014
-109.332906
-130.675348
-162.427351
-186.514764
-197.996880
-203.924276
-198.750973
-166.971540
-87.874413
-8.808016
33.080300
21.327031
-24.228464
-86.439680
-134.378911
-154.870234
-151.379886
-113.159065
-66.889821
-55.409199
-79.800304
-115.868760
-129.354696
-113.631434
-86.187436
-52.047165
-9.642755
15.303624
-5.146423
-52.690675
-60.693597
-7.139679
84.297920
148.754596
176.486921
162.174872
113.168203
57.405908
-5.472043
-71.274830
-129.873686
-147.650165
-105.706112
-20.071487
48.528105
74.824223
46.500497
-2.222969
-59.453406
-89.373621
-87.778632
-73.882640
-62.132070
-22.718778
49.654660
122.880724
162.836924
142.955997
72.506552
-0.189846
-61.414969
-104.776234
-101.151516
-35.115524
17.431814
1.212054
-59.714499
-113.879402
-139.708822
-120.915808
-52.501202
0.206417
-1.047207
-31.682060
-43.101208
-37.275631
-25.955591
-30.216904
-71.566215
-125.142414
-132.044154
-58.108875
36.707290
80.979341
66.450069
3.160569
-63.683144
-114.293834
-136.484984
-113.106171
-72.533249
-60.570275
-71.101849
-67.386445
-26.368831
20.395718
40.630362
13.829913
-42.033311
-91.832952
-117.658155
-121.418738
-97.958278
-57.262734
-27.514237
-1.927937
26.030047
37.411849
17.118769
-5.119682
-13.628154
-8.548850
3.269508
25.314249
65.172231
96.563011
92.993741
50.532101
5.700885
-30.223860
-45.727776
-24.793256
30.870834
81.708402
102.486557
78.643181
36.663892
12.723805
15.680885
26.436926
24.972406
12.123077
7.126036
27.744512
50.579212
62.459333
66.664620
79.749564
98.861635
114.658108
108.403219
90.056716
74.870049
60.263046
69.539797
90.211299
97.948504
77.550880
20.036335
-25.397443
-48.270392
-50.585731
-23.677711
26.593448
71.168889
86.622203
70.242765
44.893285
23.316146
13.918594
22.521379
49.693321
91.500592
117.987420
104.670805
64.642611
21.377454
-15.534589
-34.759627
-32.624743
-17.482954
-14.800341
-38.340929
-68.969154
-101.384578
-134.525185
-152.062748
-157.258032
-156.273740
-152.334183
-127.213363
-57.947940
28.562509
96.880404
122.347094
91.223262
6.985992
-74.097167
-127.494104
-116.675698
-21.528727
86.732406
154.011483
172.364326
123.285650
25.542854
-74.790657
-138.845713
-116.622312
-32.215106
48.204042
88.245204
82.679646
30.439929
-19.914672
-30.418528
10.391804
52.794105
63.836363
32.224154
-20.123421
-44.651006
-37.939663
-18.612778
-7.024599
9.684153
50.522806
79.560882
47.429566
-37.539817
-105.796538
-124.849846
-88.242686
-26.319783
22.239196
58.153711
74.171023
69.799140
38.383970
-16.513347
-68.317412
-87.020029
-47.615474
20.585523
72.168762
91.570665
70.167063
19.184291
-30.164935
-57.481479
-37.343244
24.728190
71.498464
96.563245
103.553274
81.416655
37.320264
7.449761
3.905497
26.033693
60.434572
94.556465
116.952198
115.635305
96.865201
74.101315
38.082570
3.429532
-14.799170
-18.390132
-16.507420
-8.717491
2.457331
4.319857
-10.589331
-26.709969
-42.512153
-58.040775
-54.886958
-33.376087
-10.402798
6.133018
29.822151
70.634291
108.573414
115.490533
80.715174
18.720278
-22.983640
-35.146952
-28.163853
5.831501
69.746474
104.862595
99.702259
65.310432
17.075945
-9.872131
-14.669724
6.069867
47.036865
61.622791
38.244292
-27.375316
-86.388734
-100.123227
-106.538398
-83.201463
-13.346131
46.698585
62.498975
52.113221
45.057828
35.806097
4.228234
-13.753417
8.830315
35.148426
39.810757
32.606531
19.364030
0.135979
-18.661541
-18.832060
-6.127032
6.053165
15.752915
24.791052
31.979624
38.746102
47.822200
74.221657
109.453168
119.714505
78.521258
3.684559
-48.086666
-52.876425
-26.573378
13.330098
49.905322
63.262925
35.893055
-12.172112
-60.832308
-99.519198
-138.160595
-165.145127
-155.132948
-121.484067
-77.873026
-26.073468
17.209478
33.664250
23.683418
-10.452923
-55.131089
-89.794069
-97.683107
-51.190614
22.592820
68.420987
89.363341
61.887118
-0.962210
-56.787774
-86.380195
-69.319245
-14.876849
32.199225
47.477494
24.042355
-14.756010
-31.703664
-26.082657
11.225885
74.977262
113.784979
106.058633
56.459344
8.189909
-9.118681
7.728660
44.011341
75.512691
94.233097
57.277367
-22.638328
-70.983685
-56.739412
-11.972055
14.840458
10.956952
2.626236
-2.255715
-18.000355
-25.166318
-12.589937
10.239039
20.964952
6.671884
-6.766449
-24.231404
-52.960353
-82.708837
-98.808084
-83.962153
-34.025717
13.902682
38.455587
30.268281
-15.313426
-73.548033
-95.168256
-69.685898
-40.646617
-20.224274
12.406579
50.101363
60.287381
35.598309
1.045297
-20.019364
-47.639297
-76.314920
-74.469265
-34.190694
6.821195
25.459953
19.575640
-16.379535
-71.047879
-121.790229
-128.208713
-73.371941
5.128047
61.128669
66.705990
17.582423
-48.167037
-100.886092
-113.289525
-71.153858
-8.501252
34.002279
42.301374
26.334690
-3.151077
-25.316619
-17.480292
-3.392384
4.236963
19.536021
43.274564
67.117048
71.174407
50.315823
12.869306
-22.312179
-36.379286
-20.727427
20.037713
62.102579
84.011442
74.809723
28.394974
-27.614974
-58.102501
-52.094046
-8.996690
42.905605
68.463283
51.364988
22.265764
-4.811261
-24.661758
-28.426560
-17.992287
0.321389
-3.860084
-20.460964
-31.152819
-38.896037
-21.096346
14.606067
38.493443
59.446341
59.622898
