EVENT_NAME: 202302060117
EVENT_ID: 13194
EVENT_DATE_YYYYMMDD: 2023/02/06
EVENT_TIME_HHMMSS: 01:17:32.00000
EVENT_LATITUDE_DEGREE: 37.288
EVENT_LONGITUDE_DEGREE: 37.043
EVENT_DEPTH_KM: 8.6
HYPOCENTER_REFERENCE: AFAD
MAGNITUDE_W: 7.7
MAGNITUDE_W_REFERENCE: AFAD
MAGNITUDE_L: 
MAGNITUDE_L_REFERENCE: 
FOCAL_MECHANISM: 
NETWORK: TK
STATION_CODE: 0510
STATION_NAME: 
STATION_LATITUDE_DEGREE: 40.881525
STATION_LONGITUDE_DEGREE: 35.203395
STATION_ELEVATION_M: 846.0
LOCATION: Kahramanmaras_Pazarck_Turkiye
SENSOR_DEPTH_M: 
VS30_M/S: 363
SITE_CLASSIFICATION_EC8: B
MORPHOLOGIC_CLASSIFICATION: 
EPICENTRAL_DISTANCE_KM: 429.94
EARTHQUAKE_BACKAZIMUTH_DEGREE: 
DATE_TIME_FIRST_SAMPLE_YYYYMMDD_HHMMSS: 2023/02/06 01:18:06.6613890
DATE_TIME_FIRST_SAMPLE_PRECISION: millisecond
SAMPLING_INTERVAL_S: 0.01
NDATA: 21001
DURATION_S: 
STREAM: HNN
UNITS: cm/s^2
INSTRUMENT: sensor = GMS+/GEOSIG | digitizer = 
INSTRUMENT_ANALOG/DIGITAL: 
INSTRUMENTAL_FREQUENCY_HZ: 
INSTRUMENTAL_DAMPING: 
FULL_SCALE_G: 
N_BIT_DIGITAL_CONVERTER: 
PGA_CM/S^2: 2.924
TIME_PGA_S: 
BASELINE_CORRECTION: BASELINE REMOVED
FILTER_TYPE: BUTTERWORTH
FILTER_ORDER: 
LOW_CUT_FREQUENCY_HZ: 
HIGH_CUT_FREQUENCY_HZ: 
LATE/NORMAL_TRIGGERED: 
DATABASE_VERSION: 
HEADER_FORMAT: DYNA 1.2
DATA_TYPE: Acceleration
PROCESSING: Automatic Paolucci et al., 2011
DATA_TIMESTAMP_YYYYMMDD_HHMMSS: 
DATA_LICENSE: U (unknown license)
DATA_CITATION: Turkish Accelerometric Archive v 1.0 - Disaster And Emergency Management Presidency, Earthquake Department
DATA_CREATOR: AFAD
ORIGINAL_DATA_MEDIATOR_CITATION: : AFAD - Disaster And Emergency Management Presidency
ORIGINAL_DATA_MEDIATOR: AFAD PROCESS SERVICE
ORIGINAL_DATA_CREATOR_CITATION: AFAD PROCESS SERVICE
ORIGINAL_DATA_CREATOR: network: TK
USER1: GuestUser
USER2: 
USER3: 
USER4: 
USER5: 
[...]
1.358406
1.365420
1.368018
1.368277
1.366459
1.357887
1.344119
1.328793
1.311389
1.289828
1.266449
1.241252
1.211119
1.177869
1.143580
1.106953
1.071624
1.039154
1.003565
0.971095
0.945118
0.924337
0.912647
0.905634
0.906673
0.914466
0.927974
0.946158
0.964342
0.983825
1.002009
1.015776
1.021492
1.021751
1.017076
1.005386
0.991359
0.970578
0.943822
0.918884
0.893687
0.866671
0.839396
0.809523
0.779130
0.749516
0.721202
0.696264
0.673924
0.652624
0.633920
0.618075
0.603528
0.588461
0.571836
0.556770
0.545600
0.536509
0.530794
0.526897
0.523001
0.519884
0.510273
0.497804
0.485335
0.469490
0.453124
0.439357
0.433642
0.433123
0.436240
0.446631
0.460139
0.479881
0.501442
0.521185
0.543265
0.563527
0.582231
0.601454
0.620936
0.641978
0.662759
0.681463
0.702244
0.724844
0.743028
0.762251
0.783552
0.805113
0.828752
0.855249
0.887460
0.916554
0.939674
0.962274
0.975522
0.977081
0.972145
0.961235
0.942532
0.914737
0.879669
0.839924
0.799401
0.760955
0.727705
0.697052
0.671855
0.653412
0.635488
0.621720
0.608992
0.593925
0.578340
0.563273
0.547168
0.529244
0.512879
0.495474
0.477550
0.463523
0.449756
0.435728
0.425597
0.417805
0.408453
0.402738
0.395985
0.384295
0.373125
0.358059
0.338317
0.317795
0.294936
0.271816
0.253113
0.236748
0.226098
0.220643
0.214928
0.213110
0.213110
0.210253
0.204278
0.196225
0.181679
0.155702
0.124530
0.085565
0.036729
-0.023278
-0.093415
-0.168488
-0.252133
-0.343051
-0.441763
-0.542813
-0.642823
-0.745431
-0.844662
-0.936360
-1.018447
-1.090662
-1.152747
-1.199245
-1.232755
-1.254575
-1.261329
-1.253796
-1.229897
-1.187035
-1.130146
-1.055852
-0.961036
-0.855570
-0.738934
-0.612168
-0.483323
-0.356556
-0.232386
-0.112114
0.002184
0.111806
0.214415
0.307152
0.392616
0.465611
0.518604
0.558868
0.586663
0.598353
0.600172
0.590041
0.570558
0.544582
0.513669
0.478081
0.438077
0.395475
0.350795
0.301440
0.246889
0.191298
0.134669
0.079079
0.028165
-0.021451
-0.066391
-0.104057
-0.138866
-0.168999
-0.196014
-0.221471
-0.240954
-0.256280
-0.267190
-0.272905
-0.269268
-0.254981
-0.232900
-0.201468
-0.159905
-0.108731
-0.047425
0.019595
0.089992
0.162208
0.231047
0.298067
0.364308
0.426652
0.486659
0.547445
0.605113
0.663042
0.725126
0.784354
0.843321
0.903847
0.961776
1.017106
1.068281
1.118676
1.167512
1.209335
1.244923
1.275057
1.295059
1.302592
1.298176
1.283370
1.259731
1.230897
1.197907
1.159201
1.121795
1.080752
1.039449
0.998146
0.954245
0.915540
0.873977
0.836571
0.804619
0.777344
0.762797
0.752666
0.749289
0.751887
0.762278
0.778644
0.798386
0.827480
0.858133
0.888007
0.920737
0.952170
0.983861
1.011916
1.036335
1.064390
1.086470
1.101277
1.115565
1.124916
1.130112
1.126216
1.116085
1.103096
1.084134
1.056858
1.022569
0.996592
0.958406
0.899699
0.841251
0.782804
0.725915
0.657596
0.577847
0.504853
0.436014
0.371332
0.307170
0.240410
0.177026
0.121176
0.077536
0.047403
0.026621
0.008957
-0.007148
-0.012863
-0.002472
0.020128
0.043247
0.068445
0.105072
0.151051
0.198589
0.240152
0.278078
0.319901
0.363802
0.406404
0.449786
0.494985
0.541744
0.595776
0.650587
0.702021
0.760209
0.821255
0.885937
0.955555
1.027771
1.102064
1.170903
1.235845
1.296891
1.353780
1.404695
1.448076
1.488340
1.523929
1.558738
1.593547
1.626538
1.661087
1.696156
1.734342
1.778243
1.821104
1.862148
1.900074
1.932286
1.955665
1.967355
1.970732
1.961120
1.941898
1.914362
1.877476
1.839030
1.795649
1.747073
1.699795
1.653037
1.607058
1.564716
1.522374
1.478733
1.438469
1.398465
1.361318
1.325211
1.286765
1.248320
1.207796
1.169351
1.127009
1.081030
1.033493
0.981279
0.926209
0.865943
0.805417
0.745670
0.684885
0.622800
0.553962
0.484085
0.417065
0.351863
0.290298
0.233929
0.187690
0.144309
0.104825
0.073912
0.047416
0.029492
0.017024
0.003256
-0.010512
-0.020902
-0.027916
-0.035709
-0.043242
-0.049476
-0.053892
-0.054931
-0.056489
-0.059866
-0.063762
-0.069737
-0.078309
-0.089739
-0.106104
-0.124028
-0.142471
-0.171046
-0.205335
-0.243261
-0.290798
-0.345869
-0.411590
-0.485364
-0.564853
-0.647459
-0.733182
-0.820204
-0.897615
-0.970090
-1.036071
-1.090882
-1.134523
-1.165695
-1.184917
-1.187255
-1.174007
-1.142575
-1.094258
-1.028277
-0.943852
-0.851894
-0.750844
-0.642521
-0.533418
-0.424575
-0.316252
-0.209227
-0.106878
-0.007127
0.094182
0.191595
0.285632
0.378369
0.470587
0.563064
0.653464
0.740746
0.819456
0.894009
0.965705
1.030647
1.094550
1.154297
1.203653
1.244177
1.273791
1.291455
1.301067
1.304184
1.307561
1.309899
1.301587
1.287819
1.273792
1.258466
1.244698
1.233788
1.225735
1.217423
1.213267
1.215085
1.216904
1.222619
1.229633
1.236387
1.246778
1.253272
1.254831
1.254312
1.248337
1.235609
1.216126
1.194306
1.167290
1.137417
1.103907
1.064163
1.026496
0.988051
0.948826
0.912719
0.879209
0.848556
0.818943
0.791148
0.763353
0.738155
0.716595
0.696333
0.675292
0.653991
0.636327
0.616845
0.597102
0.578919
0.559436
0.541253
0.523848
0.505145
0.479169
0.445919
0.407213
0.361234
0.310840
0.252912
0.191866
0.129262
0.061723
-0.003998
-0.065044
-0.125829
-0.187654
-0.246101
-0.301432
-0.354684
-0.403520
-0.444564
-0.477034
-0.502232
-0.521454
-0.539119
-0.549509
-0.551327
-0.552106
-0.549249
-0.546651
-0.545352
-0.544313
-0.547690
-0.555742
-0.567172
-0.579900
-0.593668
-0.607695
-0.618346
-0.626398
-0.628217
-0.624839
-0.617566
-0.599901
-0.570547
-0.532621
-0.486642
-0.432350
-0.375981
-0.318572
-0.256227
-0.195442
-0.137773
-0.083481
-0.034905
0.012893
0.058612
0.102253
0.145635
0.185639
0.222786
0.261232
0.298119
0.328772
0.358126
0.382804
0.398650
0.414496
0.429043
0.439174
0.442551
0.439174
0.432940
0.418134
0.398911
0.376831
0.346698
0.314227
0.282016
0.246688
0.206424
0.162263
0.119142
0.077319
0.035757
-0.004247
-0.046330
-0.088152
-0.130494
-0.173615
-0.211801
-0.251546
-0.288173
-0.316487
-0.341944
-0.362466
-0.381948
-0.400132
-0.416237
-0.435460
-0.454683
-0.474685
-0.493128
-0.510013
-0.524040
-0.531054
-0.534690
-0.530014
-0.513129
-0.486893
-0.448707
-0.397272
-0.339604
-0.273363
-0.198290
-0.120619
-0.039052
0.041996
0.123304
0.199156
0.264098
0.324884
0.373720
0.413205
0.446456
0.466978
0.478148
0.478667
0.470095
0.455029
0.431910
0.402556
0.364890
0.319690
0.270075
0.217342
0.158894
0.096550
0.032647
-0.029697
-0.088924
-0.148930
-0.207637
-0.264267
-0.318298
-0.370511
-0.421426
-0.465586
-0.508967
-0.548452
-0.580143
-0.607938
-0.626641
-0.637292
-0.645085
-0.648462
-0.644825
-0.635213
-0.616510
-0.593130
-0.566634
-0.529227
-0.486106
-0.438048
-0.388952
-0.341155
-0.288422
-0.239845
-0.194905
-0.149965
-0.107363
-0.064761
-0.029952
-0.002156
0.023561
0.043044
0.058110
0.070060
0.077853
0.077593
0.073437
0.065904
0.054215
0.041746
0.025121
0.006418
-0.013324
-0.035664
-0.059043
-0.087618
-0.121387
-0.153079
-0.181134
-0.205811
-0.225034
-0.240360
-0.252829
-0.263999
-0.278026
-0.293352
-0.312055
-0.332837
-0.353878
-0.377257
-0.401675
-0.425314
-0.444276
-0.461940
-0.481942
-0.501685
-0.520128
-0.538312
-0.558314
-0.579095
-0.601175
-0.624554
-0.649751
-0.679365
-0.706640
-0.737552
-0.777557
-0.823016
-0.877567
-0.937313
-1.002255
-1.073172
-1.147205
-1.224097
-1.301507
-1.378658
-1.452952
-1.528284
-1.605175
-1.681028
-1.756620
-1.828316
-1.893777
-1.948328
-1.993268
-2.029895
-2.050157
-2.060547
-2.062625
-2.050416
-2.025218
-1.988851
-1.946508
-1.900529
-1.848576
-1.790387
-1.732199
-1.674790
-1.614264
-1.553219
-1.490355
-1.429569
-1.368783
-1.307218
-1.245133
-1.179672
-1.119146
-1.061477
-1.007445
-0.961726
-0.919903
-0.884834
-0.862234
-0.851064
-0.841972
-0.833399
-0.829503
-0.831321
-0.832360
-0.835997
-0.845868
-0.856518
-0.869246
-0.880676
-0.889768
-0.902496
-0.914965
-0.923797
-0.930031
-0.934447
-0.936525
-0.935226
-0.934187
-0.935745
-0.938343
-0.944317
-0.952890
-0.965878
-0.986140
-1.012116
-1.044068
-1.084072
-1.130570
-1.185121
-1.246166
-1.309030
-1.375790
-1.443330
-1.510610
-1.577630
-1.641532
-1.700240
-1.751154
-1.800510
-1.844670
-1.880778
-1.914548
-1.940264
-1.960526
-1.979749
-1.994036
-2.000530
-2.002868
-2.003907
-1.997153
-1.988320
-1.975592
-1.959226
-1.943120
-1.917663
-1.885192
-1.845187
-1.802585
-1.755567
-1.695561
-1.632177
-1.566456
-1.496058
-1.421765
-1.340717
-1.259929
-1.175244
-1.085105
-1.000160
-0.917814
-0.835467
-0.758836
-0.687659
-0.622457
-0.561931
-0.503743
-0.449971
-0.399836
-0.347362
-0.295928
-0.246832
-0.201632
-0.164225
-0.125520
-0.089412
-0.059798
-0.034341
-0.017975
-0.003688
0.005404
0.003846
-0.004986
-0.021092
-0.042912
-0.076422
-0.118504
-0.167081
-0.228905
-0.294367
-0.364504
-0.441395
-0.515948
-0.591800
-0.671289
-0.750518
-0.828708
-0.903781
-0.975217
-1.042757
-1.107439
-1.167445
-1.223814
-1.275508
-1.321747
-1.364608
-1.400716
-1.435265
-1.463839
-1.478386
-1.486439
-1.491114
-1.485919
-1.476047
-1.465137
-1.437082
-1.399415
-1.358632
-1.312912
-1.257582
-1.189263
-1.122242
-1.051585
-0.974954
-0.890529
-0.801428
-0.713367
-0.619850
-0.531529
-0.443727
-0.346314
-0.253317
-0.159541
-0.059530
0.030090
0.126984
0.229073
0.312458
0.392207
0.465722
0.521832
0.569110
0.597944
0.610933
0.614829
0.582358
0.519754
0.450397
0.363115
0.258948
0.144650
0.015805
-0.121871
-0.265263
-0.409954
-0.540357
-0.662448
-0.791552
-0.917280
-1.027681
-1.119899
-1.201206
-1.285890
-1.365379
-1.426944
-1.473702
-1.507731
-1.524876
-1.534747
-1.535526
-1.520979
-1.499158
-1.462011
-1.422267
-1.386938
-1.336803
-1.277316
-1.211594
-1.147951
-1.092620
-1.030016
-0.968191
-0.908185
-0.843502
-0.780378
-0.717514
-0.650234
-0.587111
-0.533598
-0.477488
-0.426833
-0.376179
-0.316432
-0.256945
-0.199796
-0.158752
-0.118488
-0.064196
-0.006788
0.044647
0.081794
0.115564
0.152191
0.185182
0.213756
0.242591
0.264152
0.268048
0.263113
0.247267
0.220511
0.190638
0.151153
0.097901
0.034258
-0.038996
-0.117446
-0.198234
-0.282918
-0.372018
-0.467353
-0.566064
-0.662698
-0.756994
-0.848951
-0.942208
-1.030009
-1.110018
-1.184571
-1.245097
-1.296271
-1.338353
-1.369265
-1.393424
-1.409529
-1.417062
-1.414724
-1.403814
-1.383552
-1.353159
-1.315232
-1.268994
-1.215481
-1.157813
-1.097546
-1.036760
-0.980391
-0.928177
-0.879341
-0.836739
-0.801410
-0.773874
-0.751015
-0.735688
-0.730233
-0.732571
-0.748157
-0.771795
-0.804786
-0.846348
-0.895444
-0.958048
-1.031563
-1.112090
-1.199892
-1.290810
-1.381729
-1.471868
-1.556293
-1.636821
-1.713972
-1.783849
-1.850090
-1.911395
-1.968024
-2.016860
-2.056605
-2.093751
-2.123625
-2.147523
-2.166226
-2.179474
-2.190125
-2.194800
-2.196618
-2.191942
-2.179214
-2.162588
-2.143885
-2.121025
-2.092970
-2.065435
-2.038159
-2.010883
-1.986205
-1.960748
-1.935030
-1.911391
-1.885414
-1.860217
-1.832421
-1.793456
-1.752413
-1.706953
-1.659156
-1.609540
-1.551871
-1.496541
-1.440690
-1.381983
-1.325873
-1.268204
-1.208977
-1.152087
-1.098835
-1.051037
-1.005058
-0.961677
-0.921672
-0.879070
-0.843222
-0.816466
-0.793087
-0.781657
-0.781397
-0.788930
-0.805815
-0.829713
-0.862444
-0.907643
-0.961415
-1.020642
-1.085064
-1.152344
-1.219104
-1.286124
-1.353404
-1.420424
-1.484327
-1.541995
-1.593949
-1.640187
-1.680191
-1.708506
-1.728768
-1.741236
-1.741756
-1.737859
-1.727988
-1.712142
-1.697595
-1.680450
-1.663565
-1.646420
-1.624859
-1.609792
-1.595245
-1.577841
-1.567190
-1.560176
-1.557578
-1.555240
-1.556019
-1.564072
-1.573423
-1.587711
-1.604855
-1.622779
-1.643041
-1.662523
-1.681486
-1.702527
-1.722789
-1.735258
-1.743830
-1.745908
-1.738115
-1.721489
-1.697071
-1.669016
-1.634207
-1.597839
-1.560432
-1.516272
-1.476267
-1.436263
-1.394960
-1.355994
-1.317548
-1.284818
-1.255983
-1.234422
-1.217277
-1.202471
-1.195197
-1.187404
-1.177273
-1.169220
-1.160128
-1.149217
-1.135969
-1.120383
-1.105316
-1.085054
-1.060376
-1.032061
-0.993615
-0.950494
-0.901657
-0.839313
-0.768656
-0.696180
-0.619289
-0.535903
-0.451219
-0.366015
-0.280811
-0.197944
-0.116637
-0.037667
0.039224
0.110920
0.176382
0.236388
0.289381
0.335620
0.376404
0.406277
0.423162
0.432514
0.436670
0.439788
0.441347
0.435892
0.423683
0.407577
0.393550
0.380562
0.369652
0.363417
0.354326
0.349390
0.346273
0.342636
0.346014
0.357184
0.378485
0.406020
0.441868
0.486029
0.537204
0.601886
0.676440
0.754890
0.835418
0.918803
1.006086
1.095186
1.182728
1.265334
1.344564
1.420936
1.490034
1.552379
1.605891
1.643298
1.669794
1.688238
1.699668
1.710838
1.716293
1.716293
1.712657
1.703045
1.691616
1.675510
1.656807
1.635766
1.604594
1.564590
1.514195
1.455488
1.392884
1.321708
1.240920
1.153119
1.054926
0.947123
0.834903
0.722164
0.605009
0.480061
0.352255
0.223670
0.097163
-0.027006
-0.147538
-0.263394
-0.375874
-0.478742
-0.573557
-0.657981
-0.727079
-0.782929
-0.821634
-0.841377
-0.842935
-0.826050
-0.790462
-0.735131
-0.664734
-0.577711
-0.472765
-0.355350
-0.224686
-0.082333
0.071190
0.233805
0.404732
0.583193
0.766849
0.956220
1.145850
1.333923
1.523553
1.710327
1.891125
2.063352
2.223888
2.371437
2.501840
2.614839
2.709915
2.792001
2.856164
2.896428
2.920587
2.924484
2.909157
2.879025
2.827591
2.759791
2.679004
2.582370
2.474567
2.359230
2.237918
2.111412
1.983866
1.857878
1.733969
1.617334
1.504335
1.403025
1.313405
1.228981
1.155467
1.089746
1.035195
0.991814
0.956485
0.927651
0.904012
0.889725
0.882192
0.882712
0.890245
0.906091
0.930510
0.960383
1.002466
1.053640
1.109750
1.172874
1.239894
1.310032
1.382247
1.454982
1.524860
1.592400
1.660719
1.725661
1.785927
1.840998
1.891134
1.938412
1.979975
2.017381
2.051411
2.082843
2.108041
2.129342
2.149604
2.166229
2.186491
2.201818
2.211429
2.221560
2.227276
2.229614
2.229094
2.225717
2.214807
2.196883
2.172985
2.140514
2.103108
2.056350
1.999980
1.940234
1.877370
1.812688
1.744629
1.675790
1.610069
1.541750
1.473172
1.405113
1.336015
1.270294
1.204572
1.139631
1.076507
1.014163
0.953377
0.891553
0.831287
0.770761
0.707897
0.646852
0.586846
0.526320
0.465275
0.405268
0.343704
0.283697
0.229406
0.176673
0.129915
0.090171
0.056141
0.030165
0.011981
0.003149
0.000811
0.002890
0.009124
0.019255
0.032244
0.049129
0.071209
0.094069
0.119786
0.147322
0.176156
0.208108
0.234345
0.256425
0.280064
0.301885
0.322147
0.340590
0.356436
0.367607
0.373322
0.376699
0.376439
0.373842
0.369166
0.361373
0.353580
0.347346
0.340332
0.332020
0.322149
0.308901
0.297991
0.286041
0.274092
0.266299
0.262143
0.266040
0.276171
0.292277
0.316435
0.351244
0.392028
0.437747
0.489701
0.546590
0.612052
0.677514
0.745833
0.816230
0.882991
0.950011
1.013394
1.075739
1.133667
1.187439
1.237575
1.282515
1.330052
1.370576
1.402528
1.434739
1.461496
1.485914
1.509813
1.533711
1.561247
1.592419
1.626709
1.663077
1.706718
1.749839
1.786467
1.824653
1.860241
1.889335
1.912974
1.927262
1.936354
1.939211
1.932457
1.919469
1.897389
1.871153
1.839981
1.800236
1.754777
1.705941
1.656066
1.602813
1.549041
1.495010
1.435523
1.370581
1.300444
1.226151
1.145363
1.058601
0.968461
0.875984
0.784026
0.686094
0.588421
0.496204
0.404766
0.318003
0.237995
0.167338
0.106033
0.054859
0.018232
-0.008264
-0.022551
-0.025149
-0.019953
-0.005146
0.013817
0.034598
0.056679
0.078500
0.093047
0.101359
0.107854
0.104996
0.095645
0.079280
0.056161
0.027846
-0.011119
-0.056578
-0.109051
-0.166200
-0.228025
-0.297123
-0.372975
-0.455321
-0.538966
-0.627807
-0.716907
-0.804449
-0.895367
-0.984727
-1.069671
-1.149939
-1.227090
-1.299306
-1.361130
-1.416201
-1.462180
-1.497768
-1.529719
-1.547383
-1.552059
-1.552838
-1.539330
-1.513873
-1.479063
-1.431786
-1.377234
-1.315669
-1.243194
-1.162925
-1.081358
-0.993816
-0.902378
-0.813537
-0.726774
-0.642869
-0.562600
-0.484930
-0.413234
-0.350629
-0.291142
-0.237630
-0.194508
-0.158401
-0.128527
-0.103589
-0.084107
-0.066962
-0.048778
-0.031893
-0.016566
0.002137
0.023179
0.046818
0.074353
0.101629
0.131762
0.164753
0.199302
0.236709
0.269699
0.299313
0.328407
0.359580
0.392570
0.416989
0.436731
0.455694
0.467124
0.466345
0.454915
0.436472
0.409716
0.371011
0.325292
0.274897
0.219307
0.162418
0.102412
0.042405
-0.010068
-0.062021
-0.113455
-0.158135
-0.200737
-0.243598
-0.284122
-0.323347
-0.359454
-0.392185
-0.425695
-0.459984
-0.494273
-0.531680
-0.569086
-0.604934
-0.646497
-0.690397
-0.736636
-0.787550
-0.839504
-0.894574
-0.953282
-1.010171
-1.067839
-1.123689
-1.173045
-1.216686
-1.255391
-1.292018
-1.322671
-1.343971
-1.356960
-1.360077
-1.353323
-1.335139
-1.302148
-1.257987
-1.204475
-1.135636
-1.049913
-0.955357
-0.848333
-0.725982
-0.596617
-0.457381
-0.310612
-0.160986
-0.004605
0.152814
0.306337
0.457003
0.602213
0.738591
0.862501
0.978357
1.079407
1.169807
1.260466
1.330344
1.377621
1.422561
1.468281
1.508285
1.532703
1.544393
1.554005
1.568812
1.580761
1.581800
1.569332
1.542316
1.510105
1.475556
1.436071
1.396327
1.349569
1.288783
1.227998
1.174226
1.117077
1.050836
0.982518
0.921992
0.867960
0.812110
0.749247
0.690020
0.638066
0.586892
0.541173
0.495454
0.451034
0.413108
0.379079
0.352582
0.334659
0.329723
0.329723
0.334399
0.350245
0.376742
0.412330
0.455971
0.515198
0.587154
0.670280
0.760420
0.851598
0.954467
1.067206
1.185141
1.311648
1.438415
1.564662
1.690910
1.812221
1.933014
2.050429
2.159791
2.259802
2.346305
2.416183
2.469955
2.513856
2.545548
2.565550
2.575161
2.569447
2.552822
2.520611
2.474112
2.422159
2.361373
2.289418
2.212007
2.128102
2.037963
1.947044
1.853528
1.763648
1.678964
1.598696
1.529858
1.467254
1.413222
1.370361
1.331915
1.300224
1.277364
1.259960
1.248530
1.238919
1.229308
1.223333
1.217878
1.208267
1.196837
1.183849
1.168523
1.149300
1.124363
1.093710
1.054485
1.006169
0.947981
0.881480
0.811603
0.736790
0.656522
0.574175
0.487153
0.396235
0.307134
0.214917
0.120881
0.029703
-0.059397
-0.146939
-0.233961
-0.314749
-0.389562
-0.458920
-0.517367
-0.566463
-0.605688
-0.631665
-0.647511
-0.654264
-0.652446
-0.644912
-0.629846
-0.609584
-0.582828
-0.548538
-0.512950
-0.472945
-0.429564
-0.386442
-0.339944
-0.293705
-0.249025
-0.206942
-0.173432
-0.144078
-0.120439
-0.106151
-0.098358
-0.099397
-0.106930
-0.122256
-0.143038
-0.166676
-0.195770
-0.226163
-0.256036
-0.284091
-0.310327
-0.333966
-0.353449
-0.367995
-0.376048
-0.379425
-0.377606
-0.371372
-0.365657
-0.353448
-0.336563
-0.322275
-0.312144
-0.307468
-0.303831
-0.304870
-0.310845
-0.319417
-0.332405
-0.345653
-0.361239
-0.377604
-0.394489
-0.413971
-0.430337
-0.447481
-0.462548
-0.473717
-0.485926
-0.495278
-0.502811
-0.512682
-0.520475
-0.527489
-0.536321
-0.547490
-0.560219
-0.572688
-0.586195
-0.601781
-0.618926
-0.636330
-0.653994
-0.670879
-0.686465
-0.701272
-0.714779
-0.728027
-0.741016
-0.754783
