EVENT_NAME: 202302060117
EVENT_ID: 13194
EVENT_DATE_YYYYMMDD: 2023/02/06
EVENT_TIME_HHMMSS: 01:17:32.00000
EVENT_LATITUDE_DEGREE: 37.288
EVENT_LONGITUDE_DEGREE: 37.043
EVENT_DEPTH_KM: 8.6
HYPOCENTER_REFERENCE: AFAD
MAGNITUDE_W: 7.7
MAGNITUDE_W_REFERENCE: AFAD
MAGNITUDE_L: 
MAGNITUDE_L_REFERENCE: 
FOCAL_MECHANISM: 
NETWORK: TK
STATION_CODE: 3305
STATION_NAME: 
STATION_LATITUDE_DEGREE: 36.92142
STATION_LONGITUDE_DEGREE: 34.89897
STATION_ELEVATION_M: 15.0
LOCATION: Kahramanmaras_Pazarck_Turkiye
SENSOR_DEPTH_M: 
VS30_M/S: 362
SITE_CLASSIFICATION_EC8: B
MORPHOLOGIC_CLASSIFICATION: 
EPICENTRAL_DISTANCE_KM: 194.45
EARTHQUAKE_BACKAZIMUTH_DEGREE: 
DATE_TIME_FIRST_SAMPLE_YYYYMMDD_HHMMSS: 2023/02/06 01:17:45.5351020
DATE_TIME_FIRST_SAMPLE_PRECISION: millisecond
SAMPLING_INTERVAL_S: 0.01
NDATA: 13501
DURATION_S: 
STREAM: HNN
UNITS: cm/s^2
INSTRUMENT: sensor = CMG-5T/GURALP | digitizer = 
INSTRUMENT_ANALOG/DIGITAL: 
INSTRUMENTAL_FREQUENCY_HZ: 
INSTRUMENTAL_DAMPING: 
FULL_SCALE_G: 
N_BIT_DIGITAL_CONVERTER: 
PGA_CM/S^2: 19.645
TIME_PGA_S: 
BASELINE_CORRECTION: BASELINE REMOVED
FILTER_TYPE: BUTTERWORTH
FILTER_ORDER: 
LOW_CUT_FREQUENCY_HZ: 
HIGH_CUT_FREQUENCY_HZ: 
LATE/NORMAL_TRIGGERED: 
DATABASE_VERSION: 
HEADER_FORMAT: DYNA 1.2
DATA_TYPE: Acceleration
PROCESSING: Automatic Paolucci et al., 2011
DATA_TIMESTAMP_YYYYMMDD_HHMMSS: 
DATA_LICENSE: U (unknown license)
DATA_CITATION: Turkish Accelerometric Archive v 1.0 - Disaster And Emergency Management Presidency, Earthquake Department
DATA_CREATOR: AFAD
ORIGINAL_DATA_MEDIATOR_CITATION: : AFAD - Disaster And Emergency Management Presidency
ORIGINAL_DATA_MEDIATOR: AFAD PROCESS SERVICE
ORIGINAL_DATA_CREATOR_CITATION: AFAD PROCESS SERVICE
ORIGINAL_DATA_CREATOR: network: TK
USER1: GuestUser
USER2: 
USER3: 
USER4: 
USER5: 
[...]
-7.818771
-7.514098
-7.249840
-6.061625
-4.373815
-2.805385
-1.896969
-1.206484
0.327748
2.262092
3.890834
4.271985
3.809389
3.213732
2.715073
2.072472
0.593585
-0.860431
-1.745834
-2.163663
-2.585845
-2.993725
-2.300443
-0.445686
1.888459
3.435127
4.058460
4.565209
5.690003
6.969308
7.070661
6.218833
5.276848
5.233950
5.256026
4.184712
2.393072
0.734181
-0.276199
-1.538397
-3.009823
-4.626744
-6.141694
-7.683692
-9.100712
-9.864870
-9.523512
-8.266591
-7.789997
-7.836005
-7.890717
-6.745094
-4.965883
-4.076431
-4.029172
-4.911778
-5.257481
-5.035193
-4.893114
-5.905048
-7.723424
-9.493613
-11.455619
-13.083110
-14.309868
-14.640026
-14.280015
-13.813370
-13.760205
-14.779600
-16.222735
-17.059951
-16.593306
-14.737305
-12.335698
-9.693463
-7.526264
-6.142191
-5.306522
-5.216983
-4.919149
-4.613233
-4.551984
-5.033545
-5.995427
-6.900105
-7.403428
-6.769836
-5.880695
-5.013316
-4.620040
-4.870301
-5.527202
-6.368148
-6.732815
-6.772605
-6.710424
-7.077268
-7.887125
-8.683926
-9.065692
-8.809828
-8.289088
-7.744099
-7.085326
-6.470387
-5.561971
-4.679669
-3.637571
-2.027794
-0.400606
0.625947
0.201901
-0.816873
-1.575124
-1.244647
-0.149388
0.479541
0.544831
0.004201
-0.519018
-1.552715
-2.927144
-4.187166
-5.147183
-5.784809
-6.524406
-7.097057
-7.099851
-6.210710
-4.781247
-3.894593
-4.214803
-5.332128
-5.953899
-5.149009
-3.731359
-2.764496
-3.040249
-3.488545
-3.551341
-3.571856
-4.067407
-4.970220
-5.085866
-4.468130
-3.149031
-2.081130
-2.344448
-4.152254
-7.161017
-9.954025
-11.729809
-11.994060
-11.216216
-10.286660
-9.860119
-9.706226
-9.281861
-8.668166
-8.138411
-7.883791
-7.414969
-5.819803
-3.277052
-1.278043
-0.699479
-1.089949
-1.735970
-2.625104
-3.170707
-3.098267
-2.660223
-2.618561
-3.775058
-5.465037
-6.649514
-6.726922
-6.781945
-7.552009
-8.606846
-9.004467
-8.468805
-7.945578
-7.590541
-7.110839
-5.755988
-3.648480
-1.798386
-0.890281
-0.565089
-0.180518
-0.151291
-0.640935
-1.588516
-2.684079
-3.653111
-4.536027
-5.182047
-5.260698
-4.581095
-3.565423
-2.782916
-2.194092
-1.501121
-1.007428
-0.878406
-1.113123
-1.427737
-1.914894
-2.508996
-2.963198
-3.467454
-4.013990
-5.275878
-6.993837
-8.492311
-8.769929
-7.880788
-6.879727
-6.023851
-5.196577
-3.967636
-3.087510
-3.081289
-3.719848
-4.139853
-3.317552
-1.106519
1.380894
3.112851
4.300133
5.303370
6.347022
7.585600
8.325826
7.367675
4.974469
2.413072
0.544332
-0.908751
-1.838611
-1.699019
-0.621170
1.158042
2.609578
3.224828
3.017158
2.960891
3.017476
2.468142
1.374755
0.323649
0.240646
0.620864
1.131345
1.796958
3.425078
6.024410
8.300731
9.231220
8.997747
8.180739
7.210152
6.645585
6.631909
7.149851
7.836916
8.330919
8.455588
8.326885
8.145641
7.992688
7.479728
6.645932
5.986232
5.127876
4.037287
2.628039
1.796730
2.120367
2.927745
2.864949
1.578190
0.163346
-0.777395
-1.325486
-2.172339
-3.192979
-4.237556
-4.768548
-4.548126
-3.728001
-2.519268
-0.917573
0.909826
2.048299
2.133796
1.482491
0.960204
0.907668
0.779896
-0.075973
-0.990910
-1.367702
-1.460965
-1.727702
-2.249679
-2.445845
-2.602528
-2.393609
-2.138988
-2.143648
-2.458573
-2.875780
-2.893186
-2.682712
-2.401977
-1.911083
-0.851265
0.251456
0.899971
0.718105
0.044105
-0.833526
-1.791055
-2.657184
-3.307245
-3.189415
-2.250532
-1.264394
-1.021277
-1.017232
-0.538151
0.246221
0.101352
-1.341473
-3.614677
-6.148405
-7.983258
-8.767623
-8.406679
-7.574430
-6.538239
-5.800500
-5.399763
-5.209807
-5.284727
-5.068657
-4.275580
-2.616682
-1.186597
-1.072187
-1.998938
-2.384746
-1.972506
-1.927734
-2.838320
-3.965593
-4.228289
-4.079060
-4.568082
-5.711211
-6.182512
-5.597108
-4.532627
-3.786804
-3.174042
-1.820435
0.731020
3.585902
4.813599
4.154833
2.957609
3.036578
4.401999
5.996543
7.135327
8.091309
9.166982
9.922131
10.188565
9.661926
8.738283
7.743136
7.078463
6.633276
6.318351
6.027364
5.113359
3.123062
0.615138
-0.824266
-0.817112
-0.047041
0.707797
1.788445
3.425270
5.309872
6.331762
5.940048
4.982829
4.151209
3.771309
3.542189
3.732144
4.665431
6.378113
7.683843
7.700945
7.416176
7.860749
8.535067
7.658368
5.040390
2.252978
1.011920
1.024670
1.286752
1.325305
1.181990
0.756389
-0.363735
-1.821792
-2.332577
-0.987364
1.063874
1.970114
1.004502
-0.643508
-1.464558
-1.319681
-1.499992
-2.026320
-1.857816
-0.602760
1.696876
3.701170
4.628240
4.210100
3.515581
2.863654
1.630057
-0.022616
-1.526063
-2.293640
-3.359980
-4.830473
-5.772147
-4.846943
-2.342743
0.186951
2.086787
3.442880
5.203128
7.197784
8.093143
6.981103
4.931427
3.427979
2.495943
1.470640
0.466167
0.555395
2.262481
4.684918
6.614288
7.929656
8.852995
9.617159
9.481616
8.165012
6.253369
4.948890
4.908167
5.527769
6.346961
6.995164
7.691866
8.065246
7.596742
6.334232
4.894828
3.758849
2.765257
2.008250
1.386169
1.044818
1.125030
1.280167
1.153017
0.705033
0.105645
-0.338298
-0.330211
0.089801
0.524114
0.523496
-0.198070
-1.498197
-2.398523
-2.453235
-1.925967
-1.286779
-0.759822
-0.364059
-0.016483
0.584155
1.362620
2.465341
3.670965
4.878455
5.661895
5.863042
5.684907
5.079613
4.344058
3.137508
1.439134
-0.407843
-1.645171
-1.913152
-2.004550
-2.602071
-3.509237
-3.959398
-3.514826
-2.364850
-0.661495
1.576275
4.025138
6.276276
7.413194
7.014951
5.708917
4.662474
4.441126
4.711913
4.717201
4.058435
3.348994
2.356023
0.652054
-1.935457
-4.862458
-7.351417
-9.308760
-10.528678
-10.959253
-10.942462
-10.769916
-9.953211
-8.318563
-6.146390
-4.234429
-3.333474
-3.676069
-4.638261
-5.467394
-5.816517
-5.504693
-4.502389
-2.480996
-0.000734
2.527094
4.440609
5.467784
5.387578
4.154292
2.335605
0.145097
-1.838049
-3.430721
-4.182443
-3.903574
-3.071636
-2.412240
-2.066219
-1.960514
-1.846725
-1.142251
-0.200259
0.659969
0.809199
0.459143
0.666198
1.729436
2.973300
3.707619
3.928352
4.276550
5.010247
5.667156
6.410802
6.939003
6.774547
6.074743
5.189029
4.702183
4.961778
5.709776
6.371348
6.722032
7.246192
7.793357
7.808905
7.402890
6.762155
5.985873
5.125651
4.496730
4.280667
4.489276
4.703791
4.423686
4.379232
4.996347
6.411820
7.486250
7.913102
8.172386
8.267521
8.168662
6.887810
5.116067
4.046930
4.960009
7.412913
9.241245
9.125909
7.348881
4.974328
1.732710
-2.141253
-5.971691
-7.989346
-7.114506
-4.444291
-1.708169
-0.075696
1.862379
4.479431
7.044566
8.122105
7.647383
7.038670
6.738045
6.706027
6.002182
4.449615
2.929380
2.731348
3.091670
2.907939
1.912793
0.788006
0.317948
0.339403
0.592158
0.569778
0.578175
1.131247
1.744009
1.783185
1.231364
1.538213
2.832440
3.605931
3.022399
1.799994
1.334600
1.490047
1.600105
1.335543
1.560629
2.945014
4.648990
5.784354
5.335748
3.694577
1.680653
-0.274513
-1.632465
-2.656835
-3.077462
-2.662113
-1.697116
-0.766937
-0.501436
-1.203416
-2.953708
-5.117479
-6.294806
-6.758957
-6.474492
-5.766287
-4.704603
-2.969538
-1.253126
0.151467
0.613760
0.735320
0.662887
-0.030699
-1.758607
-4.511821
-6.382737
-6.634863
-5.732043
-5.269750
-4.967253
-4.447135
-3.899348
-3.874473
-4.944233
-6.083320
-7.336503
-8.606785
-10.321636
-11.409116
-11.199263
-9.693632
-7.433478
-5.169283
-2.828920
-1.463810
-1.104421
-1.843707
-2.964763
-3.643116
-3.669848
-3.032837
-2.040170
-0.756824
0.155012
0.913581
1.702616
2.820881
3.546185
3.141413
1.238165
-1.232453
-3.236118
-4.207326
-4.536552
-5.221433
-6.649645
-8.565329
-9.537781
-9.451973
-7.577008
-4.778086
-1.999061
-0.191870
0.623591
1.688694
3.035772
4.189479
3.686156
2.368930
1.586119
2.021054
3.539120
5.553674
7.518174
8.559961
8.506492
7.555802
6.387180
5.304364
4.114602
2.688876
1.746580
1.511553
1.834569
2.316137
2.509512
2.068988
1.241721
1.171153
1.702463
2.468182
2.346629
1.786103
2.074920
3.675683
5.613446
5.955737
4.826598
3.862851
4.495199
5.770773
6.238973
5.208696
3.263789
1.169656
-0.801366
-2.287714
-2.757150
-2.022831
-0.607358
0.904491
2.455822
4.238764
5.430709
5.095576
2.868073
-0.328467
-2.909760
-4.028018
-4.169468
-4.276721
-4.565531
-4.775066
-4.651329
-4.604381
-4.566450
-4.886971
-5.013498
-4.696701
-4.434930
-4.046939
-3.332827
-1.838389
0.241762
2.896121
5.600533
8.238726
10.188303
11.236308
11.063458
9.610686
7.815937
6.229483
5.990103
6.434986
7.130756
7.674501
7.849845
7.619481
6.505265
4.685956
2.015438
-0.718812
-3.722290
-6.465556
-8.956070
-10.731544
-10.999214
-9.761258
-7.633231
-6.499110
-5.956919
-6.054534
-6.112667
-5.647265
-4.918852
-3.773851
-2.961499
-2.230288
-1.526125
-1.145285
-1.210256
-1.500932
-1.823941
-2.486127
-4.000145
-6.346407
-8.617435
-10.627318
-12.622278
-14.430084
-15.134862
-13.267047
-9.929669
-6.973127
-4.713595
-3.588801
-3.523822
-4.401142
-5.423025
-5.628518
-4.941454
-3.731788
-2.833942
-1.947288
-0.565079
1.036616
1.707514
1.150718
0.368530
-0.152203
-0.767756
-1.801142
-2.789760
-3.204480
-2.634931
-1.815118
-1.458837
-1.850552
-2.364445
-2.830150
-3.323836
-3.676067
-3.883425
-4.534731
-5.775167
-6.783060
-6.721812
-5.582717
-4.514816
-4.647250
-5.550063
-6.369870
-6.359296
-6.087266
-6.403746
-7.238785
-8.243880
-8.325018
-7.412560
-6.298648
-5.468886
-4.917679
-4.424919
-3.585831
-2.850890
-2.039781
-1.495725
-1.351470
-1.612301
-2.368686
-3.383418
-4.289651
-5.026761
-5.141475
-4.689441
-4.765294
-5.599712
-6.752479
-7.470935
-6.948330
-5.738353
-4.708380
-4.236761
-4.079137
-4.348673
-5.089514
-5.399465
-4.540169
-2.220946
0.414138
2.197391
3.165808
3.978782
4.484288
4.709685
4.152579
2.990797
1.928188
0.862470
0.323084
0.273656
-0.020129
-1.286991
-4.323112
-7.789812
-9.872443
-10.047780
-9.504967
-8.945988
-8.345350
-7.608855
-6.242501
-4.875837
-3.193312
-1.347571
0.457445
2.650758
4.660026
7.054483
8.981366
9.781904
8.984171
7.517098
6.427752
4.384605
1.542788
-1.322967
-2.728485
-3.032840
-2.946099
-3.429836
-4.327364
-4.413787
-3.494490
-1.750409
-0.452451
-0.153063
-1.180852
-2.391444
-3.532397
-3.647110
-1.896190
0.645006
2.904228
3.785908
4.175453
4.092450
4.252871
4.633712
5.303366
6.482876
7.630676
9.044284
10.783080
12.612033
13.598793
13.620870
12.954642
10.831907
7.281578
2.980767
-1.153719
-4.900840
-8.141525
-10.523229
-12.219115
-13.121307
-13.092702
-11.777956
-10.051284
-9.362354
-8.409481
-7.299299
-6.226735
-5.314588
-3.852170
-0.818218
3.079690
8.063839
12.011178
14.028218
14.285325
13.389663
11.498850
8.819938
6.844564
5.810867
5.688381
4.945986
2.839107
-0.207585
-3.311480
-5.207889
-6.115365
-6.175363
-5.562600
-4.563405
-3.471876
-3.048755
-3.491144
-4.572096
-5.496360
-5.259149
-3.786784
-0.858533
1.837796
3.969243
5.555082
5.776749
4.357863
1.392313
-1.601839
-3.753176
-4.172248
-3.653995
-2.720086
-2.162662
-1.649694
-1.848348
-2.927123
-4.372434
-6.344078
-7.329587
-8.026282
-7.838191
-7.273305
-5.963534
-2.858388
0.733296
4.744678
7.851689
10.340034
12.648065
14.670390
15.616735
14.254120
10.646898
6.274272
3.300328
1.947350
1.319051
1.184440
1.974408
3.902535
6.414197
8.604401
9.967024
10.045993
9.237689
8.265237
7.702846
8.041095
9.319778
10.182494
10.466648
10.453594
10.595673
11.132890
11.161806
9.965827
6.826180
3.331189
0.762952
-0.649094
-0.041928
1.895836
4.573512
7.149838
9.773109
11.272211
10.748991
8.459310
4.872607
1.889026
-0.071737
-0.597133
-0.020122
1.351516
3.306379
4.879783
5.781670
5.997430
5.860021
5.618465
4.352225
1.797668
-0.905804
-2.179817
-2.292044
-1.706639
-0.614489
0.782953
2.703929
4.271737
4.885743
4.644498
4.516727
5.016948
5.967645
7.084045
7.621573
8.067389
8.880052
9.748053
10.376670
10.891814
11.778779
12.817457
14.158628
15.127046
15.183942
13.432095
10.116486
5.781167
1.642950
-0.672846
-1.552031
-1.166217
-0.792527
-0.833871
-0.880501
-1.331905
-1.547657
-1.932843
-2.206731
-2.376783
-2.675231
-3.439389
-4.277848
-3.998046
-2.285675
0.817916
3.835081
6.278036
8.364094
10.562692
12.579732
13.946396
13.928679
12.667724
10.532243
7.784314
5.323956
3.336457
1.968557
0.518893
-1.519902
-3.942643
-6.741869
-8.801804
-10.274474
-10.650955
-9.199107
-6.525784
-3.171618
-0.710009
1.188583
2.220733
2.328303
2.152656
1.376685
0.389621
-1.079939
-1.383362
-0.041880
2.486570
5.329638
7.711660
10.241975
11.617344
10.706137
7.631154
3.873774
0.777030
-2.126965
-5.176454
-7.948633
-9.861208
-10.041208
-8.796101
-6.646933
-4.465123
-2.891719
-1.782469
-1.462874
-1.421211
-1.325765
-1.306487
-0.997150
0.427028
2.580237
4.526084
5.444138
5.324139
4.137486
2.155272
0.464360
-0.528611
-0.519902
-0.608813
-1.996921
-4.154164
-5.975649
-6.567575
-6.708092
-6.317925
-5.252511
-3.708019
-1.206306
1.480697
3.586651
4.670096
5.333844
5.648466
4.916019
4.021600
3.005935
2.164988
1.023103
-0.422519
-1.887727
-2.488980
-2.058708
-2.113732
-2.741720
-3.987131
-4.806005
-4.545478
-3.609082
-3.314979
-4.480491
-6.131299
-7.118674
-7.310177
-6.811199
-6.027449
-5.557694
-6.442165
-8.582620
-10.300891
-10.838411
-10.195493
-9.070077
-7.810669
-6.107314
-4.375669
-2.411168
-1.132796
-0.275366
0.684347
1.227160
1.556082
1.224369
0.525809
-1.197436
-3.354990
-5.278757
-7.388123
-9.983096
-13.642235
-17.166761
-19.398617
-19.644836
-18.948134
-18.505427
-17.388094
-14.588240
-11.129616
-7.612544
-4.491233
-1.624227
1.481230
3.933823
5.916666
7.314108
8.799531
10.301431
10.234904
8.319532
4.641739
1.203640
-1.853311
-4.101955
-5.624366
-6.085720
-5.478242
-4.753560
-3.567833
-2.058782
-0.557504
-0.457084
-1.717728
-2.900029
-2.843444
-1.635021
-1.190449
-1.332210
-0.750847
0.752918
2.645292
3.514848
3.748017
3.977766
5.162872
5.758225
4.705253
3.149577
2.337232
3.154869
4.981957
7.403773
9.689108
12.008953
13.682152
13.627128
12.542446
10.497433
8.943001
6.816224
4.822197
3.901663
3.961357
4.916096
5.044496
4.289043
2.793990
2.036672
1.856050
2.408190
4.186157
6.564449
8.490399
8.974765
8.263147
5.784447
2.195257
-1.396420
-4.333058
-5.644377
-5.639399
-4.167966
-2.425439
-1.041676
0.192239
0.752150
1.365224
1.740468
1.649693
1.604618
1.502961
1.627630
2.039871
2.743412
3.704368
4.498689
4.413820
4.065630
3.826872
3.547388
2.560325
1.237192
0.607649
0.516252
0.818438
0.329105
-1.121492
-3.149717
-4.616479
-5.099905
-4.496781
-3.588986
-3.619139
-4.246195
-5.530777
-6.174310
-6.738878
-6.948102
-6.309225
-4.802661
-2.355975
-0.436864
1.229495
2.075423
2.425175
1.965998
0.771883
-0.063778
-0.242535
-0.518910
-1.912614
-3.563733
-3.989023
-2.820394
-1.207507
-0.762002
-1.990314
-4.225901
-5.936088
-6.820870
-7.670210
-8.576754
-8.967536
-7.695070
-5.751089
-3.774464
-1.822088
0.055985
1.821207
2.666202
2.749213
2.190552
1.630026
1.672932
1.527440
0.902560
-0.128338
-0.280670
0.176027
0.576454
0.566509
0.204640
-0.202619
-1.166055
-2.626600
-4.569642
-6.337654
-7.008856
-6.753925
-5.801674
-4.602578
-3.479339
-2.465221
-1.770073
-1.096066
-0.547346
0.033084
0.589576
0.068221
-1.253979
-2.279281
-1.993262
-0.716133
0.324721
1.047538
2.196891
4.865241
7.965412
10.169917
10.482052
9.435609
7.788842
5.834919
3.944728
2.590196
2.399626
2.900469
3.374265
3.177787
1.684599
-0.796899
-3.693121
-6.240528
-7.879833
-8.750625
-9.331980
-9.194565
-7.887280
-5.329918
-2.513276
-1.038112
-0.688982
-1.044633
-1.356139
-1.907027
-3.175444
-4.596817
-5.630513
-5.798700
-5.853723
-6.410208
-7.345975
-7.801421
-6.946167
-6.314129
-5.894739
-5.985514
-6.117638
-6.146547
-6.954228
-7.720873
-8.257461
-7.461897
-6.317517
-5.421536
-5.127433
-5.199556
-5.007424
-5.013016
-4.874978
-4.316932
-2.436372
0.538823
4.028536
7.483430
9.779336
10.580496
9.959036
8.480149
6.703121
5.176047
3.894884
3.093109
2.857149
3.290530
3.670437
3.549195
3.434481
3.386919
3.437908
3.603304
3.751911
4.035755
4.377113
4.174107
3.618555
3.098133
3.574727
4.945744
6.106911
6.836878
7.444666
7.952038
7.932456
7.116380
5.267848
3.261074
1.406324
0.087855
0.191695
1.834738
4.771072
7.076304
7.909486
7.130406
6.087072
5.677015
5.500435
4.764257
3.373973
2.086903
1.292901
0.787402
0.127391
-0.382460
-0.210536
0.413729
0.779336
0.502029
0.521618
1.436563
2.664260
3.411637
3.450191
3.247806
3.419420
4.334986
5.380504
5.727147
4.837702
2.979532
1.416706
0.430264
0.049120
0.232547
0.820127
1.152469
1.105218
1.377559
1.674771
2.736454
3.823942
4.653703
4.800135
4.003956
3.193166
2.199574
1.824336
1.559464
1.785482
1.710873
1.081952
0.719461
0.200283
0.280495
-0.415578
-1.578604
-3.269516
-4.268393
-3.899988
-2.668249
-1.262102
-0.445087
0.518045
1.256406
2.149278
2.645769
2.982463
3.300504
3.253253
2.998640
2.298525
2.620608
3.611410
4.484695
4.261793
2.703319
0.646181
-1.469714
-3.090677
-4.177846
-4.279192
-4.367791
-3.769329
-3.095633
-2.007524
0.088482
1.867382
3.653744
4.096762
4.088682
3.426496
2.715190
2.350212
1.850619
2.120162
2.197888
2.228358
1.380883
0.515998
0.411544
1.089592
2.588694
3.421254
4.107386
4.287704
5.123684
6.197181
6.083711
5.026076
3.238167
2.258254
1.112948
0.215110
-0.656304
-1.111439
-1.212785
-2.384515
-3.801536
-5.535662
-6.560964
-7.005219
-7.240557
-7.534963
-7.580971
-7.270080
-6.447469
-5.352831
-4.473638
-3.475065
-2.397215
-0.210120
1.669198
2.837205
2.756999
2.034812
1.355216
1.005782
0.934592
0.419145
0.236969
-0.224074
-0.940354
-2.330328
-4.384046
-6.199934
-7.679754
-7.694362
-7.442229
-7.177971
-7.393724
-8.070833
-8.317052
-7.988751
-6.612450
-5.254490
-3.804819
-2.163953
-0.590860
0.662020
1.376442
1.720598
1.843091
1.495834
0.498200
-0.735086
-1.610230
-2.112310
-2.132514
-1.814473
-0.640248
1.118756
3.178388
4.526399
5.027863
5.610781
6.002502
6.658478
6.301272
4.893267
3.416867
2.731675
2.725461
1.846897
0.709675
-0.255937
-0.610034
-1.476163
-3.010699
-4.317976
-5.145243
-4.449474
-3.269032
-1.762779
-0.272382
0.966197
2.331617
3.034226
3.267084
2.825317
2.295258
2.183653
2.299306
2.649680
2.827822
2.858603
2.537149
2.460364
2.199533
1.699008
1.175477
0.744280
0.770399
0.658172
0.993312
1.302337
1.494469
1.283070
0.706999
0.261501
-0.255812
-0.610220
-1.246602
-2.042470
-2.838027
-3.798354
-4.655467
-5.819114
-6.751772
-7.080688
-6.414453
-4.988098
-4.179788
-4.178230
-4.511497
-3.982364
-2.852285
-2.515901
-3.213218
-4.145565
-4.476345
-4.082137
-2.893611
-1.258962
0.357344
1.266382
1.226903
0.593940
0.436324
0.948981
1.504229
1.418738
1.017697
1.244338
1.859276
2.616601
2.424788
2.047685
2.218987
2.861906
3.221606
2.208739
0.728919
-0.771108
-1.596200
-2.092994
-2.406676
-2.302214
-1.930700
-1.093477
-0.068478
1.557777
3.385176
5.150397
6.033943
5.609274
4.366972
2.529321
0.897788
0.021711
0.235295
1.666312
3.728120
5.976772
7.465614
7.848009
7.124578
5.688282
4.168669
2.373299
0.429324
-1.840771
-3.508367
-4.488280
-5.285702
-6.056388
-7.313613
-8.104506
-8.288859
-7.896826
-7.365827
-6.637726
