EVENT_NAME: 202302060117
EVENT_ID: 13194
EVENT_DATE_YYYYMMDD: 2023/02/06
EVENT_TIME_HHMMSS: 01:17:32.00000
EVENT_LATITUDE_DEGREE: 37.288
EVENT_LONGITUDE_DEGREE: 37.043
EVENT_DEPTH_KM: 8.6
HYPOCENTER_REFERENCE: AFAD
MAGNITUDE_W: 7.7
MAGNITUDE_W_REFERENCE: AFAD
MAGNITUDE_L: 
MAGNITUDE_L_REFERENCE: 
FOCAL_MECHANISM: 
NETWORK: TK
STATION_CODE: 4406
STATION_NAME: 
STATION_LATITUDE_DEGREE: 38.34388
STATION_LONGITUDE_DEGREE: 37.97378
STATION_ELEVATION_M: 1050.0
LOCATION: Kahramanmaras_Pazarck_Turkiye
SENSOR_DEPTH_M: 
VS30_M/S: 815
SITE_CLASSIFICATION_EC8: A
MORPHOLOGIC_CLASSIFICATION: 
EPICENTRAL_DISTANCE_KM: 143.07
EARTHQUAKE_BACKAZIMUTH_DEGREE: 
DATE_TIME_FIRST_SAMPLE_YYYYMMDD_HHMMSS: 2023/02/06 01:17:36.6947250
DATE_TIME_FIRST_SAMPLE_PRECISION: millisecond
SAMPLING_INTERVAL_S: 0.01
NDATA: 12501
DURATION_S: 
STREAM: HNZ
UNITS: cm/s^2
INSTRUMENT: sensor = CMG-5T/GURALP | digitizer = 
INSTRUMENT_ANALOG/DIGITAL: 
INSTRUMENTAL_FREQUENCY_HZ: 
INSTRUMENTAL_DAMPING: 
FULL_SCALE_G: 
N_BIT_DIGITAL_CONVERTER: 
PGA_CM/S^2: 49.998
TIME_PGA_S: 
BASELINE_CORRECTION: BASELINE REMOVED
FILTER_TYPE: BUTTERWORTH
FILTER_ORDER: 
LOW_CUT_FREQUENCY_HZ: 
HIGH_CUT_FREQUENCY_HZ: 
LATE/NORMAL_TRIGGERED: 
DATABASE_VERSION: 
HEADER_FORMAT: DYNA 1.2
DATA_TYPE: Acceleration
PROCESSING: Automatic Paolucci et al., 2011
DATA_TIMESTAMP_YYYYMMDD_HHMMSS: 
DATA_LICENSE: U (unknown license)
DATA_CITATION: Turkish Accelerometric Archive v 1.0 - Disaster And Emergency Management Presidency, Earthquake Department
DATA_CREATOR: AFAD
ORIGINAL_DATA_MEDIATOR_CITATION: : AFAD - Disaster And Emergency Management Presidency
ORIGINAL_DATA_MEDIATOR: AFAD PROCESS SERVICE
ORIGINAL_DATA_CREATOR_CITATION: AFAD PROCESS SERVICE
ORIGINAL_DATA_CREATOR: network: TK
USER1: GuestUser
USER2: 
USER3: 
USER4: 
USER5: 
[...]
26.037632
25.766914
24.556030
23.617119
21.435085
16.999344
11.605910
8.389193
9.205738
12.249701
12.721038
8.634573
5.945839
13.574207
21.591598
21.095228
18.473156
19.884347
21.548732
19.931924
17.053529
13.866544
10.606636
11.463555
15.915889
17.328645
17.294533
18.946712
19.522582
19.042800
15.903387
11.202872
5.247967
-0.831187
-4.001584
-4.794338
-6.381726
-9.575284
-12.684965
-14.792199
-17.662144
-19.408835
-22.108211
-24.489294
-24.382568
-23.608274
-23.576036
-23.571025
-17.247748
-6.047750
1.475772
2.826247
5.624214
10.595767
12.425088
11.697745
15.304118
19.214698
17.320285
12.287707
7.111476
1.617265
-3.592767
-8.334281
-11.259309
-12.219816
-15.948241
-21.618342
-27.513781
-35.369987
-40.646995
-41.577457
-42.397752
-42.593669
-40.836332
-37.224639
-30.425020
-27.125672
-26.963550
-26.270003
-27.688387
-27.678369
-27.112827
-26.090346
-21.207051
-19.925430
-26.862126
-35.991499
-39.541218
-36.946682
-30.358005
-24.274464
-18.776493
-16.311527
-17.103029
-15.636129
-12.556488
-10.681786
-6.635689
-0.438226
2.385717
3.303039
2.712465
1.995137
-1.280419
-6.912024
-7.508857
-2.741674
4.719567
10.694507
10.034766
9.675791
9.464225
11.694149
23.111975
32.292055
31.656100
25.742508
21.117106
18.642444
15.089282
15.035141
16.609702
14.858317
15.801929
17.708240
15.314638
11.532381
7.956998
4.009180
-0.223756
-2.018018
-1.594878
-2.986033
-4.772159
-5.602156
-3.667051
-1.609261
-4.431635
-9.371573
-11.608064
-9.319927
-5.949535
-3.974057
1.702621
10.779108
13.639670
10.334381
6.406593
4.353816
3.997657
3.922547
2.792723
2.321704
4.254931
2.460042
-3.110533
-4.598083
-1.553495
1.174680
4.249940
10.129110
16.019861
19.735773
13.743626
9.718190
15.031821
18.451037
18.220067
18.932079
19.679458
13.347736
-0.268083
-11.448358
-14.107673
-12.550325
-10.137625
-8.117079
-9.217484
-9.587413
-5.630200
-1.294917
-1.847935
-6.188220
-10.392049
-8.002197
-2.207841
-0.281812
-3.816509
-6.949350
-5.519694
-4.482817
-0.568480
3.341474
5.833042
11.630841
20.765227
25.489533
21.670033
18.519665
17.769789
14.823478
17.054028
24.041118
34.026161
38.210278
30.446712
24.016404
17.373589
14.694243
16.770185
14.353110
14.281129
14.860755
13.316557
15.951779
20.576873
22.998336
20.845095
15.824410
11.072568
4.296427
0.023118
2.845184
5.942978
4.266706
1.833981
-7.150173
-19.109121
-23.132679
-25.717820
-29.216525
-25.850514
-19.745691
-17.531729
-20.980358
-22.721102
-21.169387
-29.109469
-34.468163
-31.001376
-34.701634
-42.647663
-44.729546
-41.589501
-39.679121
-35.235863
-28.824015
-24.793566
-22.785852
-19.600426
-14.000739
-6.457812
2.011197
9.433317
20.930638
27.725563
22.386273
15.505912
11.513965
6.030708
5.074271
3.123835
2.050659
6.421621
10.543770
14.919739
13.972064
11.759672
13.101383
15.297193
19.260040
19.120771
9.447140
-1.550673
-4.120165
-1.598865
0.688646
0.077729
-1.569437
-1.741882
-1.661132
-3.297657
-1.432032
7.068900
19.886647
29.549643
27.408295
14.020320
5.863348
6.810090
6.040183
7.129952
11.501539
10.523506
4.007131
0.617341
0.433942
5.454945
9.368343
8.654458
10.277530
8.017879
0.708748
-10.148228
-16.555689
-8.366476
1.227352
5.138246
11.604864
13.321828
9.144914
4.857208
5.018704
9.726110
15.517962
22.605515
26.708573
28.859315
27.040328
25.929909
24.852977
20.017258
11.578300
5.805545
4.463839
6.129163
11.086007
21.140842
24.237384
17.651529
15.109265
16.010938
13.681808
5.311390
-7.269119
-9.525327
-4.998506
-7.054725
-5.549643
-0.035710
-0.388739
-4.139699
-6.206872
-5.834120
-7.652169
-15.494603
-18.989552
-20.854859
-23.308240
-14.555052
-1.264405
0.258203
-5.795913
-14.312488
-22.329874
-21.913620
-17.667534
-23.168317
-25.693054
-27.553041
-34.268152
-34.729470
-35.672763
-32.889505
-22.794610
-16.369617
-17.003381
-22.183994
-20.639790
-16.061329
-15.361209
-18.002685
-12.335083
1.495127
1.727980
-6.386427
-6.633985
-1.973838
-1.537866
-7.707468
-10.797119
-7.491200
-4.800582
-2.743105
-4.060712
-6.441170
-8.935236
-8.649803
-6.874940
-3.545860
-2.204149
-0.051529
6.609132
13.689800
14.081643
7.443522
8.275089
15.741338
18.001933
17.826359
15.976075
19.086388
27.285615
29.055159
28.700565
31.343298
25.662244
9.368329
2.906411
2.318340
3.406545
10.998295
15.887850
17.121273
19.500484
24.258279
27.278143
21.820237
16.765751
20.086381
23.507474
23.096858
27.601458
31.310798
23.364770
22.403012
31.401568
32.203091
22.433691
14.304887
19.533077
24.266460
14.051389
10.762688
12.088750
1.638638
2.352841
12.946300
13.340021
4.166832
-0.178148
6.254982
7.279028
8.087748
16.351448
20.245441
8.222021
-11.164364
-11.558079
-3.468079
-1.191522
7.853981
8.072125
5.517029
10.324272
6.813988
6.175216
9.343428
5.900745
9.616345
13.751013
6.205275
3.061480
8.242098
27.547430
41.865249
27.761821
8.559775
-3.837959
-12.071921
-12.765150
-12.382696
-7.056859
2.676555
2.564201
-3.650783
-4.532107
-6.058779
-8.905251
-8.407937
-9.373138
-15.816278
-17.665623
-14.672988
-11.960149
-6.352324
-0.561412
6.449464
9.472145
1.933292
-4.084520
-6.507542
-9.207543
0.293646
15.908418
17.628512
9.869014
8.793021
7.827820
-1.928748
-8.572189
-4.301379
4.729101
0.079288
-15.714186
-18.359105
-18.678646
-18.993805
-18.783486
-13.899564
3.611815
12.362812
11.056159
3.660960
-9.538607
-21.080364
-22.723148
-12.556895
-2.710498
-4.652170
-17.151620
-26.680345
-26.270349
-21.554180
-20.535456
-23.555001
-21.380786
-10.478737
-6.454235
-19.969277
-34.750601
-36.020949
-30.083253
-20.150789
-13.606554
-11.006698
-7.673863
-4.330699
-3.741058
-15.322563
-27.744708
-16.476483
5.388016
10.262861
7.983180
8.990951
6.827695
-0.753722
-2.836544
3.510832
11.841821
14.684230
3.322432
-3.962288
-1.614061
3.334646
16.180560
23.369516
22.919153
26.982151
23.917225
0.385533
-15.147236
-1.939213
12.395506
14.058952
11.457536
11.917920
11.770826
0.683504
-8.069052
-3.350380
5.816556
6.111378
3.779118
8.223940
11.025037
8.394828
4.099924
2.606427
2.935989
1.747013
-2.061533
-8.192327
-10.700790
-7.220546
-5.783378
-6.493508
-10.265749
-1.142004
6.461639
-4.369985
-17.461890
-23.130738
-14.721194
-18.608922
-25.552503
-13.109696
-4.695770
-5.851257
-8.031100
-8.043929
-4.796848
-12.559163
-23.712835
-24.528123
-23.508146
-10.645957
-5.655312
-17.661519
-16.177406
-15.243496
-14.907988
-13.672374
-25.212880
-11.880295
14.227157
15.384841
-2.926800
-19.405055
-8.278606
2.889156
-6.215493
-3.025685
-0.502194
-16.387369
-28.245227
-25.774628
-18.911788
-16.076890
-9.284156
6.142521
4.354831
-0.641129
0.104059
-19.359631
-34.334058
-15.023719
6.282751
-3.761750
-18.222905
-16.139764
-10.035567
-4.226189
4.375520
14.187803
6.471182
-5.263052
6.484645
8.191907
4.978320
4.829974
7.900539
26.552386
29.821062
11.983572
-3.777352
-8.317939
-0.878919
2.428253
0.484703
1.473696
2.426384
-2.500723
-6.354963
7.502788
20.118356
1.748188
-11.818181
-14.260920
-4.599177
12.251520
7.199225
16.715124
29.878704
15.974013
21.140861
22.470366
16.826868
24.940655
19.514046
25.870498
14.168500
10.255108
28.572389
19.056183
9.652959
7.047788
9.484899
15.276438
14.309359
3.804163
5.971806
16.025702
16.264815
20.981610
25.291542
23.289467
15.054566
-1.225891
-8.991335
3.412351
13.458423
2.736338
13.844635
39.854753
33.129939
14.850220
9.593555
22.054202
16.129656
9.205166
8.755429
-12.682484
-25.046104
-19.510889
-2.993194
11.240435
12.639107
11.756844
12.271371
0.083328
-11.783919
-8.842298
-14.133703
-2.717755
5.594143
1.750544
4.413620
-6.205184
-18.504019
-20.872584
-11.099736
7.725497
4.417705
-6.648648
-3.785896
-9.998063
-19.521467
-14.729559
3.582088
1.723354
-8.562136
-15.919778
-22.368239
-30.077348
-27.423034
-20.152393
-19.126157
-7.872015
-8.530504
-25.121116
-26.085691
-10.400500
-15.394582
-15.424312
5.853365
19.010373
1.397284
-12.600360
0.029604
0.900920
-8.245667
-5.885860
-1.592202
-10.279660
-13.737366
-11.134067
-23.031046
-25.512907
-9.277512
-13.859724
-11.286157
-4.810776
-6.022911
0.815830
-2.517626
-2.819328
-4.183567
-21.932173
-34.377166
-38.605407
-28.123053
-17.172180
-28.348700
-36.082533
-22.603165
-1.157109
4.755863
7.593890
9.261405
14.897083
31.210095
21.372780
-3.846140
-8.519740
4.424761
26.597536
25.055842
-0.425662
-4.498669
11.353023
14.980677
5.838472
4.451385
9.789741
3.401998
-11.313915
1.825253
14.507483
7.658733
3.393874
7.720394
16.962755
23.532028
12.646885
1.730445
12.206540
14.961943
10.186941
22.312395
24.785498
17.389047
23.207814
21.482093
8.353570
-0.505709
4.257406
10.339382
-2.593846
-9.465130
13.621835
17.106148
2.693191
-7.356318
-17.810499
-15.172773
-5.619005
2.852195
3.393951
-3.140264
10.387929
14.132634
-6.120369
-10.840601
0.869227
1.295497
3.725097
4.677784
6.262987
15.925356
22.183223
26.739463
7.528342
2.507657
6.906786
4.761370
2.358065
1.892053
24.455417
35.950547
24.059827
17.623572
1.438571
-14.968013
-11.918104
-9.544526
-4.781099
3.176828
1.811963
-7.078300
-8.792442
2.852288
7.588174
-8.930454
-6.291477
14.910149
1.183225
-19.384315
-11.119050
-3.888781
-5.499017
3.328658
15.674757
-0.678623
-19.062874
-11.693646
-7.750829
-13.403090
-20.579522
-20.043712
-9.519107
-4.005800
2.055520
-8.921010
-15.030523
-2.459084
-11.472658
-11.930845
-2.011527
-5.726182
-12.860362
-14.634907
5.531721
3.942142
-3.553520
28.075686
29.572944
-0.966177
-15.438912
-8.389541
4.191913
-2.295982
-20.411078
-19.556663
-0.697942
14.187920
23.382710
16.773070
11.202807
5.804366
-15.159708
-25.760986
-20.058018
-9.868918
-6.536709
-0.847825
11.811559
1.781453
-26.495824
-21.479202
-1.594561
4.755319
8.514108
10.245469
19.255606
30.325720
25.512848
30.608026
41.824611
40.199979
40.559899
35.168656
27.910852
18.636260
-2.356608
-3.519920
3.615831
-2.437346
-0.422434
8.635588
1.402508
-22.056261
-22.758254
-7.584771
-8.526812
-13.256746
-4.687899
13.566787
23.145593
12.716136
8.421545
6.216039
-7.232340
-5.647137
-1.271481
-0.132888
1.305844
6.729328
14.394314
15.513502
2.226930
-20.280720
-22.359786
-4.972969
8.502643
9.499773
-5.101592
-8.350859
-9.456271
-31.018121
-41.106439
-27.246184
-12.285522
-12.060806
-15.539793
-11.175717
-14.888181
-36.335483
-42.850294
-26.660280
-18.980584
-7.966805
0.767291
-10.269017
-0.932451
10.375209
-8.933560
-18.348676
-4.650540
-2.866287
-10.552550
-4.022085
12.962563
10.807132
-9.136656
-7.896661
-8.207125
-21.025493
-16.180380
-6.379364
5.807745
12.536321
6.086608
1.887787
-3.347596
-7.519816
-4.190423
-2.252188
-13.106660
-25.169514
-25.294700
-30.560442
-40.257232
-37.151927
-29.306983
-21.041718
-14.129429
-4.998172
9.380051
9.545928
4.893924
-1.016539
-8.456805
-5.612205
-2.139472
-3.521551
-1.543882
-15.663584
-28.699467
-15.591595
-7.361070
-20.882372
-33.715762
-21.738656
-9.641682
-12.184572
-14.176632
-12.074401
-4.515199
-4.630370
-15.968383
-26.542745
-28.257513
-10.073558
12.310786
9.086244
3.203011
13.715097
21.315924
17.445409
0.123383
-9.408785
-1.681205
0.740571
-7.791340
-10.919174
-9.097990
-12.795119
-12.184509
-14.180325
-10.025314
0.912101
5.708078
12.125872
-2.180048
-17.401723
5.881475
17.929312
4.877781
-4.927924
-1.569738
10.949122
7.820975
-0.382316
-6.944385
-10.690650
-8.024444
6.261765
13.066079
17.641724
23.102452
20.301361
5.475908
-3.419363
8.208780
9.486332
17.010793
32.335128
19.401587
2.437600
1.001064
8.663859
25.101434
22.864004
2.185046
-5.642053
1.683046
17.037739
22.222113
12.520628
16.308211
30.872338
24.539051
0.713792
-2.535474
9.655391
17.773872
21.804321
21.924505
19.311822
25.081453
28.786724
22.514780
12.747258
10.621246
7.882748
-4.584152
-11.232288
-17.007234
-26.347237
-18.110453
4.795928
15.255748
10.182484
3.399771
5.442851
21.943645
26.585014
0.934193
-3.110334
25.988499
25.929976
-8.276232
-17.117046
4.961212
17.985834
9.602271
4.012291
13.995143
4.958722
-17.422800
-20.331553
-3.702127
17.716387
23.186504
21.044531
12.020003
1.867213
2.290666
10.370965
19.938190
18.753909
16.837275
28.090165
26.045213
14.062479
4.191050
-2.121580
6.499846
9.301882
2.260966
-2.162569
4.233944
21.800719
30.329193
13.632796
-8.585354
-7.399190
6.666061
2.957353
10.827021
33.429194
40.252599
33.708683
27.792587
21.219564
1.935520
-5.530410
4.939425
0.116851
-13.386297
-13.962788
-10.473467
-4.617143
-4.349550
-5.433367
-4.977052
-10.817096
-5.131029
-2.280169
-5.972603
-3.916065
2.468241
4.206174
1.385679
-0.745341
-6.561286
-13.909226
-12.982828
-18.976228
-31.460655
-36.960812
-36.134877
-20.953570
-4.617399
-5.110639
-11.087451
-1.076745
7.341563
7.724956
8.482662
-1.969328
-8.289157
-0.142822
-0.628237
-4.877448
-10.339109
-11.594435
-17.410380
-23.454481
-13.484461
-9.251833
-8.007455
6.288768
15.080764
13.694304
5.081333
-1.583391
5.990520
10.906678
9.230719
15.580286
23.314125
12.731312
-13.157367
-37.525632
-41.014008
-32.422314
-37.048342
-47.421151
-48.131280
-46.357042
-46.217454
-41.516934
-42.249597
-46.552952
-43.913974
-38.504260
-36.995735
-41.287510
-46.112274
-42.034567
-35.808311
-28.084487
-27.571837
-37.658903
-46.136669
-49.997795
-33.035681
-12.204614
-12.861538
-20.870474
-21.409721
-12.731333
-5.048821
-25.330931
-43.693900
-31.100241
-9.068615
8.884367
4.019542
-9.751511
-6.544803
-12.464028
-21.210638
-20.937098
-31.951811
-39.805200
-33.296018
-16.108877
-8.303993
-9.301430
2.297919
4.898714
-12.463998
-16.388657
-10.419351
-4.380564
-7.649548
-22.615525
-18.478979
2.504505
2.327366
-12.687748
-8.227590
5.644558
9.535421
6.082097
6.931505
10.507832
8.843452
5.922493
0.812611
-4.697561
0.122828
6.165996
12.160966
17.290257
10.066254
-1.367841
-1.120591
5.132894
23.717452
37.520120
31.307014
26.352679
23.697746
23.831074
28.507809
36.788409
38.977647
24.794724
18.116856
28.174195
27.717572
26.759257
22.149816
12.283395
10.374585
10.325765
9.702328
5.705999
4.728592
9.493898
3.393462
-2.032834
-0.469539
0.091308
5.302598
4.885723
-4.826403
-15.531901
-16.520262
-3.270301
8.830741
5.349563
-8.579227
-12.217830
-15.039577
-17.094545
-14.057155
-23.854096
-33.126497
-28.511418
-18.295090
-11.720809
-11.539283
-3.087487
10.976199
10.249795
2.613608
4.436669
-1.813680
-15.074589
-14.469613
-4.962164
-1.848722
-11.757394
-18.495040
-13.327879
-15.306169
-22.906990
-23.771414
-26.363753
-17.967354
-7.561051
-10.907026
-10.257921
0.672922
6.766478
0.979639
-16.772410
-13.516878
-10.056976
-19.432971
-21.642234
-27.776471
-25.854511
-9.155605
1.331131
6.236022
5.717744
3.695012
9.046200
-0.095379
-13.653611
-11.838374
-3.923950
4.475266
7.430658
9.620835
27.199816
39.971869
25.904120
12.806582
22.529041
35.406879
29.684199
15.276563
21.991994
42.991439
49.312839
40.719585
33.626717
26.864346
19.111734
11.498081
-1.030788
-7.718045
6.316222
18.931163
12.539977
6.534371
0.559750
0.503104
8.566190
17.482748
30.205665
32.919756
21.255940
22.060905
33.554157
31.684468
22.485302
12.679285
10.287873
6.749734
-14.335773
-17.146567
1.143172
4.985838
-8.629042
-15.466525
-7.555544
0.609883
-3.694098
2.191646
20.848813
25.934288
17.597672
3.944922
0.901278
7.564755
5.132657
4.749270
14.044837
5.363951
-1.244124
1.161064
-0.312716
4.296417
7.997619
16.823103
30.656442
31.614138
26.935218
19.191369
12.452158
8.268985
5.318606
5.701686
2.243042
-0.441312
2.331305
5.488876
10.381248
8.368845
2.602975
12.609613
16.200650
5.012550
3.064932
3.572887
6.436578
7.956057
8.105035
13.618655
13.137933
4.493353
3.728453
5.527729
4.764707
5.314288
2.383000
6.651620
20.559446
20.581044
16.776566
13.685038
4.150053
3.035878
5.524003
13.097601
23.516422
25.737270
16.985966
6.849138
14.449651
23.970870
23.866654
19.658756
11.434496
0.245770
-2.180068
5.329058
1.207227
0.105883
10.013309
17.360003
20.599573
17.556241
10.074036
1.648536
2.102034
10.176386
13.781194
10.167629
-0.732537
-6.018934
-3.389972
-2.291439
-1.623243
-4.417449
-9.275075
-0.117216
5.355092
-0.586355
7.252017
27.256840
36.544582
32.569222
27.283763
23.186344
14.565550
1.717137
7.522133
26.020937
35.876410
32.434979
17.634251
12.512476
11.852109
3.087661
-7.005978
-8.828094
-3.933845
5.876247
13.757809
15.967703
11.808628
2.992852
-5.788497
-9.608623
-12.405020
-18.764283
-21.155382
-11.840724
0.916619
6.852751
-4.640183
-12.769300
-9.697169
-14.386104
-12.817489
-19.899403
-31.556647
-31.066531
-23.758646
-10.256117
-2.923820
-9.858638
-13.148278
-14.557898
-19.463096
-15.180080
-8.906565
-8.469967
-5.035103
-6.243170
-13.611141
-16.798126
-18.069413
-15.897388
-8.571038
-12.200878
-17.793361
-11.199051
14.422357
31.682420
24.958232
24.246225
32.455468
28.230356
8.645860
4.047061
10.165655
12.522645
21.903027
26.019230
25.132897
30.760752
34.421582
32.781927
24.401494
13.962336
7.500730
9.524093
11.371566
14.433681
20.155428
17.232590
6.192213
1.413769
7.494180
12.493588
8.617127
0.965918
-7.800409
-8.524935
-11.024322
-16.603348
-8.315862
-1.177607
-1.853623
-4.833108
-5.161412
-3.071699
-7.175065
-9.865051
0.119053
1.004764
-11.106914
-9.395896
5.197964
5.617035
-12.392276
-34.293387
-34.089953
-14.680715
0.503096
3.603706
0.737830
-0.724370
-5.418938
-11.156327
-9.504149
-3.282900
5.126019
16.876220
22.900610
11.966017
-2.908885
-7.556195
-14.402442
-27.501545
-28.862655
-13.845032
3.785902
11.418965
1.060866
-2.203110
-0.940581
-4.193916
-2.393389
4.443788
16.427779
7.255215
-11.302735
-12.890749
-8.468460
-9.051523
-7.898534
1.363858
6.145125
1.361986
-10.063033
-13.691621
-16.372218
-25.751030
-22.510521
-13.526674
-14.987309
-17.891368
-12.271650
-3.035548
-1.825911
-7.396174
-11.080157
-11.890125
-18.664701
-28.135526
-24.604893
-19.584203
-25.727203
-30.106296
-29.228722
-25.645822
-13.388607
1.260336
7.621169
10.954318
8.293750
1.534197
0.130523
1.494455
1.082274
-0.342995
-3.294626
-3.135007
2.954480
5.591267
7.578325
9.151322
8.591732
5.889540
-3.770946
-3.354065
5.654819
-1.577634
-15.557752
-12.672152
-3.796280
2.404312
4.898071
6.823474
15.861152
12.781516
7.358350
8.855295
7.610298
-7.561928
-25.553713
-24.050508
-19.088344
-19.638545
-14.859468
-14.390322
-25.399401
-33.017123
-30.122760
-23.493710
-7.009190
9.081612
9.963881
-1.792887
-15.885048
-25.500153
-25.155256
-10.286607
7.942415
15.904098
11.922478
9.066304
4.888451
-4.759829
-14.056955
-15.286304
-7.419452
3.453804
6.580391
1.995363
5.016165
11.005502
5.879659
-2.037576
-0.974096
0.694044
1.245815
7.724013
24.903956
29.492433
19.954006
16.138261
14.092056
-1.278906
-14.517907
-5.369124
14.942724
17.799530
1.814517
-15.617362
-26.927207
-30.768302
-23.828158
-10.039887
-4.264310
-8.112917
-5.604448
14.864511
29.833936
29.309399
14.356880
-0.992801
3.176607
10.650054
9.321494
