EVENT_NAME: 202302060117
EVENT_ID: 13194
EVENT_DATE_YYYYMMDD: 2023/02/06
EVENT_TIME_HHMMSS: 01:17:32.00000
EVENT_LATITUDE_DEGREE: 37.288
EVENT_LONGITUDE_DEGREE: 37.043
EVENT_DEPTH_KM: 8.6
HYPOCENTER_REFERENCE: AFAD
MAGNITUDE_W: 7.7
MAGNITUDE_W_REFERENCE: AFAD
MAGNITUDE_L: 
MAGNITUDE_L_REFERENCE: 
FOCAL_MECHANISM: 
NETWORK: TK
STATION_CODE: 0216
STATION_NAME: 
STATION_LATITUDE_DEGREE: 38.030907
STATION_LONGITUDE_DEGREE: 38.557087
STATION_ELEVATION_M: 864.0
LOCATION: Kahramanmaras_Pazarck_Turkiye
SENSOR_DEPTH_M: 
VS30_M/S: None
SITE_CLASSIFICATION_EC8: unknown
MORPHOLOGIC_CLASSIFICATION: 
EPICENTRAL_DISTANCE_KM: 156.80
EARTHQUAKE_BACKAZIMUTH_DEGREE: 
DATE_TIME_FIRST_SAMPLE_YYYYMMDD_HHMMSS: 2023/02/06 01:17:39.0566870
DATE_TIME_FIRST_SAMPLE_PRECISION: millisecond
SAMPLING_INTERVAL_S: 0.01
NDATA: 4195
DURATION_S: 
STREAM: HNE
UNITS: cm/s^2
INSTRUMENT: sensor = ACEBOX/SARA | digitizer = 
INSTRUMENT_ANALOG/DIGITAL: 
INSTRUMENTAL_FREQUENCY_HZ: 
INSTRUMENTAL_DAMPING: 
FULL_SCALE_G: 
N_BIT_DIGITAL_CONVERTER: 
PGA_CM/S^2: 38.581
TIME_PGA_S: 
BASELINE_CORRECTION: BASELINE REMOVED
FILTER_TYPE: BUTTERWORTH
FILTER_ORDER: 
LOW_CUT_FREQUENCY_HZ: 
HIGH_CUT_FREQUENCY_HZ: 
LATE/NORMAL_TRIGGERED: 
DATABASE_VERSION: 
HEADER_FORMAT: DYNA 1.2
DATA_TYPE: Acceleration
PROCESSING: Automatic Paolucci et al., 2011
DATA_TIMESTAMP_YYYYMMDD_HHMMSS: 
DATA_LICENSE: U (unknown license)
DATA_CITATION: Turkish Accelerometric Archive v 1.0 - Disaster And Emergency Management Presidency, Earthquake Department
DATA_CREATOR: AFAD
ORIGINAL_DATA_MEDIATOR_CITATION: : AFAD - Disaster And Emergency Management Presidency
ORIGINAL_DATA_MEDIATOR: AFAD PROCESS SERVICE
ORIGINAL_DATA_CREATOR_CITATION: AFAD PROCESS SERVICE
ORIGINAL_DATA_CREATOR: network: TK
USER1: GuestUser
USER2: 
USER3: 
USER4: 
USER5: 
[...]
-0.192751
-0.041059
0.084447
0.094692
-0.037914
-0.143633
-0.092240
-0.007414
0.017326
0.015881
0.004149
-0.025119
-0.044333
-0.064014
-0.117129
-0.113430
-0.032111
0.062066
0.160452
0.123002
-0.041867
-0.121167
-0.160721
-0.139956
0.033947
0.125553
0.059813
0.021428
0.000577
-0.073579
-0.160126
-0.205058
-0.157873
-0.009455
0.130314
0.143597
0.011927
-0.170477
-0.228034
-0.178512
-0.189543
-0.151008
0.088124
0.316033
0.276245
0.045913
-0.129478
-0.171838
-0.120445
-0.019253
0.050376
0.069738
0.090270
0.091630
0.022150
-0.027224
-0.012771
-0.098149
-0.188438
-0.059658
0.096009
0.095498
0.069972
0.047485
-0.057065
-0.109946
-0.010391
0.030715
-0.012814
0.013329
0.006039
-0.032814
0.041491
0.122810
0.061513
-0.065716
-0.097555
-0.022314
0.104595
0.224257
0.148230
-0.134473
-0.279003
-0.184124
-0.112624
-0.100042
-0.030880
0.031034
-0.004546
-0.118682
-0.190266
-0.215325
-0.209289
-0.041465
0.143660
0.179856
0.164851
0.089759
0.032904
0.064190
0.027675
-0.047416
-0.021741
-0.009626
-0.103188
0.010629
0.289974
0.167890
-0.161573
-0.196919
-0.049202
0.136157
0.268911
0.237072
0.048823
-0.101084
-0.016959
0.091714
0.081852
-0.029712
-0.231288
-0.214497
-0.018383
0.043297
0.037409
0.013753
-0.008033
-0.032156
-0.170139
-0.310226
-0.328037
-0.253966
-0.188545
-0.232308
-0.250587
-0.202935
-0.302341
-0.439389
-0.394075
-0.285168
-0.241958
-0.244104
-0.226378
-0.207951
-0.333542
-0.517817
-0.520198
-0.380196
-0.244402
-0.135261
-0.042019
0.086294
0.218580
0.185339
0.035666
-0.048310
-0.078746
-0.082296
-0.077662
-0.075834
-0.070266
-0.152137
-0.204784
-0.061275
0.132266
0.199090
0.159302
0.211396
0.301833
0.190503
0.060469
0.098536
0.187336
0.172798
0.010033
-0.081425
-0.056685
-0.034750
0.080236
0.146825
0.137665
0.325829
0.463727
0.349591
0.329442
0.434608
0.390378
0.257305
0.243702
0.210227
-0.082063
-0.408252
-0.466043
-0.311311
-0.047864
0.151055
0.116176
0.060490
0.125443
0.037259
-0.307635
-0.629616
-0.681094
-0.500879
-0.330951
-0.247995
-0.148206
-0.094475
-0.079555
0.040808
0.170056
0.350037
0.648086
0.697842
0.500007
0.264765
-0.183701
-0.591720
-0.717311
-0.813211
-0.847622
-0.734272
-0.488828
-0.127186
0.306933
0.734038
0.704771
0.401961
0.440261
0.416605
0.238643
0.296114
0.249079
0.026461
-0.044656
0.053029
0.267612
0.510017
0.604429
0.451483
0.297368
0.458178
0.642602
0.517244
0.333203
0.132095
-0.332503
-0.807388
-0.975531
-0.922969
-0.746962
-0.595036
-0.589701
-0.552570
-0.476629
-0.379645
0.051902
0.622325
0.964094
1.234555
1.320783
1.202206
1.074510
0.755568
0.380982
0.022061
-0.452123
-0.671467
-0.537310
-0.381643
-0.335628
-0.204744
0.033219
0.088820
0.023782
-0.192289
-0.404853
-0.229080
-0.210653
-0.503176
-0.704050
-0.889728
-0.754168
-0.287317
0.042996
0.182297
0.194411
0.206293
0.111328
0.022209
0.260406
0.352480
0.270374
0.300725
0.007267
-0.301154
-0.103404
0.103230
0.228503
0.707979
1.173660
1.142055
0.779159
0.171010
-0.505642
-0.948730
-0.996233
-0.355438
0.371162
0.444999
0.361725
0.296920
0.164782
0.156089
-0.040343
-0.435970
-0.452846
0.143996
0.678881
0.494139
0.094537
-0.053733
-0.068271
-0.003084
0.050179
0.004546
-0.241919
-0.371017
-0.077177
0.081295
-0.061364
-0.289358
-0.677738
-0.827411
-0.455248
0.180170
0.708743
0.764578
0.549442
0.406082
0.325613
0.487592
0.733504
0.435136
-0.061024
0.094409
0.580197
0.815121
0.873761
0.999268
1.249155
1.110003
0.705725
0.541557
-0.014456
-0.712851
-0.790982
-0.765073
-0.759972
-0.616930
-0.235182
0.449568
0.724471
0.625298
0.643960
0.491949
0.209479
0.159638
0.317876
0.123314
-0.518034
-0.674253
-0.302792
-0.282260
-0.611957
-0.550277
0.023653
0.632886
1.412090
2.028804
1.761064
1.088153
0.395603
0.096066
0.321170
0.265016
0.201147
-0.184661
-1.280044
-1.350693
-0.322028
0.597688
1.193595
0.989214
0.419407
0.453032
0.670187
0.357557
-0.200092
-0.532594
-0.855043
-1.139383
-1.110201
-0.994514
-1.038744
-1.004652
-0.845712
-1.157874
-1.352670
-0.643839
-0.254843
-0.655147
-0.964269
-0.813045
-0.195862
0.241530
0.159658
0.058849
-0.159326
-0.625794
-0.733618
-0.407045
-0.204386
-0.270593
-0.623202
-1.009945
-1.091349
-1.207822
-1.454521
-1.640666
-1.241851
0.105714
1.202415
1.669967
1.834751
1.066919
-0.000175
-0.954811
-2.067027
-2.226520
-1.216558
0.081208
0.776946
0.362615
-0.181708
-0.315015
-0.341944
-0.294058
-0.074799
0.746255
1.714133
2.468087
3.233496
3.091071
2.135265
1.091084
-0.100389
-0.602160
-0.390149
-0.344601
-0.301859
0.133897
1.215401
2.601776
3.262912
2.142747
-0.634807
-3.057691
-4.028460
-3.797043
-2.384249
-1.018681
-1.099618
-2.147539
-2.985278
-2.982515
-2.336108
-1.836993
-1.562324
-0.609409
0.294643
-0.027338
-0.312146
-0.373444
-0.888308
-0.774958
-0.304835
-0.156182
0.143503
0.336811
0.171006
-0.713024
-2.236489
-2.946106
-2.372644
-1.495479
-1.180597
-1.507020
-1.885815
-1.297389
0.746658
2.241982
1.374786
0.072492
0.313495
1.127067
1.224050
0.849698
0.645551
0.568823
0.713267
1.111147
0.863981
-0.078498
-0.795597
-1.308123
-1.454055
-0.434508
1.487965
3.138063
3.592990
3.184971
2.733700
1.984571
1.039754
0.792354
1.093208
1.426795
2.038833
2.993385
3.453222
2.604729
1.297292
1.522630
2.836762
2.366319
0.090260
-1.437881
-1.604621
-1.090310
-0.423095
-0.080624
-0.007956
0.143970
0.469841
0.641873
0.786551
1.417761
2.055050
1.471683
-0.732132
-2.981772
-3.635979
-2.720472
-0.974750
0.176425
-0.331893
-1.765113
-2.440362
-2.594009
-3.990523
-4.667642
-2.658898
-0.542842
0.566951
1.323243
1.394509
0.778176
0.243673
0.603679
0.602701
0.184161
1.401735
3.015127
3.071430
1.154717
-2.043906
-3.393426
-1.693061
0.972185
2.389889
1.713471
0.709270
0.696134
0.495961
-0.851221
-2.832929
-3.935092
-3.491621
-2.036509
0.144075
2.166847
2.800395
2.509508
2.493100
2.274691
1.389024
0.822959
0.477130
0.450201
1.577061
2.679373
2.725856
1.031952
-2.211560
-3.730116
-2.969148
-2.033534
-0.699296
0.831333
2.509253
4.729583
5.754274
4.857151
1.969479
-2.436707
-4.401114
-2.824662
-0.789733
1.009295
1.669262
-0.098990
-2.677816
-4.246170
-3.923807
-3.161904
-3.370961
-2.278235
0.261930
1.966503
1.760251
-1.246190
-4.464218
-4.277223
-2.692822
-2.120061
-1.386448
-0.581526
-0.198375
0.151811
-1.403685
-4.149676
-4.118156
-1.606281
0.935988
2.935847
4.379035
3.462507
-0.932924
-4.245873
-3.481633
-1.196307
0.506630
0.630967
0.870099
2.465957
3.092725
2.431504
1.222963
0.695006
1.283665
-0.234189
-3.884274
-6.293130
-5.425551
-2.920923
-3.428540
-4.766604
-2.399215
0.412154
0.377743
-1.827475
-3.215806
-1.416544
0.521592
0.494663
0.768163
2.109182
3.750630
4.580334
3.467884
1.816532
1.991136
4.724651
8.621775
10.155676
8.188230
4.814259
1.571214
0.427436
0.745357
-0.909035
-3.087600
-2.381341
0.219143
1.168084
-0.541718
-1.835127
-1.926117
-2.878415
-3.488201
-2.338896
-1.438352
-2.368206
-4.806754
-7.845927
-9.716582
-8.647937
-4.871452
-0.903955
1.701439
4.050358
5.857568
5.886984
5.391759
5.518902
5.190608
2.468698
-1.927669
-4.541798
-4.262687
-2.625213
-1.562647
-1.465898
-0.821361
0.514514
2.093772
3.139738
2.092518
-0.210896
-2.313243
-2.974464
-1.385621
-0.126197
-0.184222
-0.461548
-2.003483
-3.093722
-2.534989
-3.732541
-5.496351
-4.268957
-1.299073
1.779059
4.417419
6.251282
6.848357
4.903122
0.915901
-2.136365
-1.327469
1.505176
1.706199
1.379074
3.577895
4.843397
3.287667
-0.084901
-3.185796
-2.691825
-0.453493
0.344415
1.768665
3.681318
2.802665
-0.437573
-3.227519
-3.773244
-3.234618
-3.722595
-3.246626
-0.215721
1.609492
-1.132058
-5.927282
-6.944810
-4.046001
-1.976002
-0.466883
1.589087
2.159978
1.663584
1.112949
0.765483
0.511303
-0.752647
-1.455251
-0.219441
1.164363
1.634954
0.751625
-0.984362
-1.635764
-1.491086
-2.435202
-3.653094
-3.021416
-2.233796
-3.180016
-3.156211
-1.312996
0.703463
3.339485
4.265513
1.145212
-2.033070
-3.357808
-4.344008
-3.996394
-2.603004
-0.626525
1.546111
1.102087
-0.146667
-0.214978
-1.618506
-2.685599
-1.480650
1.442241
5.799010
8.444384
8.936017
8.500176
4.770366
-0.574282
-2.649275
-0.772393
1.216945
-0.264671
-2.971852
-3.034786
-0.513793
3.157250
6.367945
6.539510
3.223520
-0.426097
-1.977385
-1.737551
-1.136267
-0.136593
1.031182
-0.819132
-3.822067
-4.532151
-4.878682
-1.760804
4.455823
3.958494
-2.754336
-6.309032
-3.507716
0.849989
2.018933
1.157114
0.303243
1.099982
3.661890
5.900690
6.672412
4.579183
2.523127
3.153168
4.659248
8.769829
10.990626
4.393293
-4.774642
-8.858655
-7.144730
-3.902005
-2.423279
-1.414487
-2.921353
-5.757590
-5.470295
-5.840439
-7.497169
-5.290399
-0.787506
1.261217
-0.562445
-3.466951
-2.629298
1.352695
3.940788
4.472401
3.398527
1.564345
2.166798
4.897274
7.243153
8.004588
5.886109
1.915955
-0.934076
-0.654497
1.697227
2.605019
0.218608
-4.789840
-8.406258
-7.777620
-5.424025
-1.549112
3.313829
3.969354
1.379539
0.756426
1.865284
2.023990
-0.229390
-4.146472
-5.837804
-2.190376
3.402012
5.567166
5.093684
2.819262
-1.673429
-4.354425
-4.412683
-3.342869
-1.462012
-2.463409
-4.532791
-3.199487
-1.471067
-1.619103
-3.895396
-7.007514
-6.584383
-2.206338
2.474942
4.111247
3.412852
2.157552
-1.090402
-4.620550
-5.720842
-3.601747
0.982742
1.998314
-1.368175
-4.117440
-6.293667
-7.327327
-6.706404
-6.187183
-3.591375
2.069750
6.530793
6.268196
2.792991
0.517166
1.421919
2.675263
0.451341
-3.215578
-4.587309
-5.211590
-4.773496
-1.292298
1.368273
0.922379
0.326153
1.578095
4.318624
4.910323
0.927544
-4.226793
-6.324933
-3.063971
2.753330
5.716668
5.719197
3.295378
-0.577516
-3.115194
-4.500251
-3.632205
-0.742279
1.374479
3.523501
4.780820
3.766097
2.187923
0.737636
0.099093
0.079879
0.535741
2.047432
2.792268
2.222461
1.368123
-0.189477
-3.196619
-6.066991
-4.414788
0.410511
2.461806
2.186350
1.299748
-1.789458
-6.311373
-7.768908
-3.268821
0.747306
-1.390345
-2.964544
-0.875842
-0.986938
-3.414965
-3.926322
-1.532281
1.657373
2.746825
1.931766
0.975258
0.204620
0.155013
0.478546
0.891389
2.459425
3.763269
3.575488
3.148298
3.295314
4.349229
4.536926
2.224161
-1.502143
-4.554642
-3.852124
-0.192538
2.943108
3.944887
1.173646
-1.782296
-0.713651
0.763905
-0.253857
-4.149195
-7.984682
-4.547203
2.910185
5.657261
6.687563
8.182420
6.456954
3.615807
0.430510
-2.482646
-1.647097
-1.071531
-1.671731
0.623882
2.796985
2.669990
1.741305
1.535053
2.453834
3.136947
3.565455
2.136210
-0.864854
-2.378500
-3.869234
-4.450029
-1.395978
1.975102
2.529159
0.818422
-2.099410
-4.855221
-5.980296
-4.556280
-0.345400
2.970271
1.972148
-0.709783
-3.230628
-3.242594
-0.568697
-2.108295
-5.806543
-6.173647
-5.369193
-2.090463
2.248772
2.162926
0.485856
2.515875
6.605414
7.569785
4.538327
0.093799
-2.488301
-1.458233
0.790387
3.322836
4.790106
3.322751
1.627679
-1.226327
-6.249270
-9.160790
-8.091678
-2.969222
1.218746
-1.393747
-5.203049
-4.392750
-2.126362
-2.912197
-6.353501
-6.348400
-0.633269
5.430688
6.688475
1.873144
-3.836461
-4.567588
-2.685796
-1.167092
1.824068
6.625286
9.333083
6.927968
3.319967
1.230712
-2.536974
-4.565441
-0.484319
3.186723
2.079651
-0.580070
-2.763077
-3.632144
-3.675673
-4.574900
-5.258799
-4.701235
-4.292366
-5.280904
-7.365950
-8.021560
-5.759381
-1.898963
3.590087
10.907665
16.736188
17.367632
13.310272
7.330864
1.763408
-0.727511
-1.683784
-3.624578
-2.432956
2.017800
3.645454
0.760353
-4.736263
-9.814148
-12.114054
-10.295154
-5.977896
-4.759621
-5.418972
-3.832233
-1.812968
-0.235581
0.678758
2.145092
5.251280
5.688906
3.652723
3.413506
4.782580
5.748120
4.235877
-0.451801
-5.637934
-6.551656
-1.450243
6.721631
12.689263
12.634512
10.411759
7.918502
3.164193
0.944479
1.332306
-0.378665
-4.572329
-8.581995
-8.035653
-7.850996
-10.916588
-10.490886
-6.214075
2.148343
9.879742
9.622055
9.301009
13.229462
14.578897
8.412452
-0.852742
-1.931525
2.785292
5.552708
8.425566
11.479383
12.072952
7.775248
0.555312
-4.024351
-5.884017
-4.949104
-5.552344
-11.831713
-13.425786
-8.260545
-4.054341
0.908898
3.545154
0.411760
-1.357660
-1.353728
-1.455005
4.455815
12.742249
12.918958
11.236977
12.062941
4.644979
-5.480824
-8.083965
-8.925678
-8.062073
-6.165786
-5.462800
-1.354089
-1.156106
-5.747693
-3.641689
-0.392184
-1.788464
-3.427893
-4.832589
-5.889629
-7.782494
-7.898968
-2.354041
0.669851
-3.239750
-6.602732
-4.582532
-0.476861
-0.046483
-0.755866
2.092209
5.818428
9.235098
12.126660
10.873932
7.564489
7.407335
7.027606
3.243555
-0.416584
-3.346340
-6.218348
-9.513530
-11.651180
-8.885869
-7.297960
-8.679277
-4.192750
2.875600
2.894729
-4.885152
-10.912254
-5.344882
5.134103
7.861539
1.528864
-6.385450
-8.251896
-4.719963
-2.606479
-4.485550
-4.883515
0.472971
7.345166
11.908378
13.705068
11.055868
4.235960
-4.299320
-10.425786
-10.686746
-8.563208
-8.024114
-7.251690
-3.906094
0.049947
-0.067696
-3.125573
-5.199397
-5.568605
-3.236286
-2.982425
-7.082103
-6.236734
1.530670
10.859840
16.222405
12.425261
7.769380
8.312916
6.946094
7.437961
12.381328
12.143514
9.002171
8.581060
8.638765
8.238929
3.152394
-9.238670
-25.925525
-38.581247
-35.118752
-20.190138
-5.431494
5.418994
5.932604
-0.646961
-3.299901
1.064818
9.696103
16.600327
21.501610
23.155450
17.543571
10.999310
9.275714
10.409354
8.315657
3.431356
2.327323
3.525491
9.671979
19.652274
22.884478
19.211013
7.657645
-9.105895
-19.375015
-19.099644
-12.300161
-8.941706
-9.569026
-9.598527
-11.890484
-13.498117
-12.876493
-11.471881
-10.788534
-9.646945
-1.311180
5.568964
6.472548
9.499011
10.108010
7.626911
3.968175
-1.153430
-3.168104
-4.631951
-4.477454
-0.115774
4.230474
6.860183
2.140709
-8.677367
-11.522722
-6.458482
-3.309509
2.822483
11.788098
11.008342
5.804206
1.936221
-2.678979
0.860435
5.459419
1.366287
-0.140578
4.081524
9.960781
12.387788
8.037714
4.681745
4.325863
3.482046
3.322086
5.684331
8.071593
8.398165
12.618163
16.988259
13.392648
5.647370
-3.340775
-10.062488
-14.814928
-15.269005
-4.949704
1.761638
0.117767
-0.987201
-5.863787
-8.378553
-4.918864
-0.856679
4.658556
5.814875
5.596933
6.871553
0.254815
-8.754138
-12.036928
-9.067278
-2.014124
1.136018
0.335219
-1.770635
-4.952191
-5.784552
-7.282299
-11.638920
-14.161869
-12.197079
-6.118393
-2.787292
-10.055156
-22.483628
-29.660545
-31.443759
-29.017454
-20.005079
-7.494630
6.953531
18.284239
16.075747
8.533873
5.267916
2.738187
3.536796
2.984057
-4.184677
-6.932539
-1.528124
4.998518
2.375971
-7.797759
-6.965250
1.097440
2.523094
3.135132
4.805337
6.939864
10.286395
6.758820
-2.808674
-5.625273
0.721112
2.691045
-5.378276
-13.000811
-11.593628
-3.562267
-0.487408
0.897331
9.970025
9.867579
-3.211550
-11.041697
-8.920730
4.259782
17.474194
14.975561
2.524878
-12.746334
-23.405661
-23.445449
-22.009977
-19.042898
-5.086179
11.524607
17.619425
17.508095
17.062435
14.476361
10.348160
4.149450
0.679155
5.004362
8.400692
5.175416
-1.090627
-3.480077
-2.178804
-4.364851
-3.097245
4.115358
8.714576
10.338489
3.792824
-9.372342
-16.399162
-15.932779
-10.770110
-8.018826
-13.219455
-17.079257
-14.828767
-9.331300
0.824810
13.167159
18.738739
13.931124
4.970333
-0.702098
0.286120
7.199463
15.631085
20.304649
18.044021
10.454452
-1.238026
-14.358771
-18.128093
-12.468137
-7.649618
-5.294621
-9.494130
-17.469465
-15.709481
-10.528343
-9.661699
-8.589547
-10.744733
-12.451028
-7.031884
1.011167
8.048423
6.013642
-3.135355
-3.274974
1.819426
4.269111
5.561967
-1.318495
-11.718307
-13.076946
-7.369062
3.134939
12.668915
13.960135
12.016302
6.575563
-4.714082
-14.848300
-18.324441
-11.651442
-0.131358
7.890184
12.985051
7.981747
-6.155782
-11.203274
-8.539898
-7.559161
-5.247416
0.351519
9.664556
13.603296
6.268098
1.911945
3.242443
1.692558
-0.711622
-2.434750
-0.797043
4.489539
4.619955
2.080640
3.203526
1.470111
-2.844894
-5.279701
-9.946805
-11.851126
-5.441617
1.551451
5.900037
7.219313
3.387333
-1.973447
-6.576490
-8.200488
-4.420029
-1.310100
-0.025895
4.999535
5.473633
-2.906171
-3.947079
4.648669
8.569407
5.215075
-1.904094
-6.404968
-2.697220
0.268456
-3.920065
-8.871933
-11.006779
-9.107218
-2.464847
1.777362
-2.322082
-9.422313
-11.632208
-7.231952
0.805254
9.674779
17.438208
20.828460
19.335154
14.363646
4.031869
-9.405671
-15.562297
-9.776793
-1.321323
2.005803
3.300530
5.600351
8.030163
8.038070
4.496934
0.676878
0.682914
5.030098
6.596263
3.885575
4.079584
2.265977
-4.011289
-5.769487
-2.387418
2.794890
5.964203
4.645076
-0.227301
-9.789184
-15.767657
-11.023018
-3.814389
2.433333
6.142250
2.088163
-2.657730
-3.491962
-6.078503
-7.742013
-5.946960
-4.895149
-5.242381
-5.288481
-1.481369
3.858518
1.983655
-5.927152
-10.957342
-6.573218
3.459447
8.177667
5.573591
-1.781714
-11.474523
-14.884265
-9.087304
-3.944508
-1.740544
2.619499
2.094581
-4.463241
-10.121411
-13.682887
-6.210535
4.329704
1.317184
-0.200203
4.882975
6.288755
7.777534
7.538316
5.248463
4.105854
1.047977
-1.502794
-2.443403
-3.408794
-5.279215
-8.971384
-10.616892
-9.234958
-6.529499
-4.736784
-7.914833
-10.471215
-5.430121
1.420798
4.819233
4.730347
-0.947462
-6.333024
-4.107317
-3.177548
-8.050159
-8.031966
-0.731221
4.754789
5.732721
7.212147
6.910974
1.945545
-1.450169
-1.590723
-0.484437
2.175899
5.530614
7.147747
2.846068
-4.350254
-5.124633
1.433338
6.879836
8.518245
13.010617
14.349531
5.157048
-1.787942
-3.254128
-6.333280
-5.504979
0.383630
5.171522
6.168859
0.067643
-9.716348
-12.286056
-5.872572
1.933175
5.022763
3.602636
2.634906
3.374365
4.315356
5.059257
4.420714
3.740087
4.497314
6.495303
8.074327
5.914699
1.906436
-2.856758
-7.821719
-6.584974
-0.496234
5.087503
10.976112
16.094827
17.084215
12.582873
5.707321
1.323346
0.818067
1.664371
-0.700531
-3.610414
-2.348887
-1.664371
-1.310210
4.483477
9.025180
5.452949
0.717343
-0.743465
-1.425728
-0.095931
2.390928
2.987536
3.265011
4.666349
6.503719
5.226676
-0.695685
-4.900805
-4.963739
-4.258883
-0.058056
8.852850
12.829699
7.985143
2.620856
-1.986395
-8.626280
-12.041633
-8.611402
-2.178045
-0.159014
-1.613276
1.409446
4.107424
0.075782
-4.499440
-3.945383
1.674594
7.815236
11.156624
10.664438
4.635466
-1.216756
-4.285154
-8.051904
-8.559521
-7.034036
-7.895388
-7.865504
-6.768804
-6.236256
-4.341372
3.030681
13.308133
18.587466
20.999744
20.412870
15.900540
12.604892
3.967677
-5.813274
-5.198196
-6.767954
-11.880441
-6.609992
2.366144
5.574034
6.386671
5.602706
0.911989
-4.289809
-8.349975
-10.263882
-3.473049
6.702233
9.706018
9.196297
9.086370
7.363008
5.028032
6.355958
9.501891
9.721618
12.149794
14.285957
8.790276
6.012488
9.359487
11.155008
13.642334
14.824838
9.679853
3.286391
-1.210976
-4.633343
-7.094803
-10.561124
-10.832605
