EVENT_NAME: 202302060117
EVENT_ID: 13194
EVENT_DATE_YYYYMMDD: 2023/02/06
EVENT_TIME_HHMMSS: 01:17:32.00000
EVENT_LATITUDE_DEGREE: 37.288
EVENT_LONGITUDE_DEGREE: 37.043
EVENT_DEPTH_KM: 8.6
HYPOCENTER_REFERENCE: AFAD
MAGNITUDE_W: 7.7
MAGNITUDE_W_REFERENCE: AFAD
MAGNITUDE_L: 
MAGNITUDE_L_REFERENCE: 
FOCAL_MECHANISM: 
NETWORK: TK
STATION_CODE: 0127
STATION_NAME: 
STATION_LATITUDE_DEGREE: 37.816183
STATION_LONGITUDE_DEGREE: 35.92044
STATION_ELEVATION_M: 614.0
LOCATION: Kahramanmaras_Pazarck_Turkiye
SENSOR_DEPTH_M: 
VS30_M/S: 583
SITE_CLASSIFICATION_EC8: B
MORPHOLOGIC_CLASSIFICATION: 
EPICENTRAL_DISTANCE_KM: 115.07
EARTHQUAKE_BACKAZIMUTH_DEGREE: 
DATE_TIME_FIRST_SAMPLE_YYYYMMDD_HHMMSS: 2023/02/06 01:17:31.8820710
DATE_TIME_FIRST_SAMPLE_PRECISION: millisecond
SAMPLING_INTERVAL_S: 0.01
NDATA: 12501
DURATION_S: 
STREAM: HNN
UNITS: cm/s^2
INSTRUMENT: sensor = ACEBOX/SARA | digitizer = 
INSTRUMENT_ANALOG/DIGITAL: 
INSTRUMENTAL_FREQUENCY_HZ: 
INSTRUMENTAL_DAMPING: 
FULL_SCALE_G: 
N_BIT_DIGITAL_CONVERTER: 
PGA_CM/S^2: 54.987
TIME_PGA_S: 
BASELINE_CORRECTION: BASELINE REMOVED
FILTER_TYPE: BUTTERWORTH
FILTER_ORDER: 
LOW_CUT_FREQUENCY_HZ: 
HIGH_CUT_FREQUENCY_HZ: 
LATE/NORMAL_TRIGGERED: 
DATABASE_VERSION: 
HEADER_FORMAT: DYNA 1.2
DATA_TYPE: Acceleration
PROCESSING: Automatic Paolucci et al., 2011
DATA_TIMESTAMP_YYYYMMDD_HHMMSS: 
DATA_LICENSE: U (unknown license)
DATA_CITATION: Turkish Accelerometric Archive v 1.0 - Disaster And Emergency Management Presidency, Earthquake Department
DATA_CREATOR: AFAD
ORIGINAL_DATA_MEDIATOR_CITATION: : AFAD - Disaster And Emergency Management Presidency
ORIGINAL_DATA_MEDIATOR: AFAD PROCESS SERVICE
ORIGINAL_DATA_CREATOR_CITATION: AFAD PROCESS SERVICE
ORIGINAL_DATA_CREATOR: network: TK
USER1: GuestUser
USER2: 
USER3: 
USER4: 
USER5: 
[...]
7.424624
8.227017
10.342884
11.744032
11.359670
9.885579
8.875342
9.344107
9.520625
7.476771
3.302555
-1.820643
-4.848083
-4.696347
-4.442676
-5.061536
-5.179135
-5.362899
-5.919803
-6.102865
-6.870187
-9.489182
-12.965279
-14.734890
-13.445263
-10.459671
-7.717929
-7.396690
-11.416833
-17.137384
-20.244081
-19.913023
-16.947771
-13.296558
-10.289690
-6.609954
-2.760013
-0.887764
-0.780216
-1.201985
-0.825570
1.124768
3.003563
3.285524
2.459052
1.223902
0.954335
2.858848
5.924399
8.423226
8.412472
4.949000
-0.274731
-5.240584
-8.401755
-9.126760
-7.939302
-4.577998
0.234019
4.583818
7.617338
9.009836
10.421037
13.093107
13.874927
11.569219
8.846417
5.786947
2.162857
-0.269101
-1.619279
-1.836242
-0.283593
1.206865
1.854719
2.467736
2.882727
3.460909
3.231088
0.023156
-4.881442
-8.759202
-10.484625
-8.970786
-4.066186
1.334532
3.682559
2.612002
0.120426
-2.371150
-4.186819
-4.605315
-3.847577
-4.307923
-7.094785
-9.407974
-9.871827
-9.404699
-7.414148
-3.933840
0.361484
5.007504
7.925529
7.639830
5.222601
3.262680
2.267172
0.635970
-0.081319
1.259509
3.036837
4.762729
4.326465
0.357991
-4.406796
-7.080734
-5.109588
0.412470
4.707795
6.238934
4.853453
1.011229
-2.148306
-3.177013
-1.823559
1.999495
5.571217
7.661599
9.337693
9.876597
9.324836
7.805623
3.924823
-0.641704
-3.098445
-3.821111
-4.464286
-5.848131
-7.234548
-7.468110
-5.774482
-1.880587
2.399774
5.249530
7.155914
8.718149
9.920102
10.212817
8.271132
4.980202
3.516399
4.532015
6.296017
7.468043
6.792604
4.474973
1.865563
-1.183854
-4.398565
-5.804153
-4.926243
-4.617864
-7.435120
-12.126027
-16.626389
-19.692405
-20.334178
-19.226913
-16.337178
-11.231044
-6.052901
-2.186595
0.113737
-0.122163
-1.866757
-2.472758
-1.064830
1.017837
3.041120
5.537842
8.161749
10.840833
13.906384
16.502236
17.964873
18.281202
18.491621
19.993302
21.652094
21.047262
17.089543
10.429595
2.694414
-4.529687
-9.675330
-12.333604
-13.143243
-12.621640
-12.195894
-12.774073
-13.513339
-13.683309
-13.059303
-11.584976
-9.290021
-6.713107
-4.665041
-2.996663
-1.861343
-1.325478
0.322794
3.092591
4.443239
4.238434
4.701587
6.724636
9.096510
9.543532
7.802211
6.126821
5.848135
7.219124
9.954553
13.293413
16.374160
16.576396
13.245020
10.385447
9.796512
9.367729
7.168867
2.450138
-3.284674
-6.911804
-6.717050
-4.122133
-2.424530
-2.771250
-3.369068
-2.735710
-1.422704
-0.839846
-1.041846
-1.459407
-2.095100
-1.991761
-0.859480
-0.346527
-0.603002
-0.312157
1.175496
3.610963
5.672121
7.189233
8.805474
9.394878
9.017297
9.410779
10.897029
12.463004
12.348912
10.440660
8.203923
5.602929
3.115561
1.755797
1.706467
3.878912
6.817745
7.205616
4.505726
-1.192380
-8.538055
-13.700765
-16.382652
-18.232455
-18.016192
-16.025874
-14.677798
-14.723855
-15.569265
-15.514555
-13.351462
-9.524901
-4.493115
1.058168
6.801399
12.583674
16.964802
19.168810
19.390918
18.147586
16.421695
13.885464
10.616511
8.193905
5.843776
1.411683
-4.981269
-11.653140
-16.325110
-16.908667
-13.855040
-10.265315
-8.702613
-8.468581
-6.880629
-2.988371
1.773613
5.067350
4.412485
0.163220
-3.835413
-5.549613
-5.515712
-3.814368
-1.643092
-0.475039
0.620536
2.117073
2.923441
2.560822
1.633817
1.742067
2.951968
3.210549
2.258762
1.313988
1.373140
2.276300
1.428552
-1.564987
-4.063577
-5.153773
-4.769175
-4.516673
-6.664801
-8.580067
-7.031627
-2.599297
3.094602
7.528569
8.994478
8.776347
8.775413
10.036516
12.084815
13.148828
12.589586
10.894089
8.470080
5.772762
3.218996
1.564180
0.868166
0.237382
0.317576
1.346986
1.416191
-0.222726
-2.801275
-4.829933
-4.605019
-2.523988
-0.316707
1.105015
1.682729
1.516266
0.953284
0.977834
1.644157
1.532403
-0.985593
-6.102478
-10.491787
-10.908647
-8.626784
-6.430492
-5.570818
-4.881816
-2.809436
-0.722327
1.552755
6.662629
13.125021
17.420111
18.900283
18.990763
18.758370
16.697916
11.213735
3.683827
-3.027322
-6.962831
-8.331479
-7.306510
-4.104890
-1.288800
0.474967
3.086016
5.903976
7.192667
6.942973
5.627397
4.011859
3.553851
4.838802
6.750096
8.326124
10.158628
12.561364
13.878812
13.050002
10.969208
8.188190
5.366960
3.608104
3.046992
3.525810
3.954829
2.819978
0.755082
-1.266562
-3.319067
-5.192016
-7.353003
-10.849206
-15.604408
-20.354700
-23.459059
-24.884052
-25.882599
-26.623969
-26.964377
-25.543356
-19.948352
-11.463849
-3.123130
4.024053
9.191442
12.611429
15.270407
16.318755
15.050873
13.399798
13.039751
12.141269
9.684295
7.740739
5.879013
2.804112
0.121991
-1.467361
-2.094638
-2.070089
-2.788547
-3.141345
-2.258058
-2.856812
-5.718489
-9.167933
-11.210853
-9.147591
-2.819165
4.900120
10.645689
13.075311
14.715634
17.229657
18.920714
18.089098
13.630351
6.453010
-0.175609
-3.782398
-3.841314
-1.422446
2.521949
6.519883
7.658477
6.226470
4.472991
2.041501
-0.837712
-2.699204
-3.529183
-3.616623
-3.065561
-3.023243
-3.933415
-3.405733
-1.056537
0.095383
-0.078327
-1.036193
-3.467684
-5.443503
-6.110994
-6.373079
-5.827629
-5.116417
-4.651393
-2.646113
1.238430
3.825164
2.642151
-0.875795
-4.352593
-5.496095
-3.679489
-1.677248
-0.328471
0.904344
0.578899
-0.575357
0.105929
3.453673
7.668104
10.081360
9.678529
7.184614
5.984300
8.328353
10.876744
12.031236
13.468857
13.889927
12.623915
11.451657
10.084412
7.387561
3.751547
-0.320966
-4.272606
-7.119087
-9.081580
-11.160738
-13.461536
-15.671854
-17.737686
-19.721221
-20.654304
-18.736231
-13.757517
-7.256783
-1.432424
1.739271
1.841207
-0.424988
-4.091162
-7.640671
-9.220906
-8.424825
-6.642354
-4.349970
-1.748507
-0.379857
0.097792
2.446988
7.525533
12.457488
14.711528
15.043989
13.893708
11.559009
10.126768
9.550225
8.751575
7.900086
6.056830
3.325611
1.444246
0.608889
-0.186020
-1.521002
-2.066216
-0.365106
2.851946
6.878170
10.414354
11.198511
9.586247
7.739951
7.475293
9.700810
13.147217
16.247837
19.157446
21.073883
19.407845
13.955226
7.627504
2.383900
-1.621514
-4.783153
-8.075953
-11.956051
-16.295795
-22.033178
-29.659177
-37.040856
-41.869938
-44.199493
-44.770892
-43.709218
-41.040655
-36.483945
-30.817633
-26.909711
-25.761298
-24.532692
-20.738395
-14.304995
-6.283409
1.405482
7.487953
12.673811
17.674970
22.158969
24.537156
22.761934
18.233282
14.130141
11.491039
11.429084
13.279122
12.829765
8.340625
1.668052
-4.820990
-8.508673
-8.098825
-5.140354
-1.904131
0.942118
3.201302
4.343637
5.236743
7.122319
8.798179
8.181423
5.285845
1.261728
-2.438113
-4.523350
-5.750784
-6.823445
-7.796508
-9.494109
-10.605346
-10.349571
-10.280132
-8.963151
-4.846681
0.623708
6.388448
11.820261
16.025808
16.880805
12.462506
5.165928
-0.878432
-3.987934
-5.201107
-6.136061
-6.842128
-7.582797
-8.408334
-8.365080
-8.535050
-9.967992
-11.343888
-11.258317
-9.599290
-8.468178
-9.162789
-9.549722
-9.373204
-11.259012
-15.005378
-18.895296
-22.558196
-23.642313
-20.314676
-15.385994
-10.477420
-5.151751
-1.451440
-0.889624
-2.441570
-3.604242
-2.055802
1.168497
4.585679
8.722957
12.356635
13.350274
12.241375
11.731464
14.685494
21.921520
30.253822
34.052795
30.619249
22.609356
14.974474
11.060241
10.232366
9.437456
6.903095
3.040064
-0.718226
-3.965903
-7.232517
-10.066139
-12.246297
-13.981306
-15.010012
-16.480596
-19.412647
-21.141342
-17.638357
-8.686726
1.837425
10.295977
15.463833
18.036539
18.949051
18.072079
16.343149
14.499425
10.848448
5.990142
2.752051
1.264634
-0.340617
-3.578007
-7.800151
-11.526878
-15.139512
-18.804985
-22.098953
-24.865007
-26.041007
-25.164266
-22.578467
-18.499405
-14.087182
-10.113329
-6.374675
-3.235011
-0.398348
3.151397
6.933771
8.828932
6.334083
-0.134385
-7.093593
-12.531950
-14.661842
-12.542469
-9.636368
-7.586199
-4.684774
-0.645457
4.506968
9.264042
11.299248
10.845917
9.152992
8.377020
9.688857
10.992278
11.095384
10.521646
9.557468
9.644909
10.956980
10.702376
8.547234
5.903456
1.909264
-3.084878
-8.133261
-11.624321
-8.836755
-0.871515
5.743780
9.324620
10.428144
10.175410
9.870540
8.023776
5.293726
2.985213
-0.252410
-2.860885
-2.961417
-1.520991
0.423502
0.413684
-2.112962
-3.494002
-2.541978
-1.145038
-0.746179
-2.616088
-6.676444
-11.136594
-14.968062
-18.477826
-21.641803
-23.465888
-23.377044
-21.896405
-18.816359
-12.585894
-4.042474
3.420570
9.202845
13.760490
16.107114
18.295458
22.515967
26.999732
29.786129
29.222211
25.426747
21.452896
18.229768
15.405031
13.077580
9.425201
3.123664
-4.896283
-11.951582
-15.526341
-17.385729
-20.728094
-25.208116
-28.376769
-27.818460
-22.980960
-17.024506
-13.224364
-11.105458
-10.788662
-13.658522
-16.122511
-13.775419
-8.058373
-2.765202
-0.182676
0.439693
2.022034
5.816565
10.604500
14.758611
18.395329
22.659558
26.593198
28.098152
26.516047
22.190097
16.842220
12.958615
9.804457
4.156384
-4.864917
-14.985765
-22.036155
-22.419113
-17.235827
-11.679400
-8.934619
-7.390387
-5.325255
-3.470306
-2.248714
-1.805901
-2.236555
-2.195873
-0.170252
4.104264
8.776236
10.306207
6.665984
-0.636439
-7.615520
-11.394851
-12.631638
-12.776357
-11.659039
-9.379047
-6.947788
-5.434651
-6.956670
-12.517303
-18.940414
-22.873818
-22.888547
-17.203999
-6.919022
4.003753
14.301823
23.140062
27.623593
27.258403
24.515962
21.859325
21.198381
23.266085
25.712541
23.874428
16.481525
6.929038
-2.694057
-11.305510
-16.741997
-19.959280
-23.000981
-25.597533
-28.525608
-31.780533
-32.943907
-31.474724
-28.048190
-22.987647
-17.740066
-13.682514
-10.736433
-8.512085
-7.444566
-7.567542
-7.484309
-5.884667
-2.083824
4.029274
11.437843
18.663349
24.293656
27.155335
26.998458
25.094882
23.540599
23.483320
24.953906
27.182930
28.453853
27.342849
23.982249
19.895707
15.885851
10.905503
4.499693
-2.672271
-10.069849
-16.032613
-18.781133
-19.489771
-20.842054
-23.706537
-26.862799
-27.920496
-25.315760
-20.330266
-14.609947
-8.774366
-4.199420
-0.580238
3.840870
8.258470
11.902202
14.903458
15.563001
13.798535
13.005028
15.620051
20.197335
23.286967
22.240959
16.166674
7.924152
2.515487
2.344816
7.772655
16.321920
23.181767
27.717435
32.034503
36.332867
40.199407
42.058564
39.058946
30.901527
20.920489
12.238195
5.904394
2.792553
2.521350
3.139745
3.411886
1.916286
-1.551161
-4.777094
-7.451500
-10.597942
-12.701415
-11.473043
-7.207411
-2.483770
0.661272
1.134245
-0.889036
-2.883325
-3.685249
-4.260389
-4.979081
-6.670603
-8.704170
-8.921835
-8.456577
-9.489492
-11.676898
-14.191854
-17.104266
-20.058994
-20.848059
-17.508732
-11.375761
-6.087032
-3.784829
-3.458213
-3.930950
-4.126404
-1.872129
1.932455
5.192993
8.752089
11.033484
9.296839
5.459292
1.408288
-2.556913
-4.805574
-5.344008
-5.596741
-5.459034
-5.339796
-6.283635
-7.419421
-7.714004
-7.504053
-6.882151
-6.296254
-6.280589
-6.000031
-4.803689
-2.184457
1.373938
3.434395
4.379170
6.142704
7.729955
9.007892
10.030756
9.019818
7.661457
8.673332
11.333713
15.134556
18.718201
19.107709
16.551604
13.040204
10.595621
11.806458
14.397635
12.455014
5.716043
-1.349777
-5.626395
-5.399377
-1.153852
3.820420
7.468360
9.620231
10.253355
10.033353
8.693696
5.718159
2.971042
1.253569
-0.181478
0.731969
5.447193
10.181589
10.886489
7.631097
2.373465
-2.055355
-3.878739
-4.932930
-7.248223
-11.861743
-18.542499
-22.914039
-22.429143
-19.507611
-15.644110
-12.315070
-10.280565
-6.807739
-1.851002
1.172933
0.379192
-3.667604
-6.580717
-4.622663
-1.085777
-0.768747
-4.345610
-9.373186
-11.317676
-7.979518
-2.600777
1.184869
3.366900
5.247567
7.430065
10.543544
14.512956
17.758063
19.249690
19.231689
18.758251
20.221823
24.672155
30.280718
35.747835
39.222998
37.277806
30.752292
23.956975
19.223283
18.131919
20.677972
22.588564
20.078986
14.245044
7.845078
1.617188
-5.389715
-14.096324
-22.542015
-26.642818
-25.942127
-23.484215
-21.939048
-22.999084
-26.043824
-29.305529
-33.457300
-39.194683
-43.847949
-45.021610
-43.175079
-38.367504
-31.645130
-26.398953
-22.329009
-15.984451
-5.742026
7.972991
21.886501
31.654084
35.006738
33.001226
30.836264
31.696639
33.693737
35.293379
34.108963
27.994932
20.033668
12.203331
4.031884
-1.808604
-3.983385
-3.076952
0.070428
0.253024
-3.628477
-5.510777
-5.604295
-6.723482
-6.388917
-3.722224
1.279168
8.718598
14.266609
14.863494
11.073408
2.690374
-7.402419
-13.355598
-15.206803
-16.929888
-18.243126
-16.704271
-12.289944
-6.770457
-1.162595
4.936475
10.249519
12.164320
10.110646
5.483565
1.111090
-0.365339
1.848956
7.238686
13.536250
17.165252
15.617515
10.443817
5.735609
2.431587
0.256338
-0.510750
-2.299531
-5.460002
-6.722974
-5.187860
-1.613800
2.770601
6.437946
9.827307
13.697821
17.413562
19.201411
17.777353
13.657846
6.896197
-1.570069
-8.916211
-13.621380
-13.921809
-9.081970
-2.263740
4.489028
10.353132
12.291312
9.440623
5.583905
4.596112
6.516057
8.773370
9.329809
6.422307
-0.832888
-9.754123
-16.750038
-20.900640
-23.348963
-27.179731
-35.189624
-45.648310
-53.465086
-54.674051
-49.386257
-41.644059
-35.112698
-29.167466
-21.317021
-11.437682
-0.237857
12.707499
26.547830
38.335188
46.085101
50.858307
53.509101
53.359706
52.277693
52.738977
54.211900
54.987407
52.111702
44.118174
35.833102
32.880243
34.533893
36.889167
37.928631
37.056335
33.934207
28.743207
21.856476
14.162209
6.257759
-2.953619
-12.510782
-18.790342
-22.199572
-25.825533
-29.757534
-33.242048
-36.493933
-39.724309
-42.825394
-44.595472
-43.772739
-41.451131
-40.667441
-41.662014
-41.427982
-38.981526
-34.263262
-27.361098
-21.326790
-17.177822
-12.635140
-7.617382
-2.402300
3.167220
7.739127
11.814214
16.145543
18.649045
18.465516
16.070264
11.518700
6.796931
5.518295
9.753300
16.772362
21.575728
22.089382
17.283446
7.955171
-1.785991
-10.667948
-19.712628
-28.003546
-34.778522
-39.626541
-42.108999
-42.471384
-40.524319
-36.746388
-33.006566
-30.459577
-28.356102
-24.886082
-19.483026
-13.512311
-8.854367
-5.814534
-2.605899
1.386892
6.021222
12.086860
18.046353
22.543211
27.146446
31.743837
35.317897
38.343234
40.273700
40.360439
39.651801
38.938954
37.714325
35.655274
31.996114
26.079875
20.053050
16.336376
13.990222
9.928931
1.771278
-10.286581
-23.533066
-34.176218
-40.501835
-43.728236
-44.198635
-41.370623
-35.502778
-27.416431
-19.598015
-13.193839
-7.065311
-2.620356
-1.473346
-3.348632
-8.526072
-15.141364
-20.169641
-22.470906
-21.009438
-16.942300
-12.889423
-9.106349
-5.676542
-2.240656
1.090956
1.145432
-2.882426
-8.719642
-15.046194
-19.926945
-21.853433
-21.090084
-16.722283
-7.709631
3.759763
14.252585
22.609669
29.322691
35.240803
40.663264
44.869511
47.994447
49.923509
48.726936
43.924040
36.812629
28.104851
18.744779
9.729557
1.194088
-6.250951
-12.245746
-17.696260
-22.245486
-24.594446
-25.105059
-23.989611
-20.817214
-17.695552
-17.296927
-18.857756
-20.421158
-21.079530
-19.746650
-16.291827
-12.509688
-8.667930
-2.722698
4.798561
11.740003
19.010865
26.147762
29.302389
27.406294
21.626827
12.882343
3.280057
-6.572393
-17.988011
-28.978118
-35.135869
-35.640169
-33.839227
-32.789243
-32.962953
-33.248652
-30.973570
-23.541387
-12.611130
-1.703786
8.198699
16.055223
20.587618
23.175755
24.811869
23.169912
16.403353
7.628475
1.016923
-4.446918
-11.668447
-21.353965
-32.941658
-43.863730
-50.955969
-53.413878
-51.891857
-47.647266
-42.365084
-36.988447
-31.319096
-24.421608
-15.455949
-5.415525
3.082072
8.948514
12.967022
16.550902
22.123928
29.893714
36.081861
38.340811
37.657423
35.183147
32.306975
30.267562
28.106575
25.205620
23.203615
22.822994
22.898745
22.385328
21.089157
19.554980
17.699566
14.087633
8.282448
2.130542
-2.454455
-5.781857
-9.324118
-13.699399
-19.289023
-25.811030
-31.344777
-34.580062
-35.395312
-33.572861
-30.383865
-28.750323
-29.153856
-29.961624
-31.836210
-34.836529
-36.225284
-34.853126
-30.441838
-23.116501
-15.345079
-8.820965
-4.129355
-1.843050
-1.174389
-2.068896
-5.270515
-9.559057
-12.970625
-14.355406
-13.542725
-11.932329
-10.990124
-11.022154
-11.939105
-12.246781
-9.708443
-3.901152
4.497081
14.233335
23.726206
32.087265
38.418496
41.943926
42.375751
40.261523
36.986259
32.922162
27.949061
22.267789
16.357863
11.432457
8.310095
8.013875
10.987310
15.778285
20.527410
21.641689
16.889059
9.126757
1.686628
-3.099435
-4.803115
-6.420523
-9.769902
-14.377811
-19.801906
-25.127339
-28.866925
-29.605724
-26.636731
-20.979538
-15.051607
-10.673284
-8.086784
-6.424718
-5.280981
-6.004582
-9.040205
-11.261512
-9.115252
-3.139626
4.187815
12.109569
18.595807
20.198021
16.320027
8.696834
-0.191669
-7.593689
-11.478464
-11.920106
-11.571045
-12.370397
-13.789311
-15.321618
-17.240391
-18.339003
-16.677638
-12.771586
-7.702393
-2.771374
-0.551702
0.084930
1.922811
4.164460
5.742359
6.458949
6.591045
8.067242
12.489986
18.423061
21.484169
20.012650
17.137646
15.053813
13.861915
12.161743
7.345988
0.803874
-3.270744
-4.871787
-6.147150
-7.035111
-7.403574
-7.071815
-5.087810
-1.945106
2.351154
7.814529
11.308163
10.631321
6.335063
-0.115636
-5.852084
-9.159847
-10.484775
-10.052015
-7.738824
-3.830200
0.434263
4.017675
7.043714
9.476142
10.945559
10.679732
8.297339
5.464886
4.078002
4.649871
6.701911
8.737585
9.508649
8.421259
5.317134
1.700292
-1.375077
-4.503517
-7.436035
-10.831237
-15.989505
-21.435344
-25.569346
-27.927190
-28.328619
-28.134099
-28.291677
-28.270634
-26.785553
-21.932388
-13.509607
-3.129007
7.273336
15.558177
20.942762
23.796727
24.031694
22.561578
20.998177
19.213370
17.813626
18.800486
20.691439
21.110405
21.262608
21.327839
19.758592
17.090499
13.981464
10.652192
8.185398
6.159780
3.159928
-0.466500
-3.824061
-6.489349
-7.254333
-5.177043
-2.124585
-1.320789
-2.858472
-3.828262
-2.851690
-0.965880
0.707642
1.327907
-0.010581
-3.817501
-9.184784
-12.833890
-11.988946
-8.158644
-4.257969
-1.137242
0.683572
1.261520
1.623205
0.797434
-2.047410
-4.995125
-7.291948
-9.318969
-10.236856
-10.265144
-9.636229
-7.585592
-5.158074
-2.445323
2.336066
7.521691
10.072887
10.196100
9.394410
8.872342
9.154770
9.293179
8.091696
5.748113
3.901116
3.711507
4.958583
6.966201
7.638136
4.610228
-0.760327
-5.073184
-6.807024
-5.976575
-3.920093
-2.767004
-2.993085
-3.703594
-3.412047
-0.468539
4.660273
10.324948
15.214585
17.972926
19.203870
20.475962
21.956835
23.402639
23.545022
21.511922
18.929399
17.183636
16.406962
15.896116
14.089566
10.615573
6.489520
2.678626
-0.567180
-3.385371
-4.671255
-3.305411
-0.230508
3.477284
7.563126
11.149344
13.121658
13.725792
14.086776
13.580138
10.578182
6.166195
3.619443
4.825838
8.273881
9.980602
7.038498
-0.239843
-9.376639
-17.268933
-21.271073
-20.848133
-18.048409
-15.307837
-14.037615
-14.234939
-14.007453
-11.327434
-6.089673
-0.602684
2.612497
4.419751
