EVENT_NAME: 202302060117
EVENT_ID: 13194
EVENT_DATE_YYYYMMDD: 2023/02/06
EVENT_TIME_HHMMSS: 01:17:32.00000
EVENT_LATITUDE_DEGREE: 37.288
EVENT_LONGITUDE_DEGREE: 37.043
EVENT_DEPTH_KM: 8.6
HYPOCENTER_REFERENCE: AFAD
MAGNITUDE_W: 7.7
MAGNITUDE_W_REFERENCE: AFAD
MAGNITUDE_L: 
MAGNITUDE_L_REFERENCE: 
FOCAL_MECHANISM: 
NETWORK: TK
STATION_CODE: 4211
STATION_NAME: 
STATION_LATITUDE_DEGREE: 37.1856
STATION_LONGITUDE_DEGREE: 32.24991
STATION_ELEVATION_M: 1138.0
LOCATION: Kahramanmaras_Pazarck_Turkiye
SENSOR_DEPTH_M: 
VS30_M/S: None
SITE_CLASSIFICATION_EC8: unknown
MORPHOLOGIC_CLASSIFICATION: 
EPICENTRAL_DISTANCE_KM: 424.42
EARTHQUAKE_BACKAZIMUTH_DEGREE: 
DATE_TIME_FIRST_SAMPLE_YYYYMMDD_HHMMSS: 2023/02/06 01:18:05.9791560
DATE_TIME_FIRST_SAMPLE_PRECISION: millisecond
SAMPLING_INTERVAL_S: 0.01
NDATA: 21001
DURATION_S: 
STREAM: HNZ
UNITS: cm/s^2
INSTRUMENT: sensor = ACEBOX/SARA | digitizer = 
INSTRUMENT_ANALOG/DIGITAL: 
INSTRUMENTAL_FREQUENCY_HZ: 
INSTRUMENTAL_DAMPING: 
FULL_SCALE_G: 
N_BIT_DIGITAL_CONVERTER: 
PGA_CM/S^2: 3.005
TIME_PGA_S: 
BASELINE_CORRECTION: BASELINE REMOVED
FILTER_TYPE: BUTTERWORTH
FILTER_ORDER: 
LOW_CUT_FREQUENCY_HZ: 
HIGH_CUT_FREQUENCY_HZ: 
LATE/NORMAL_TRIGGERED: 
DATABASE_VERSION: 
HEADER_FORMAT: DYNA 1.2
DATA_TYPE: Acceleration
PROCESSING: Automatic Paolucci et al., 2011
DATA_TIMESTAMP_YYYYMMDD_HHMMSS: 
DATA_LICENSE: U (unknown license)
DATA_CITATION: Turkish Accelerometric Archive v 1.0 - Disaster And Emergency Management Presidency, Earthquake Department
DATA_CREATOR: AFAD
ORIGINAL_DATA_MEDIATOR_CITATION: : AFAD - Disaster And Emergency Management Presidency
ORIGINAL_DATA_MEDIATOR: AFAD PROCESS SERVICE
ORIGINAL_DATA_CREATOR_CITATION: AFAD PROCESS SERVICE
ORIGINAL_DATA_CREATOR: network: TK
USER1: GuestUser
USER2: 
USER3: 
USER4: 
USER5: 
[...]
0.040837
0.093442
0.168257
0.273466
0.401354
0.548880
0.698745
0.848375
1.008761
1.177563
1.344027
1.462095
1.493892
1.453913
1.370447
1.266642
1.157225
1.042665
0.927169
0.812141
0.691736
0.551224
0.386865
0.221103
0.086437
0.013025
-0.007315
-0.001704
0.028690
0.085503
0.165930
0.245188
0.282829
0.258515
0.164529
0.035941
-0.078386
-0.165124
-0.228717
-0.301895
-0.383957
-0.444744
-0.487295
-0.499686
-0.500621
-0.515350
-0.521428
-0.533351
-0.558601
-0.595073
-0.681578
-0.815777
-0.987617
-1.179565
-1.338313
-1.463627
-1.554574
-1.594086
-1.606009
-1.588240
-1.531193
-1.450533
-1.352104
-1.232399
-1.071312
-0.861362
-0.608860
-0.329706
-0.065047
0.173660
0.396469
0.606887
0.814032
1.012760
1.198629
1.353403
1.451365
1.497657
1.484097
1.423778
1.356678
1.283500
1.207984
1.129896
1.032169
0.925558
0.826896
0.753718
0.689190
0.594737
0.482748
0.370760
0.251523
0.131586
0.024975
-0.054048
-0.093794
-0.105951
-0.112964
-0.132837
-0.163230
-0.189882
-0.218873
-0.271009
-0.363359
-0.488440
-0.604871
-0.672438
-0.683660
-0.641342
-0.564890
-0.488204
-0.423208
-0.358913
-0.302802
-0.260951
-0.195955
-0.091681
0.010021
0.076420
0.099800
0.082967
0.051404
0.037143
0.053509
0.093723
0.141418
0.174150
0.175553
0.151472
0.109623
0.065436
0.045329
0.038316
0.017976
-0.011716
-0.051929
-0.102195
-0.130951
-0.132120
-0.123937
-0.107103
-0.083489
-0.055433
-0.003062
0.089756
0.196134
0.287082
0.352545
0.369379
0.347636
0.331738
0.324257
0.318647
0.316075
0.295969
0.269316
0.260433
0.243833
0.198711
0.122259
0.012609
-0.092132
-0.162271
-0.199912
-0.204120
-0.187987
-0.147306
-0.064541
0.037862
0.131849
0.200352
0.227239
0.228642
0.230513
0.264180
0.334320
0.394874
0.429944
0.443972
0.439530
0.447012
0.454961
0.428075
0.368223
0.276575
0.191941
0.148221
0.120166
0.096553
0.064757
0.004671
-0.065935
-0.130229
-0.179560
-0.217668
-0.252036
-0.269103
-0.268869
-0.246424
-0.197092
-0.145189
-0.116198
-0.133732
-0.202702
-0.296220
-0.393012
-0.481621
-0.550591
-0.605299
-0.656266
-0.701389
-0.724534
-0.718689
-0.677774
-0.596179
-0.491671
-0.399788
-0.339936
-0.291773
-0.234258
-0.156637
-0.044882
0.081837
0.197567
0.297398
0.383904
0.468539
0.555278
0.637341
0.689245
0.690882
0.663294
0.623782
0.585206
0.540084
0.451241
0.322887
0.168815
-0.017521
-0.207832
-0.390427
-0.578166
-0.769645
-0.971412
-1.174348
-1.353436
-1.502131
-1.607807
-1.656436
-1.651526
-1.606637
-1.525742
-1.411649
-1.286801
-1.174578
-1.080357
-1.007646
-0.947559
-0.889577
-0.836271
-0.780627
-0.713994
-0.641751
-0.575352
-0.524384
-0.486041
-0.461725
-0.453542
-0.447930
-0.429928
-0.377790
-0.295727
-0.206650
-0.116872
-0.040887
0.024109
0.087468
0.127448
0.141009
0.130254
0.084197
0.018734
-0.047430
-0.101437
-0.138377
-0.164328
-0.172043
-0.147961
-0.092083
-0.011189
0.073913
0.141247
0.190111
0.223779
0.239210
0.254641
0.290880
0.324079
0.334834
0.336705
0.324314
0.292051
0.257449
0.220042
0.170945
0.104079
0.004248
-0.128548
-0.278646
-0.430614
-0.589596
-0.765878
-0.935147
-1.078231
-1.187414
-1.241187
-1.258955
-1.276022
-1.286075
-1.280463
-1.262460
-1.249367
-1.260823
-1.279994
-1.293554
-1.303607
-1.291916
-1.236506
-1.122646
-0.945428
-0.716774
-0.454219
-0.186988
0.038393
0.201584
0.311702
0.383245
0.456424
0.556022
0.658893
0.749373
0.821617
0.876092
0.924488
0.958389
0.951843
0.888251
0.782809
0.671989
0.592966
0.569820
0.587356
0.615879
0.627336
0.604658
0.561873
0.498514
0.429311
0.396580
0.394943
0.406400
0.410375
0.370863
0.279215
0.145484
-0.017706
-0.194457
-0.381728
-0.575779
-0.770766
-0.956868
-1.102290
-1.175234
-1.167752
-1.091534
-0.987026
-0.886493
-0.787362
-0.700156
-0.620197
-0.527846
-0.449056
-0.376813
-0.279085
-0.167563
-0.034298
0.122346
0.277354
0.429790
0.564926
0.670368
0.764823
0.857407
0.954901
1.050524
1.127912
1.191037
1.227276
1.218626
1.162048
1.047955
0.875179
0.654241
0.406183
0.154617
-0.085259
-0.289363
-0.449982
-0.582544
-0.679102
-0.731239
-0.751578
-0.759293
-0.766775
-0.770749
-0.756487
-0.699440
-0.594698
-0.476630
-0.375162
-0.305957
-0.267147
-0.219919
-0.143935
-0.056260
0.029544
0.082148
0.091968
0.088228
0.089163
0.140833
0.272695
0.441029
0.614975
0.765541
0.873088
0.972686
1.062231
1.127694
1.170012
1.165103
1.132605
1.101510
1.052413
0.982041
0.882444
0.737256
0.553725
0.341438
0.108342
-0.143223
-0.393386
-0.607778
-0.776111
-0.876644
-0.888099
-0.838066
-0.760445
-0.670199
-0.582057
-0.514489
-0.489239
-0.526646
-0.620866
-0.733790
-0.834790
-0.907968
-0.949116
-0.982548
-1.019254
-1.051050
-1.091497
-1.143166
-1.191795
-1.240425
-1.278299
-1.276195
-1.230604
-1.177999
-1.156256
-1.168179
-1.188051
-1.187349
-1.141759
-1.048941
-0.936951
-0.836418
-0.759499
-0.698477
-0.625532
-0.538091
-0.474732
-0.462107
-0.498345
-0.549546
-0.568951
-0.553987
-0.516112
-0.474729
-0.455791
-0.448309
-0.449244
-0.455790
-0.447841
-0.437086
-0.424928
-0.405522
-0.383779
-0.332109
-0.233914
-0.084517
0.112808
0.316446
0.492262
0.616876
0.694965
0.772118
0.864235
0.960092
1.038181
1.078394
1.101073
1.116504
1.109491
1.075356
0.994229
0.853717
0.672291
0.485955
0.338663
0.228545
0.130818
0.041742
-0.049906
-0.139450
-0.200237
-0.214265
-0.174285
-0.104847
-0.035642
0.018131
0.032861
0.015093
-0.030497
-0.098532
-0.135705
-0.135471
-0.126820
-0.112324
-0.120975
-0.161421
-0.225247
-0.325078
-0.431923
-0.509310
-0.537599
-0.501126
-0.422336
-0.321569
-0.201631
-0.059949
0.108619
0.274849
0.405776
0.496022
0.560784
0.642146
0.781022
0.982322
1.209106
1.402924
1.523564
1.564011
1.540164
1.482884
1.406433
1.298185
1.141541
0.937904
0.716499
0.531565
0.403679
0.305484
0.205887
0.087118
-0.059940
-0.221493
-0.373929
-0.506959
-0.614038
-0.690723
-0.733040
-0.733507
-0.696099
-0.630168
-0.553482
-0.488720
-0.434011
-0.380237
-0.324125
-0.271521
-0.246971
-0.258661
-0.279468
-0.265440
-0.180338
-0.039825
0.098817
0.200519
0.251487
0.246110
0.231148
0.238863
0.251489
0.276973
0.305263
0.312044
0.308771
0.291704
0.274170
0.286795
0.310876
0.332386
0.349921
0.367690
0.408138
0.475004
0.552391
0.626739
0.677240
0.690800
0.673734
0.638431
0.605232
0.579281
0.548887
0.523404
0.500960
0.476879
0.483660
0.520600
0.564087
0.610846
0.617627
0.551229
0.439240
0.303171
0.172478
0.080830
0.022849
-0.019936
-0.063889
-0.135431
-0.240639
-0.349121
-0.431651
-0.477942
-0.480046
-0.440066
-0.365952
-0.274069
-0.195513
-0.123737
-0.032322
0.064237
0.122219
0.106789
0.016309
-0.134957
-0.312643
-0.458765
-0.540126
-0.555791
-0.541061
-0.542230
-0.548775
-0.541060
-0.507860
-0.436552
-0.347708
-0.261904
-0.188024
-0.148278
-0.141965
-0.168851
-0.244835
-0.346537
-0.428131
-0.481671
-0.519312
-0.538483
-0.529598
-0.501308
-0.461562
-0.405450
-0.342091
-0.269614
-0.190823
-0.134244
-0.089121
-0.043530
-0.018280
-0.006589
0.004867
0.035027
0.101660
0.181385
0.255733
0.316053
0.373100
0.454696
0.547514
0.634954
0.718420
0.784819
0.851452
0.935151
1.014643
1.074028
1.095304
1.067482
0.999448
0.895408
0.782017
0.702760
0.694577
0.768458
0.883253
0.992904
1.081747
1.135521
1.160304
1.165915
1.141133
1.088062
1.010909
0.919962
0.856370
0.843745
0.875542
0.925809
0.938200
0.887701
0.796286
0.681960
0.570673
0.484168
0.422680
0.375219
0.333136
0.316303
0.345996
0.425020
0.546828
0.668637
0.736906
0.723814
0.641518
0.530932
0.403045
0.272821
0.181874
0.131374
0.105657
0.103787
0.121322
0.148677
0.154756
0.109633
0.003022
-0.144971
-0.289691
-0.402148
-0.465740
-0.491691
-0.509927
-0.515771
-0.507822
-0.503847
-0.522550
-0.584506
-0.687611
-0.808016
-0.914861
-0.986636
-1.027784
-1.062152
-1.116159
-1.194948
-1.290804
-1.376841
-1.421730
-1.443473
-1.445109
-1.411442
-1.380347
-1.372397
-1.371929
-1.353225
-1.296412
-1.230481
-1.192371
-1.196813
-1.251989
-1.328674
-1.397644
-1.444870
-1.456326
-1.450715
-1.453286
-1.461001
-1.462871
-1.461468
-1.463571
-1.453985
-1.405589
-1.309498
-1.167349
-0.971894
-0.733888
-0.488868
-0.263019
-0.078319
0.060323
0.167402
0.260688
0.350233
0.414294
0.438375
0.430894
0.383433
0.311190
0.257885
0.250638
0.288046
0.349769
0.454978
0.616298
0.808947
1.033159
1.264385
1.453294
1.589364
1.668856
1.716083
1.760739
1.787392
1.780145
1.729177
1.626775
1.474339
1.276313
1.064961
0.877456
0.719643
0.585444
0.447738
0.288522
0.127202
-0.034351
-0.189358
-0.309530
-0.397203
-0.466173
-0.537247
-0.612997
-0.665134
-0.705814
-0.737610
-0.742052
-0.725919
-0.692954
-0.682198
-0.707682
-0.731295
-0.746492
-0.739243
-0.683366
-0.564129
-0.381299
-0.176258
0.021067
0.195714
0.352125
0.515783
0.670324
0.808031
0.933113
1.045102
1.170418
1.298305
1.399773
1.468276
1.485110
1.441390
1.346002
1.225830
1.118985
1.042300
0.999983
0.972629
0.932884
0.867655
0.770863
0.669630
0.582190
0.480255
0.366863
0.265396
0.174449
0.094257
0.001673
-0.141410
-0.334526
-0.556867
-0.781078
-0.960868
-1.060465
-1.062569
-0.977934
-0.854956
-0.736421
-0.637057
-0.558968
-0.492335
-0.431314
-0.376371
-0.331482
-0.319558
-0.331013
-0.328675
-0.323063
-0.321426
-0.314412
-0.343169
-0.416113
-0.488356
-0.552182
-0.593097
-0.565976
-0.485081
-0.387120
-0.280742
-0.186521
-0.116615
-0.068687
-0.051619
-0.057931
-0.068919
-0.085986
-0.131109
-0.208729
-0.285414
-0.345032
-0.397168
-0.456319
-0.545395
-0.655046
-0.758851
-0.845356
-0.889777
-0.873644
-0.802570
-0.691048
-0.586306
-0.547262
-0.577655
-0.655743
-0.766563
-0.873408
-0.948456
-0.992410
-0.992409
-0.941441
-0.846987
-0.721905
-0.587705
-0.447894
-0.308784
-0.197262
-0.124551
-0.080129
-0.055346
-0.043656
-0.046695
-0.068438
-0.101169
-0.145590
-0.214560
-0.313689
-0.424976
-0.523405
-0.610143
-0.686361
-0.744576
-0.805129
-0.872228
-0.933950
-0.990295
-1.037756
-1.088255
-1.137586
-1.147639
-1.101113
-0.994969
-0.838090
-0.654793
-0.457702
-0.257805
-0.073572
0.076994
0.183840
0.255616
0.311026
0.370177
0.454812
0.560957
0.671777
0.782831
0.865829
0.901601
0.917032
0.902303
0.837074
0.730229
0.583171
0.419747
0.278300
0.166078
0.077703
-0.011608
-0.119855
-0.247274
-0.407659
-0.590020
-0.767940
-0.935338
-1.076785
-1.191579
-1.288137
-1.361082
-1.438702
-1.538065
-1.615919
-1.656366
-1.659405
-1.604696
-1.507904
-1.390537
-1.268962
-1.164454
-1.077715
-1.031657
-1.043346
-1.086131
-1.147619
-1.211913
-1.260776
-1.313146
-1.391702
-1.529408
-1.743566
-1.994196
-2.236644
-2.451503
-2.613056
-2.695353
-2.696755
-2.639708
-2.549228
-2.444253
-2.325483
-2.172580
-1.964032
-1.697269
-1.386318
-1.043104
-0.670430
-0.280456
0.113025
0.510715
0.894844
1.224966
1.484949
1.673624
1.805720
1.910695
1.987147
2.023854
2.023854
1.974289
1.867211
1.723659
1.557196
1.371795
1.179147
0.980419
0.775613
0.587875
0.449701
0.393122
0.419308
0.487109
0.553508
0.590682
0.614063
0.682098
0.832898
1.069267
1.360345
1.647448
1.865348
1.951386
1.882182
1.687897
1.425810
1.125615
0.792221
0.450176
0.125899
-0.159801
-0.387986
-0.558190
-0.674621
-0.751306
-0.797832
-0.799234
-0.761592
-0.717170
-0.694725
-0.717871
-0.802739
-0.931795
-1.070202
-1.211182
-1.345848
-1.448485
-1.506934
-1.507401
-1.442639
-1.324571
-1.166056
-0.979953
-0.761118
-0.503240
-0.241386
-0.023019
0.121702
0.190672
0.204934
0.183659
0.143446
0.095986
0.048525
-0.001507
-0.085907
-0.201403
-0.305676
-0.396857
-0.465826
-0.474009
-0.423976
-0.343549
-0.257979
-0.215194
-0.238106
-0.285800
-0.324844
-0.342846
-0.337000
-0.322271
-0.296319
-0.237168
-0.118632
0.059989
0.266433
0.490177
0.714155
0.924807
1.131250
1.296312
1.391701
1.435188
1.439630
1.420693
1.377909
1.318992
1.262881
1.181286
1.058777
0.893950
0.670207
0.423551
0.210328
0.045034
-0.064383
-0.136158
-0.206998
-0.270825
-0.293503
-0.251419
-0.157432
-0.050820
0.056727
0.163807
0.278134
0.427297
0.614803
0.837612
1.081229
1.293751
1.449694
1.544149
1.568932
1.528953
1.434265
1.305677
1.146929
0.933239
0.667178
0.374464
0.077542
-0.200910
-0.441721
-0.620342
-0.721108
-0.773478
-0.835668
-0.942045
-1.072504
-1.182856
-1.222367
-1.145447
-0.960747
-0.703570
-0.421142
-0.168173
0.069132
0.316256
0.557769
0.792501
1.005491
1.175228
1.300544
1.351278
1.325327
1.271320
1.228770
1.220587
1.228069
1.215444
1.156060
1.030278
0.863347
0.689870
0.528316
0.393416
0.262723
0.118003
-0.016196
-0.102701
-0.111818
-0.063656
-0.007778
0.030331
0.030566
-0.006140
-0.051029
-0.088670
-0.114855
-0.105502
-0.031856
0.106552
0.286811
0.461457
0.596125
0.705543
0.800465
0.894685
1.012052
1.146252
1.261514
1.301494
1.239304
1.098325
0.924848
0.770776
0.655514
0.562463
0.468945
0.330069
0.126199
-0.108533
-0.332043
-0.511599
-0.646032
-0.769477
-0.881465
-0.960255
-1.000234
-0.968437
-0.837744
-0.615870
-0.320817
-0.007295
0.265547
0.478537
0.627466
0.730337
0.812400
0.881137
0.946601
1.023988
1.133873
1.281400
1.440148
1.587909
1.696625
1.719537
1.644255
1.488313
1.268544
1.014874
0.749281
0.465217
0.146552
-0.207884
-0.572608
-0.944812
-1.350450
-1.762868
-2.135073
-2.451634
-2.692445
-2.858441
-2.966689
-3.004563
-2.977676
-2.905433
-2.780818
-2.628148
-2.463788
-2.259917
-2.012559
-1.718442
-1.384812
-1.063808
-0.787927
-0.581016
-0.443309
-0.337399
-0.263986
-0.196652
-0.091911
0.037614
0.176490
0.304611
0.424549
0.560620
0.683130
0.775246
0.824344
0.809381
0.742983
0.630060
0.508485
0.415668
0.335476
0.267208
0.170650
-0.003996
-0.247613
-0.543366
-0.844964
-1.120377
-1.373579
-1.581892
-1.723105
-1.779450
-1.726845
-1.558744
-1.295021
-0.981030
-0.652077
-0.345101
-0.097042
0.095374
0.220456
0.249447
0.203155
0.098415
-0.070854
-0.271452
-0.468543
-0.665166
-0.839111
-0.965828
-1.043215
-1.046488
-0.998091
-0.940810
-0.857344
-0.745355
-0.610454
-0.450536
-0.285241
-0.120881
0.021736
0.129283
0.208307
0.230985
0.195448
0.107541
-0.040452
-0.209721
-0.382964
-0.553402
-0.707708
-0.879081
-1.068690
-1.260404
-1.457261
-1.618580
-1.720983
-1.777328
-1.800707
-1.818242
-1.829931
-1.810759
-1.752543
-1.664635
-1.555919
-1.427097
-1.286818
-1.142097
-0.998077
-0.851019
-0.678242
-0.478345
-0.246184
0.027593
0.312359
0.586603
0.843780
1.085995
1.316987
1.513845
1.664410
1.748110
1.753722
1.724965
1.660671
1.566919
1.497949
1.432720
1.341306
1.236331
1.105405
0.949463
0.783467
0.621913
0.469244
0.323823
0.200378
0.087922
-0.032483
-0.152187
-0.272592
-0.383412
-0.485815
-0.591023
-0.655083
-0.643860
-0.560628
-0.414271
-0.229571
-0.020088
0.203890
0.411035
0.566277
0.643430
0.658861
0.642964
0.614674
0.595036
0.584749
0.575865
0.555759
0.518352
0.487023
0.469489
0.463177
0.468555
0.471828
0.459437
0.429979
0.408704
0.405665
0.399587
0.400288
0.421798
0.453829
0.478845
0.455934
0.372001
0.247621
0.098693
-0.061692
-0.237273
-0.410283
-0.559211
-0.696450
-0.798151
-0.840001
-0.826908
-0.756768
-0.661846
-0.577445
-0.506370
-0.450258
-0.412383
-0.411915
-0.448387
-0.499822
-0.551491
-0.585157
-0.587027
-0.539800
-0.457035
-0.378245
-0.302962
-0.230952
-0.167592
-0.118261
-0.095348
-0.065656
-0.008141
0.057556
0.117409
0.130268
0.076027
-0.008607
-0.085760
-0.122232
-0.100956
-0.037129
0.028803
0.070185
0.110399
0.172121
0.252080
0.325259
0.365473
0.379267
0.352849
0.269851
0.151316
0.015013
-0.123629
-0.262270
-0.415173
-0.574155
-0.727993
-0.871077
-0.999431
-1.097625
-1.151398
-1.174310
-1.157476
-1.082427
-0.974646
-0.861254
-0.756279
-0.656213
-0.551472
-0.439015
-0.305750
-0.152378
0.012917
0.189200
0.365250
0.543404
0.726935
0.901582
1.042562
1.117611
1.132341
1.114339
1.069918
1.002818
0.895973
0.748915
0.589466
0.420431
0.259345
0.138005
0.066931
0.038408
0.018068
-0.003909
0.001936
0.052203
0.139410
0.231293
0.293483
0.324111
0.353804
0.404070
0.460884
0.518398
0.558612
0.566093
0.560015
0.544351
0.528453
0.524479
0.506243
0.440780
0.293489
0.072551
-0.180652
-0.439699
-0.656662
-0.817982
-0.943063
-1.030736
-1.114669
-1.207720
-1.274820
-1.311525
-1.320409
-1.314564
-1.320876
-1.340515
-1.374415
-1.410186
-1.394755
-1.286740
-1.082868
-0.825223
-0.576930
-0.373994
-0.213842
-0.073797
0.075132
0.234582
0.369250
0.447572
0.465809
0.434013
0.370654
0.301216
0.243469
0.202087
0.174266
0.152289
0.129845
0.105764
0.067656
0.020195
0.003362
0.027210
0.080984
0.178244
0.317353
0.463477
0.579675
0.673428
0.762739
0.842932
0.943699
1.081406
1.236414
1.404748
1.554379
1.666368
1.768538
1.847328
1.886138
1.889646
1.852940
1.789581
1.692322
1.549706
1.382074
1.199946
1.039328
0.937393
0.895543
0.918222
0.979711
1.053591
1.132615
1.195975
1.264478
1.355659
1.449178
1.540593
1.607226
1.635983
1.654688
1.677834
1.719216
1.782342
1.851546
1.914672
1.962835
1.995800
2.008893
2.007959
2.006556
1.990658
1.939925
1.831209
1.661005
1.459706
1.252329
1.045418
0.809284
0.521012
0.208191
-0.106499
-0.399213
-0.646103
-0.853013
-1.021814
-1.153675
-1.241583
-1.262858
-1.239244
-1.210253
-1.179859
-1.138009
-1.070675
-0.959854
-0.818407
-0.678128
-0.543694
-0.431237
-0.357123
-0.291659
-0.218013
-0.139457
-0.048509
0.045712
0.126840
0.196512
0.244207
0.243739
0.193240
0.097383
-0.041960
-0.198837
-0.360858
-0.508150
-0.604474
-0.672041
-0.727217
-0.761351
-0.796888
-0.836399
-0.862584
-0.863052
-0.829151
-0.777715
-0.722772
-0.663621
-0.597690
-0.525680
-0.454137
-0.367866
-0.253772
-0.113494
0.061387
0.260115
0.473105
0.705032
0.932751
1.135687
1.298644
1.400580
1.454822
1.480072
1.472357
1.434249
1.373462
1.296075
1.208402
1.099686
0.970163
0.840172
0.700596
0.537639
0.356681
0.157018
-0.044749
-0.229682
-0.395210
-0.537592
-0.670856
-0.801081
-0.919382
-1.006120
-1.014303
-0.919848
-0.729537
-0.471658
-0.191101
0.087820
0.335645
0.527593
0.677691
0.795759
0.885538
0.933700
0.909386
0.821478
0.698268
0.546767
0.375628
0.195838
0.016750
-0.149947
-0.296070
-0.404785
-0.461130
-0.475859
-0.454349
-0.408758
-0.363635
-0.321551
-0.285312
-0.251411
-0.213068
-0.177530
-0.127497
-0.068113
-0.030471
-0.018313
-0.026963
-0.038886
-0.035613
-0.016909
0.008342
0.016057
0.005303
-0.011296
-0.037949
-0.067874
-0.092656
-0.107619
-0.121880
-0.166301
-0.217503
-0.225685
-0.189212
-0.121645
-0.054311
-0.022046
-0.001472
0.016999
0.012089
-0.005445
-0.040514
-0.095456
-0.151567
-0.216329
-0.274544
-0.298858
-0.289272
-0.239239
-0.143616
0.000404
0.174817
0.345489
0.509849
0.663221
0.789238
0.894447
0.980718
1.059976
1.145546
1.218725
1.276707
1.327909
1.367188
1.400621
1.430314
1.463046
1.513780
1.558903
1.591869
1.617119
1.597948
1.528043
1.424705
1.295650
1.158879
1.014860
0.858684
0.703209
0.561294
0.439253
0.337317
0.255489
0.191896
0.146774
0.121758
0.109601
0.111939
0.143268
0.204524
0.298511
0.431308
