EVENT_NAME: 202302060117
EVENT_ID: 13194
EVENT_DATE_YYYYMMDD: 2023/02/06
EVENT_TIME_HHMMSS: 01:17:32.00000
EVENT_LATITUDE_DEGREE: 37.288
EVENT_LONGITUDE_DEGREE: 37.043
EVENT_DEPTH_KM: 8.6
HYPOCENTER_REFERENCE: AFAD
MAGNITUDE_W: 7.7
MAGNITUDE_W_REFERENCE: AFAD
MAGNITUDE_L: 
MAGNITUDE_L_REFERENCE: 
FOCAL_MECHANISM: 
NETWORK: TK
STATION_CODE: 5811
STATION_NAME: 
STATION_LATITUDE_DEGREE: 39.3616
STATION_LONGITUDE_DEGREE: 36.4129
STATION_ELEVATION_M: 1238.0
LOCATION: Kahramanmaras_Pazarck_Turkiye
SENSOR_DEPTH_M: 
VS30_M/S: 207
SITE_CLASSIFICATION_EC8: C
MORPHOLOGIC_CLASSIFICATION: 
EPICENTRAL_DISTANCE_KM: 237.03
EARTHQUAKE_BACKAZIMUTH_DEGREE: 
DATE_TIME_FIRST_SAMPLE_YYYYMMDD_HHMMSS: 2023/02/06 01:17:52.8647620
DATE_TIME_FIRST_SAMPLE_PRECISION: millisecond
SAMPLING_INTERVAL_S: 0.01
NDATA: 14501
DURATION_S: 
STREAM: HNE
UNITS: cm/s^2
INSTRUMENT: sensor = GMS+/GEOSIG | digitizer = 
INSTRUMENT_ANALOG/DIGITAL: 
INSTRUMENTAL_FREQUENCY_HZ: 
INSTRUMENTAL_DAMPING: 
FULL_SCALE_G: 
N_BIT_DIGITAL_CONVERTER: 
PGA_CM/S^2: 14.932
TIME_PGA_S: 
BASELINE_CORRECTION: BASELINE REMOVED
FILTER_TYPE: BUTTERWORTH
FILTER_ORDER: 
LOW_CUT_FREQUENCY_HZ: 
HIGH_CUT_FREQUENCY_HZ: 
LATE/NORMAL_TRIGGERED: 
DATABASE_VERSION: 
HEADER_FORMAT: DYNA 1.2
DATA_TYPE: Acceleration
PROCESSING: Automatic Paolucci et al., 2011
DATA_TIMESTAMP_YYYYMMDD_HHMMSS: 
DATA_LICENSE: U (unknown license)
DATA_CITATION: Turkish Accelerometric Archive v 1.0 - Disaster And Emergency Management Presidency, Earthquake Department
DATA_CREATOR: AFAD
ORIGINAL_DATA_MEDIATOR_CITATION: : AFAD - Disaster And Emergency Management Presidency
ORIGINAL_DATA_MEDIATOR: AFAD PROCESS SERVICE
ORIGINAL_DATA_CREATOR_CITATION: AFAD PROCESS SERVICE
ORIGINAL_DATA_CREATOR: network: TK
USER1: GuestUser
USER2: 
USER3: 
USER4: 
USER5: 
[...]
-3.255494
-2.808691
-2.233302
-1.559201
-0.859384
-0.177230
0.489077
1.195130
1.989503
2.868041
3.802689
4.734739
5.590937
6.337253
6.953685
7.388539
7.607267
7.606231
7.404134
7.083843
6.727704
6.403517
6.079849
5.718774
5.420304
5.138199
4.810374
4.392411
3.794168
3.083186
2.254789
1.284818
0.194835
-1.001913
-2.205415
-3.307607
-4.247704
-4.999470
-5.484714
-5.648884
-5.504970
-5.092196
-4.508234
-3.874398
-3.295892
-2.820254
-2.478137
-2.292919
-2.278110
-2.426954
-2.674510
-2.959212
-3.184169
-3.249887
-3.143379
-2.848540
-2.361212
-1.740364
-1.093279
-0.540750
-0.128495
0.155953
0.348444
0.417026
0.312862
0.087126
-0.217838
-0.519686
-0.753474
-0.953752
-1.096882
-1.123635
-1.012971
-0.754239
-0.330555
0.233924
0.843862
1.393014
1.790202
1.968666
1.950485
1.772027
1.469660
1.122613
0.806738
0.619188
0.604125
0.761807
1.077168
1.461108
1.844788
2.213921
2.550064
2.798145
2.911406
2.844129
2.536048
2.021710
1.387619
0.683911
-0.042138
-0.744547
-1.396562
-1.966490
-2.432251
-2.834888
-3.232330
-3.625096
-3.979417
-4.277887
-4.543627
-4.807808
-5.006788
-5.032502
-4.867027
-4.535560
-4.121227
-3.734690
-3.399326
-3.088641
-2.728600
-2.294265
-1.841227
-1.408451
-1.041396
-0.761883
-0.526010
-0.295593
-0.088556
0.111209
0.346561
0.594902
0.866363
1.210298
1.583328
1.894273
2.077153
2.157164
2.229902
2.278741
2.275627
2.217961
2.054310
1.761295
1.331122
0.790288
0.198799
-0.395806
-0.951187
-1.420585
-1.767113
-1.994407
-2.148186
-2.263780
-2.325602
-2.336250
-2.337806
-2.345076
-2.329487
-2.272335
-2.179076
-2.010484
-1.731230
-1.383398
-1.054269
-0.817618
-0.684614
-0.628501
-0.654735
-0.810593
-1.077371
-1.344670
-1.539753
-1.629889
-1.569620
-1.374791
-1.105409
-0.775501
-0.410264
-0.078538
0.156815
0.277870
0.340476
0.400226
0.457378
0.516088
0.631168
0.825478
1.100575
1.482177
1.969764
2.544893
3.162624
3.766327
4.301452
4.778649
5.212464
5.540034
5.755645
5.805003
5.580567
5.121040
4.530850
3.838052
3.021604
2.113718
1.221938
0.468874
-0.071441
-0.419267
-0.663186
-0.883986
-1.108683
-1.334158
-1.567687
-1.851870
-2.225673
-2.637922
-2.986787
-3.204730
-3.255901
-3.198230
-3.098476
-2.967290
-2.808829
-2.571658
-2.229281
-1.776503
-1.200854
-0.585721
-0.023580
0.460630
0.877301
1.255006
1.612190
1.941578
2.193296
2.331236
2.388648
2.418264
2.458531
2.504513
2.532051
2.551796
2.575438
2.540632
2.337496
1.947328
1.392466
0.670574
-0.177825
-1.110908
-2.083217
-3.023054
-3.850153
-4.474892
-4.879088
-5.117032
-5.258603
-5.359650
-5.453942
-5.522259
-5.485628
-5.304048
-4.956216
-4.447327
-3.844403
-3.219399
-2.634658
-2.090182
-1.553498
-1.033440
-0.563777
-0.161134
0.180984
0.479720
0.755596
0.957439
1.035632
0.993292
0.867827
0.721321
0.600272
0.533515
0.455327
0.383374
0.266741
-0.004973
-0.295131
-0.544245
-0.727898
-0.825049
-0.879337
-0.878555
-0.848939
-0.805035
-0.762171
-0.758531
-0.835160
-1.005045
-1.298840
-1.706153
-2.094243
-2.402585
-2.618449
-2.703910
-2.641043
-2.463879
-2.256841
-2.043568
-1.827958
-1.641182
-1.504022
-1.444792
-1.462453
-1.531808
-1.619087
-1.693378
-1.709221
-1.596999
-1.337487
-0.944196
-0.482845
-0.050589
0.324259
0.637023
0.926147
1.258393
1.622851
1.994062
2.347349
2.669464
2.970538
3.169783
3.179917
2.984055
2.613888
2.181637
1.743672
1.253752
0.665640
0.006352
-0.636311
-1.228059
-1.750969
-2.183999
-2.556244
-2.891082
-3.177603
-3.403079
-3.548026
-3.568545
-3.484377
-3.313707
-3.029778
-2.666879
-2.249169
-1.769895
-1.218405
-0.572359
0.140447
0.835329
1.445007
1.981951
2.500190
2.998168
3.437179
3.772802
3.983996
4.129989
4.263253
4.400413
4.572642
4.815528
5.155047
5.588083
6.075671
6.522215
6.783804
6.736529
6.341944
5.648886
4.774510
3.885328
3.127847
2.557919
2.143073
1.814989
1.542235
1.321695
1.133366
0.963481
0.777230
0.526817
0.152754
-0.391197
-1.065032
-1.796796
-2.494529
-3.051469
-3.384229
-3.429945
-3.166018
-2.626997
-1.880161
-1.029418
-0.182572
0.621672
1.371885
2.028321
2.509934
2.743728
2.737237
2.541634
2.237709
1.925730
1.635313
1.359962
1.114224
0.900957
0.716006
0.552355
0.394159
0.221156
-0.006917
-0.339677
-0.795567
-1.333024
-1.881651
-2.369492
-2.750049
-3.017867
-3.177102
-3.247756
-3.198137
-2.951874
-2.514942
-1.939553
-1.312470
-0.756045
-0.330282
-0.043236
0.093405
0.072627
-0.077516
-0.316240
-0.585617
-0.769789
-0.767968
-0.548721
-0.112308
0.479446
1.108867
1.670488
2.107420
2.383556
2.406159
2.152629
1.700116
1.095379
0.403360
-0.299309
-0.934179
-1.411890
-1.703087
-1.836085
-1.862319
-1.825429
-1.719181
-1.527989
-1.258087
-0.896747
-0.479037
-0.081589
0.271958
0.584721
0.869430
1.163490
1.502230
1.918121
2.427529
3.001619
3.584801
4.108236
4.535297
4.883649
5.145498
5.317208
5.462940
5.600360
5.657252
5.579585
5.278776
4.732227
4.031376
3.199602
2.338475
1.559693
0.886637
0.348661
-0.063588
-0.352447
-0.560258
-0.712999
-0.819501
-0.945745
-1.118228
-1.345782
-1.613340
-1.872066
-2.035977
-2.063509
-1.997526
-1.842961
-1.599036
-1.260555
-0.878434
-0.536317
-0.213422
0.088431
0.330278
0.491077
0.530305
0.393150
0.073119
-0.337831
-0.822295
-1.389366
-1.964489
-2.513895
-2.969266
-3.280205
-3.488536
-3.632445
-3.770638
-3.914547
-4.063651
-4.249901
-4.449660
-4.639028
-4.800861
-4.909181
-4.948922
-4.907097
-4.801888
-4.618489
-4.308323
-3.842816
-3.199109
-2.386552
-1.449566
-0.465042
0.520780
1.453869
2.238631
2.834541
3.175360
3.223939
3.048858
2.748569
2.426460
2.155785
2.007200
1.984344
2.046171
2.125923
2.065919
1.783295
1.298831
0.652531
-0.101573
-0.937243
-1.791617
-2.573256
-3.228907
-3.697526
-3.931314
-3.915465
-3.637251
-3.122388
-2.478420
-1.790552
-1.088656
-0.440273
0.087579
0.482948
0.755967
0.921442
1.080423
1.348507
1.785179
2.410963
3.137017
3.881515
4.582372
5.131784
5.491565
5.643273
5.565865
5.305320
4.872030
4.258721
3.559429
2.846888
2.136686
1.478696
0.917341
0.402743
-0.156794
-0.779455
-1.452511
-2.198042
-3.030855
-3.917180
-4.817793
-5.698663
-6.510954
-7.212065
-7.761211
-8.091633
-8.167742
-8.014736
-7.673139
-7.187370
-6.562105
-5.825660
-5.038821
-4.212756
-3.404875
-2.623230
-1.845482
-1.124363
-0.457276
0.150843
0.701294
1.184465
1.536973
1.772326
1.927410
2.048205
2.172377
2.287977
2.384613
2.408775
2.310845
2.093942
1.714164
1.133845
0.403121
-0.427614
-1.332643
-2.283650
-3.209980
-4.008244
-4.632203
-5.039517
-5.210960
-5.221348
-5.115880
-4.888060
-4.524902
-4.023807
-3.449457
-2.847312
-2.220229
-1.586912
-0.931255
-0.242608
0.472536
1.239894
2.029851
2.788896
3.522483
4.189570
4.777428
5.370221
6.002499
6.624386
7.196658
7.680349
7.961420
7.944019
7.594894
6.933527
6.000184
4.865521
3.615780
2.263171
0.872117
-0.493220
-1.783485
-2.875027
-3.752260
-4.466879
-5.010830
-5.353721
-5.484381
-5.430866
-5.265911
-5.087447
-4.963535
-4.913657
-4.906640
-4.870529
-4.732590
-4.481391
-4.128883
-3.621554
-2.924334
-2.067876
-1.085171
0.035211
1.294049
2.560940
3.660800
4.531026
5.177331
5.608029
5.838187
5.838449
5.592452
5.157343
4.556243
3.812271
2.955819
2.000655
0.983667
-0.070469
-1.109018
-2.040543
-2.786334
-3.299373
-3.548487
-3.537314
-3.354175
-3.073363
-2.733324
-2.389388
-2.060259
-1.779188
-1.557603
-1.359916
-1.227172
-1.205089
-1.285354
-1.407183
-1.508749
-1.588755
-1.554722
-1.325344
-0.940106
-0.433555
0.119234
0.709689
1.299885
1.825918
2.315063
2.685755
2.913834
2.997482
2.924231
2.811494
2.728631
2.667069
2.604468
2.555894
2.522387
2.501868
2.556942
2.687608
2.832042
3.011285
3.230532
3.393149
3.499917
3.579928
3.590841
3.490054
3.209767
2.736733
2.137451
1.531935
0.951876
0.343762
-0.255260
-0.834799
-1.399791
-1.850486
-2.071805
-2.081933
-1.969451
-1.810990
-1.697728
-1.660059
-1.700580
-1.820590
-2.041649
-2.279334
-2.410254
-2.481947
-2.476229
-2.457523
-2.524800
-2.627666
-2.804305
-3.046406
-3.347993
-3.680234
-3.917399
-3.987533
-3.844139
-3.481759
-2.940400
-2.334099
-1.752995
-1.145655
-0.510520
0.107211
0.712214
1.225778
1.666087
2.096526
2.410068
2.616327
2.739979
2.775311
2.835580
2.912214
2.904944
2.847797
2.822603
2.835075
2.876121
2.872747
2.750139
2.526222
2.250351
1.912396
1.461702
0.935155
0.352758
-0.284969
-0.929451
-1.544059
-2.109570
-2.614816
-3.017454
-3.234617
-3.259552
-3.189152
-3.103685
-3.083940
-3.164985
-3.326038
-3.529173
-3.652041
-3.655415
-3.542933
-3.281343
-2.928576
-2.493202
-1.979897
-1.378012
-0.585977
0.301913
1.151097
1.957939
2.640872
3.179114
3.627216
3.909327
3.968297
3.846988
3.613460
3.372138
3.172640
3.007430
2.875990
2.728965
2.500891
2.190991
1.885767
1.643666
1.345195
0.872940
0.222484
-0.592665
-1.558999
-2.725354
-4.029126
-5.268476
-6.354043
-7.253357
-7.899657
-8.216571
-8.162796
-7.823536
-7.375174
-6.824203
-6.062041
-5.213636
-4.430173
-3.691650
-3.017290
-2.369426
-1.578689
-0.620662
0.369576
1.392025
2.505913
3.648895
4.798630
5.929143
6.938085
7.730120
8.300054
8.682695
8.808166
8.726082
8.602695
8.426056
8.063942
7.544409
6.946426
6.283761
5.632006
4.960769
4.208224
3.392296
2.523375
1.633673
0.807354
0.153261
-0.347828
-0.724489
-0.963732
-1.124526
-1.156734
-0.999832
-0.691744
-0.260007
0.193811
0.658019
1.143268
1.545911
1.847765
2.084416
2.180273
2.001816
1.669315
1.375001
1.125887
0.815986
0.449976
0.199043
0.069162
0.055917
0.115407
0.116968
0.100606
0.065280
-0.123049
-0.471914
-0.838704
-1.235107
-1.644498
-1.930500
-2.170782
-2.442237
-2.682519
-2.979691
-3.403889
-3.828607
-4.217996
-4.654663
-5.180690
-5.744383
-6.314571
-6.905540
-7.465078
-7.884600
-8.103062
-8.143843
-7.959924
-7.607676
-7.154897
-6.615876
-6.087765
-5.550302
-5.036219
-4.538241
-3.903625
-3.072624
-2.019003
-0.750034
0.662327
2.148203
3.657717
5.034490
6.185784
7.144331
7.831160
8.283679
8.498250
8.399021
8.220564
8.002362
7.495817
6.752364
5.870974
4.736571
3.441890
2.222802
1.129182
0.103621
-0.784263
-1.579409
-2.427029
-3.163728
-3.782233
-4.389827
-4.878448
-5.128341
-5.261859
-5.456682
-5.504737
-5.298998
-4.968570
-4.544626
-3.968977
-3.173045
-2.167741
-0.979819
0.311230
1.569289
2.678241
3.577301
4.245687
4.727040
5.100849
5.428938
5.783524
6.071870
6.180196
6.201500
6.116558
5.890563
5.632876
5.332328
4.998009
4.678238
4.420031
4.207025
3.874525
3.491629
3.171858
2.751297
2.173835
1.567800
0.983844
0.415735
-0.100681
-0.490850
-0.750355
-0.828542
-0.701513
-0.507983
-0.173918
0.334710
0.846716
1.327289
1.826306
2.248692
2.517554
2.858373
3.375833
4.019801
4.684550
5.163045
5.481004
5.709603
5.781042
5.656876
5.386720
4.999928
4.528193
4.054379
3.592774
3.125714
2.619429
2.069504
1.541398
1.070182
0.730928
0.582084
0.563643
0.675087
0.900048
1.146571
1.332828
1.352313
1.232043
1.066314
0.848372
0.574060
0.334297
0.194545
0.188313
0.366257
0.649667
1.003473
1.447679
1.899419
2.336351
2.716654
2.942655
3.026304
2.985523
2.841614
2.659780
2.442357
2.265458
2.177399
2.163634
2.288066
2.494065
2.704999
2.911258
3.013869
2.952567
2.838272
2.732809
2.572015
2.395896
2.241596
2.080803
1.959234
1.864941
1.690900
1.355802
0.877312
0.236208
-0.586214
-1.463448
-2.389517
-3.378711
-4.310755
-5.074990
-5.618421
-6.015344
-6.373301
-6.730739
-7.013363
-7.187665
-7.324560
-7.445349
-7.519120
-7.481711
-7.356240
-7.197519
-7.025030
-6.833578
-6.572509
-6.293255
-6.015560
-5.677599
-5.290283
-4.881925
-4.479541
-4.081574
-3.630094
-3.134714
-2.661674
-2.222403
-1.835346
-1.463875
-1.031099
-0.582996
-0.201135
0.046427
0.081758
-0.079815
-0.301653
-0.466863
-0.587392
-0.706883
-0.861442
-1.119388
-1.439160
-1.859721
-2.524465
-3.357018
-4.262046
-5.248123
-6.303817
-7.335092
-8.344028
-9.389331
-10.339560
-11.131329
-11.799450
-12.277939
-12.487309
-12.520816
-12.374824
-11.923085
-11.245347
-10.453572
-9.597634
-8.779622
-8.106560
-7.487530
-6.790050
-6.063217
-5.370932
-4.613706
-3.802968
-3.011712
-2.181490
-1.413873
-0.645996
0.183705
1.006653
1.872462
2.687877
3.426659
3.990618
4.264417
4.307801
4.158697
3.870617
3.449536
2.911040
2.247856
1.549083
0.901224
0.261159
-0.353449
-0.914025
-1.329391
-1.572531
-1.692022
-1.694876
-1.605773
-1.462898
-1.303917
-1.157405
-1.016348
-0.862043
-0.712674
-0.541224
-0.312106
-0.149488
-0.166890
-0.171563
0.073661
0.517088
1.032990
1.604482
2.273128
3.103609
4.041634
4.998881
5.932750
6.772323
7.555526
8.261318
8.838785
9.305591
9.590819
9.665895
9.557574
9.324306
9.010249
8.642680
8.196662
7.736356
7.493995
7.327747
7.040966
6.700932
6.227119
5.542893
4.650853
3.674128
2.767541
2.000189
1.409220
0.865788
0.359504
-0.112752
-0.681640
-1.422236
-2.255309
-3.084225
-4.122775
-5.277700
-6.289233
-7.090874
-7.585210
-7.868354
-8.010184
-8.058239
-7.857695
-7.250614
-6.527418
-5.897477
-5.345987
-4.714748
-4.060910
-3.595403
-3.175095
-2.668025
-2.081467
-1.475425
-0.905751
-0.315815
0.349453
1.192403
2.178225
3.035982
3.858150
4.874365
5.887723
6.809902
7.736237
8.565419
9.220816
9.804777
10.387700
11.020757
11.707846
12.332331
12.890575
13.408036
13.866269
14.323463
14.752603
14.931586
14.808199
14.437253
13.630417
12.367688
10.728815
8.648856
6.227822
3.693529
1.119232
-1.481042
-3.839992
-5.774221
-7.374389
-8.675563
-9.746583
-10.670835
-11.403378
-11.975643
-12.524270
-13.058870
-13.372147
-13.413188
-13.337332
-13.124060
-12.789476
-12.234349
-11.301520
-10.152044
-8.812678
-7.228350
-5.498553
-3.788757
-2.191441
-0.658808
0.784206
2.083308
3.187325
4.153404
5.061816
5.817743
6.399886
6.822531
7.086978
7.225697
7.266743
7.294281
7.298181
7.194536
6.982569
6.668512
6.279642
5.798295
5.123941
4.283854
3.383501
2.522373
1.753463
0.960395
0.069913
-0.704452
-1.215932
-1.520637
-1.674417
-1.753643
-1.717793
-1.566085
-1.395675
-1.134865
-0.655850
0.066827
0.850031
1.568292
2.308373
3.003256
3.487206
3.682035
3.656840
3.558651
3.365127
3.038082
2.654927
2.341650
2.095133
1.736656
1.163351
0.407689
-0.397069
-1.241312
-2.189462
-3.223076
-4.262924
-5.127169
-5.865167
-6.621348
-7.316225
-7.959667
-8.611422
-9.170959
-9.605548
-9.997795
-10.317306
-10.431341
-10.427442
-10.376784
-10.187671
-9.884518
-9.458496
-8.916358
-8.243036
-7.554648
-6.943152
-6.213980
-5.337261
-4.439240
-3.700198
-2.927125
-1.946758
-1.054193
-0.253066
0.597157
1.506868
2.300721
2.828832
3.270960
3.822450
4.432648
4.810873
4.851140
4.723337
4.527735
4.238356
3.878580
3.545301
3.246311
2.944464
2.654046
2.316610
1.864617
1.339629
0.768402
0.232244
-0.222347
-0.573810
-0.723434
-0.839287
-1.038786
-1.117493
-0.952018
-0.611719
-0.329349
-0.138676
0.064985
0.284751
0.618296
1.038864
1.517878
2.007544
2.431228
2.913360
3.429003
3.945944
4.384954
4.542117
4.599528
4.764224
4.807868
4.712276
4.813069
4.994130
4.926074
4.678258
4.363422
3.966240
3.645689
3.441515
3.141226
2.802491
2.507657
2.166845
1.724982
1.117388
0.408744
-0.336787
-1.104918
-1.801353
-2.367124
-2.734174
-2.976015
-3.244612
-3.415276
-3.511648
-3.728031
-4.008318
-4.369652
-4.833855
-5.319358
-5.759922
-6.114762
-6.461549
-6.733783
-6.898213
-7.062124
-7.276170
-7.509958
-7.580872
-7.477222
-7.404484
-7.361879
-7.238746
-7.099248
-6.908315
-6.535546
-6.045880
-5.587647
-5.145779
-4.638449
-4.138393
-3.688991
-3.270762
-2.879289
-2.467034
-2.030621
-1.738899
-1.590829
-1.311575
-0.860096
-0.382639
-0.033768
0.194571
0.454341
0.766066
1.047657
1.163776
1.111046
0.972593
0.710230
0.277460
-0.265452
-0.892789
-1.688455
-2.585691
-3.430194
-4.274696
-5.144656
-5.903176
-6.555970
-7.091608
-7.468009
-7.749335
-7.906232
-7.954805
-7.912720
-7.803615
-7.657103
-7.353171
-6.868182
-6.289676
-5.643370
-4.916797
-4.150478
-3.375328
-2.498349
-1.479796
-0.403055
0.711093
1.832774
2.926140
4.022623
5.070789
6.050637
6.931253
7.595742
8.048001
8.323618
8.374015
8.214521
7.927740
7.498606
6.956214
6.412262
5.875065
5.295526
4.624288
3.821089
2.849560
1.748406
0.601014
-0.511049
-1.514530
-2.473590
-3.449276
-4.403141
-5.273100
-6.062532
-6.823909
-7.585026
-8.372120
-9.157136
-9.949166
-10.792629
-11.663628
-12.452540
-13.083514
-13.638115
-14.113748
-14.380267
-14.371172
-14.105167
-13.578614
-12.763979
-11.697369
-10.453857
-9.139169
-7.766812
-6.336267
-4.918451
-3.502713
-2.106977
-0.733581
0.622930
1.875274
2.992798
3.974464
4.831701
5.619061
6.337841
6.890890
7.270414
7.570968
7.776707
7.834638
7.758270
7.589943
7.348102
7.037422
6.666736
6.244876
5.811066
5.389206
4.991764
4.626274
4.299748
4.010629
3.730343
3.445640
3.136259
2.834152
2.586596
2.345794
2.054337
1.670923
1.198927
0.691344
0.231557
-0.087175
-0.249008
-0.247966
-0.068983
0.218583
0.546413
0.876062
1.126221
1.303645
1.453534
1.533546
1.542900
1.482117
1.357951
1.232746
1.111957
0.954800
0.771926
0.606457
0.488785
0.465149
0.532951
0.654785
0.825196
1.012491
1.181084
1.317465
1.438260
1.550482
1.632832
1.686347
1.707391
1.682196
1.593618
1.431786
1.196698
0.877447
0.467276
0.000995
-0.491522
-1.012094
-1.527211
-2.029859
-2.528610
-2.995151
-3.445585
-3.890305
-4.326193
-4.763379
-5.175628
-5.555666
-5.930248
-6.304051
-6.638889
-6.889303
-7.017106
-6.988528
-6.777854
-6.380926
-5.845021
-5.209626
-4.520459
-3.837267
-3.200832
-2.632197
-2.103567
-1.581430
-1.017471
-0.377920
0.369955
1.257585
2.235354
3.257804
4.254016
5.135152
5.874974
6.432179
6.787025
6.977697
7.011730
6.882109
6.596626
6.165155
5.641466
5.019584
4.224178
3.244855
2.076162
0.749530
-0.626457
-1.989197
-3.358431
-4.736757
-6.056894
-7.281697
-8.376356
-9.281385
-9.969248
-10.411110
-10.605154
-10.530857
-10.168478
-9.516717
-8.598435
-7.592611
-6.584449
-5.541737
-4.539550
-3.601785
-2.673891
-1.695342
-0.634187
0.474245
1.567092
2.587983
3.508863
4.273103
4.829269
5.238147
5.512724
5.589099
5.441034
5.039436
4.347417
3.403423
2.319674
1.161372
-0.024206
-1.239917
-2.513816
-3.729787
-4.746516
-5.533869
-6.091848
-6.379668
-6.436554
-6.333943
-6.087161
-5.691272
-5.120559
-4.452173
-3.793918
-3.163199
-2.515075
-1.806165
-1.034652
-0.121565
0.958034
2.089066
3.201395
4.275539
5.296689
6.252898
7.145983
7.969190
8.715766
9.355577
9.864985
10.290228
10.564806
10.588707
10.349204
9.874871
9.237663
8.406408
7.385004
6.313464
5.271278
4.236365
3.187685
2.214078
1.376589
0.586897
-0.220458
-0.952222
-1.547088
-2.094156
-2.521991
-2.763053
-2.967747
-3.135814
-3.239199
-3.292708
-3.267767
-3.170871
-3.011371
-2.870573
-2.646910
-2.215693
-1.735899
-1.248831
-0.702016
-0.098573
0.507469
1.000511
1.343408
1.489400
1.463946
1.273798
0.906749
0.584640
0.425405
0.293446
0.161746
0.109016
0.045636
-0.029174
-0.052031
-0.157494
-0.374917
-0.648709
-0.963286
-1.283057
-1.552693
-1.747516
-1.870643
