EVENT_NAME: 202302060117
EVENT_ID: 13194
EVENT_DATE_YYYYMMDD: 2023/02/06
EVENT_TIME_HHMMSS: 01:17:32.00000
EVENT_LATITUDE_DEGREE: 37.288
EVENT_LONGITUDE_DEGREE: 37.043
EVENT_DEPTH_KM: 8.6
HYPOCENTER_REFERENCE: AFAD
MAGNITUDE_W: 7.7
MAGNITUDE_W_REFERENCE: AFAD
MAGNITUDE_L: 
MAGNITUDE_L_REFERENCE: 
FOCAL_MECHANISM: 
NETWORK: TK
STATION_CODE: 6605
STATION_NAME: 
STATION_LATITUDE_DEGREE: 39.8083
STATION_LONGITUDE_DEGREE: 35.18763
STATION_ELEVATION_M: 1078.0
LOCATION: Kahramanmaras_Pazarck_Turkiye
SENSOR_DEPTH_M: 
VS30_M/S: None
SITE_CLASSIFICATION_EC8: unknown
MORPHOLOGIC_CLASSIFICATION: 
EPICENTRAL_DISTANCE_KM: 323.35
EARTHQUAKE_BACKAZIMUTH_DEGREE: 
DATE_TIME_FIRST_SAMPLE_YYYYMMDD_HHMMSS: 2023/02/06 01:18:05.2267980
DATE_TIME_FIRST_SAMPLE_PRECISION: millisecond
SAMPLING_INTERVAL_S: 0.01
NDATA: 18251
DURATION_S: 
STREAM: HNN
UNITS: cm/s^2
INSTRUMENT: sensor = ACEBOX/SARA | digitizer = 
INSTRUMENT_ANALOG/DIGITAL: 
INSTRUMENTAL_FREQUENCY_HZ: 
INSTRUMENTAL_DAMPING: 
FULL_SCALE_G: 
N_BIT_DIGITAL_CONVERTER: 
PGA_CM/S^2: 3.014
TIME_PGA_S: 
BASELINE_CORRECTION: BASELINE REMOVED
FILTER_TYPE: BUTTERWORTH
FILTER_ORDER: 
LOW_CUT_FREQUENCY_HZ: 
HIGH_CUT_FREQUENCY_HZ: 
LATE/NORMAL_TRIGGERED: 
DATABASE_VERSION: 
HEADER_FORMAT: DYNA 1.2
DATA_TYPE: Acceleration
PROCESSING: Automatic Paolucci et al., 2011
DATA_TIMESTAMP_YYYYMMDD_HHMMSS: 
DATA_LICENSE: U (unknown license)
DATA_CITATION: Turkish Accelerometric Archive v 1.0 - Disaster And Emergency Management Presidency, Earthquake Department
DATA_CREATOR: AFAD
ORIGINAL_DATA_MEDIATOR_CITATION: : AFAD - Disaster And Emergency Management Presidency
ORIGINAL_DATA_MEDIATOR: AFAD PROCESS SERVICE
ORIGINAL_DATA_CREATOR_CITATION: AFAD PROCESS SERVICE
ORIGINAL_DATA_CREATOR: network: TK
USER1: GuestUser
USER2: 
USER3: 
USER4: 
USER5: 
[...]
-0.363252
-0.013258
0.307044
0.554869
0.700291
0.720631
0.621735
0.456674
0.259115
0.033266
-0.225781
-0.497921
-0.730784
-0.902859
-1.042904
-1.179441
-1.293301
-1.361570
-1.400614
-1.395705
-1.330709
-1.220825
-1.062778
-0.869194
-0.661816
-0.444151
-0.225551
-0.020277
0.156240
0.292543
0.366657
0.346550
0.245550
0.093114
-0.099536
-0.302939
-0.492082
-0.654103
-0.778484
-0.873873
-0.922737
-0.896786
-0.819633
-0.681926
-0.458416
-0.178561
0.132389
0.433987
0.668486
0.796840
0.801048
0.734182
0.669420
0.628973
0.616815
0.615646
0.591565
0.547377
0.498981
0.448013
0.415281
0.404292
0.386523
0.355662
0.279210
0.092873
-0.204283
-0.541419
-0.832263
-1.030289
-1.126614
-1.123809
-1.034966
-0.846058
-0.558955
-0.227898
0.142202
0.541294
0.880768
1.104278
1.198030
1.145893
0.975455
0.721784
0.421121
0.130043
-0.111937
-0.272556
-0.363971
-0.413069
-0.397872
-0.352516
-0.309965
-0.221823
-0.103522
0.007999
0.107129
0.165344
0.213039
0.295101
0.390724
0.523521
0.703544
0.862760
0.976152
1.031094
0.992517
0.864864
0.636677
0.320817
-0.003694
-0.312774
-0.606657
-0.857522
-1.052275
-1.174785
-1.236976
-1.287008
-1.323013
-1.310622
-1.233703
-1.062564
-0.777331
-0.436455
-0.115218
0.117644
0.178197
0.064805
-0.163615
-0.458667
-0.717715
-0.852148
-0.862669
-0.757928
-0.559201
-0.323300
-0.087866
0.163232
0.469506
0.818565
1.171365
1.493771
1.738089
1.892395
1.947104
1.864573
1.649012
1.311408
0.854334
0.337175
-0.158008
-0.554295
-0.800717
-0.907563
-0.904757
-0.823162
-0.693639
-0.509641
-0.250126
0.076723
0.431393
0.777646
1.065684
1.226537
1.255995
1.182582
1.020093
0.809442
0.567929
0.314025
0.089813
-0.123410
-0.334296
-0.496084
-0.589836
-0.621165
-0.583057
-0.469198
-0.315827
-0.154975
0.022477
0.177485
0.284564
0.395617
0.525608
0.676875
0.848482
0.967485
0.990396
0.917452
0.738830
0.478614
0.182159
-0.134169
-0.486970
-0.845147
-1.139031
-1.352488
-1.445539
-1.376803
-1.164749
-0.800493
-0.343654
0.080221
0.448919
0.761506
0.983613
1.101446
1.092562
0.950881
0.686222
0.294845
-0.191687
-0.694118
-1.124305
-1.425436
-1.597043
-1.659701
-1.617618
-1.456298
-1.179482
-0.827384
-0.413095
0.038367
0.468320
0.875595
1.240786
1.508016
1.643852
1.598963
1.379193
1.054682
0.677333
0.291100
-0.073624
-0.396732
-0.686641
-0.966964
-1.203567
-1.363017
-1.425909
-1.363719
-1.217362
-1.066563
-0.969303
-0.946625
-0.965563
-0.987774
-0.992216
-0.944522
-0.811725
-0.614634
-0.413569
-0.235649
-0.097008
-0.026401
-0.018452
-0.053756
-0.120856
-0.182579
-0.208530
-0.213908
-0.213908
-0.198010
-0.172760
-0.137457
-0.086723
-0.055628
-0.076203
-0.151252
-0.270956
-0.388556
-0.472490
-0.535615
-0.583076
-0.613470
-0.630304
-0.613003
-0.505690
-0.268854
0.072256
0.469244
0.865998
1.211316
1.504264
1.735957
1.872728
1.886054
1.719123
1.347852
0.817600
0.212065
-0.350919
-0.797706
-1.099772
-1.219009
-1.184407
-1.072886
-0.914138
-0.729438
-0.548947
-0.367754
-0.209240
-0.109876
-0.072002
-0.136296
-0.358404
-0.721725
-1.198671
-1.711857
-2.111650
-2.308975
-2.274140
-2.023977
-1.648265
-1.233509
-0.837924
-0.484422
-0.160146
0.147531
0.449831
0.724776
0.919295
0.999955
0.945948
0.771535
0.519267
0.232164
-0.046756
-0.284762
-0.456603
-0.567657
-0.637329
-0.634991
-0.562047
-0.457773
-0.303701
-0.109416
0.054008
0.163659
0.217900
0.200832
0.157580
0.136538
0.142383
0.187505
0.251332
0.275880
0.246188
0.193116
0.149395
0.120170
0.105441
0.117598
0.156408
0.197323
0.232158
0.284529
0.350459
0.426209
0.530950
0.645511
0.758669
0.869488
0.955292
1.000882
0.981009
0.890529
0.744873
0.571629
0.444210
0.394644
0.404931
0.458471
0.501255
0.489332
0.413581
0.263249
0.064287
-0.122517
-0.273784
-0.416634
-0.566498
-0.699763
-0.790009
-0.814558
-0.747926
-0.581229
-0.333404
-0.043729
0.228411
0.432282
0.542868
0.525566
0.363311
0.118291
-0.118312
-0.315169
-0.479997
-0.601338
-0.681296
-0.730862
-0.755177
-0.768971
-0.746059
-0.632901
-0.419912
-0.153150
0.082751
0.224666
0.265814
0.227238
0.161774
0.127873
0.139095
0.170892
0.193336
0.187023
0.133483
0.023599
-0.124863
-0.283611
-0.433709
-0.552713
-0.633373
-0.677794
-0.688549
-0.662364
-0.563702
-0.373157
-0.123930
0.175798
0.529533
0.878826
1.140913
1.298024
1.356941
1.303167
1.172241
1.025182
0.885605
0.763562
0.641520
0.493994
0.343428
0.256923
0.280069
0.394863
0.598968
0.889110
1.178317
1.399489
1.552392
1.640534
1.672564
1.657600
1.590033
1.491838
1.397383
1.273237
1.091576
0.907578
0.740880
0.578624
0.461492
0.412394
0.403510
0.427824
0.469206
0.473181
0.440449
0.391351
0.304612
0.203144
0.122016
0.070814
0.072217
0.118275
0.196597
0.306949
0.427588
0.540512
0.626783
0.686401
0.736433
0.772438
0.788336
0.743213
0.597323
0.387841
0.140717
-0.137035
-0.395381
-0.627308
-0.842635
-0.994136
-1.056326
-1.006294
-0.814113
-0.523035
-0.162754
0.249430
0.634260
0.936794
1.125000
1.179709
1.108634
0.896346
0.558976
0.148662
-0.301632
-0.731819
-1.099816
-1.398375
-1.581205
-1.633576
-1.561333
-1.316547
-0.945277
-0.553199
-0.157381
0.175780
0.374741
0.480418
0.512448
0.496315
0.463116
0.364453
0.176714
-0.083035
-0.391881
-0.684362
-0.894546
-0.993676
-0.999054
-0.963984
-0.921901
-0.870232
-0.825109
-0.795183
-0.735332
-0.644618
-0.566530
-0.486338
-0.413627
-0.412459
-0.520239
-0.747490
-1.064754
-1.404695
-1.709801
-1.935415
-2.045066
-2.024025
-1.902450
-1.736454
-1.520894
-1.253897
-0.993681
-0.751935
-0.511592
-0.278496
-0.074157
0.067991
0.179746
0.271394
0.272096
0.208035
0.151456
0.083421
0.001358
-0.079770
-0.201813
-0.362665
-0.515335
-0.654679
-0.731364
-0.697464
-0.618207
-0.543158
-0.468811
-0.381371
-0.271720
-0.168382
-0.051250
0.084820
0.165714
0.156596
0.054426
-0.109700
-0.273124
-0.403817
-0.455019
-0.401012
-0.285049
-0.146875
-0.018053
0.063075
0.077102
0.017484
-0.104559
-0.246708
-0.407326
-0.619615
-0.839852
-1.012862
-1.131164
-1.172078
-1.128826
-0.987846
-0.743529
-0.485650
-0.265180
-0.073700
0.049745
0.107726
0.138354
0.109129
-0.008004
-0.195977
-0.443335
-0.734413
-1.023386
-1.296695
-1.563225
-1.769901
-1.874175
-1.896152
-1.814324
-1.615596
-1.381565
-1.176058
-0.999541
-0.892228
-0.916543
-1.037183
-1.188684
-1.392088
-1.640614
-1.888440
-2.121068
-2.293377
-2.379181
-2.398118
-2.342942
-2.226278
-2.069400
-1.847994
-1.550838
-1.207390
-0.852720
-0.518858
-0.227079
0.020746
0.210589
0.319539
0.363960
0.365363
0.317668
0.226487
0.121979
0.031967
-0.037705
-0.060150
0.005313
0.122913
0.238409
0.348995
0.437837
0.492312
0.534395
0.562918
0.566191
0.524341
0.388973
0.154941
-0.163491
-0.569363
-1.010772
-1.415943
-1.728764
-1.886344
-1.880967
-1.738584
-1.458262
-1.044908
-0.538737
0.003672
0.542808
1.013910
1.346369
1.515171
1.491791
1.262435
0.875735
0.377045
-0.177990
-0.722504
-1.228909
-1.661434
-1.963033
-2.089985
-2.035511
-1.812001
-1.419689
-0.890372
-0.315699
0.210111
0.623464
0.879005
0.972290
0.966678
0.928803
0.876198
0.821723
0.761403
0.671859
0.547479
0.373767
0.168259
0.011147
-0.047536
-0.019715
0.069128
0.200756
0.357166
0.506095
0.632813
0.756257
0.889755
1.039619
1.224319
1.461857
1.755038
2.079081
2.388862
2.654690
2.836817
2.909061
2.912334
2.862067
2.754988
2.624762
2.452921
2.214448
1.924071
1.600262
1.305911
1.080063
0.913599
0.814235
0.765838
0.758824
0.790621
0.809792
0.798335
0.788282
0.779397
0.758356
0.744561
0.736612
0.698269
0.627662
0.540923
0.446936
0.355521
0.290993
0.287720
0.333310
0.394565
0.469146
0.535077
0.588850
0.662729
0.762093
0.878991
0.971809
0.990746
0.950767
0.878056
0.797863
0.747596
0.724918
0.724450
0.745725
0.752271
0.719540
0.646361
0.550504
0.457218
0.351074
0.217342
0.070283
-0.080984
-0.211910
-0.301455
-0.346110
-0.333252
-0.257502
-0.113015
0.122886
0.441785
0.803937
1.175441
1.534787
1.861869
2.123722
2.300005
2.383003
2.326424
2.092860
1.707094
1.218692
0.710182
0.262928
-0.088937
-0.331853
-0.487562
-0.597914
-0.681848
-0.724633
-0.684654
-0.540401
-0.292576
0.050872
0.429156
0.768395
1.056667
1.299115
1.477034
1.569851
1.568916
1.477969
1.309401
1.067420
0.773537
0.466561
0.149532
-0.185500
-0.507673
-0.764850
-0.903960
-0.906064
-0.771397
-0.495283
-0.116999
0.283262
0.642608
0.926204
1.132413
1.282744
1.382576
1.436115
1.448974
1.381874
1.203486
0.915915
0.535527
0.130122
-0.233667
-0.517964
-0.682324
-0.709445
-0.607743
-0.421407
-0.182934
0.092245
0.336096
0.511677
0.623432
0.665048
0.671360
0.673932
0.705962
0.788258
0.884349
0.974361
1.012002
0.945369
0.789426
0.561240
0.301257
0.053432
-0.177560
-0.389848
-0.604007
-0.830790
-1.060613
-1.302360
-1.539664
-1.738860
-1.861837
-1.868384
-1.764578
-1.576839
-1.330650
-1.059913
-0.756912
-0.416504
-0.078433
0.229010
0.486421
0.658729
0.715542
0.643532
0.462573
0.221995
-0.016011
-0.218246
-0.393360
-0.548835
-0.693089
-0.829393
-0.937407
-0.990245
-0.957748
-0.833368
-0.657319
-0.467242
-0.282075
-0.129405
-0.027704
0.040565
0.114912
0.221758
0.349878
0.463270
0.532474
0.534811
0.448306
0.279504
0.062073
-0.175466
-0.398976
-0.589755
-0.766272
-0.925254
-1.053843
-1.167702
-1.242518
-1.223113
-1.098733
-0.897667
-0.661299
-0.422358
-0.213577
-0.072364
-0.014382
-0.038230
-0.117253
-0.196745
-0.254025
-0.292368
-0.320190
-0.368820
-0.460937
-0.585551
-0.715542
-0.816777
-0.870784
-0.892294
-0.918713
-0.975760
-1.069746
-1.204180
-1.364331
-1.523080
-1.668736
-1.805741
-1.943682
-2.071569
-2.167660
-2.220031
-2.197820
-2.074142
-1.859048
-1.573582
-1.247435
-0.920353
-0.627171
-0.380515
-0.168228
0.013199
0.149035
0.220577
0.212160
0.118407
-0.049694
-0.254500
-0.453696
-0.628343
-0.778441
-0.910069
-1.025097
-1.113940
-1.179170
-1.227566
-1.258895
-1.286717
-1.341192
-1.421385
-1.490121
-1.521684
-1.500175
-1.406423
-1.241362
-1.037725
-0.846245
-0.718358
-0.690069
-0.745011
-0.843440
-0.967821
-1.110905
-1.278304
-1.455288
-1.623389
-1.792658
-1.935742
-2.010324
-2.008220
-1.929197
-1.793361
-1.607726
-1.375332
-1.147146
-0.967122
-0.844846
-0.782189
-0.780319
-0.838300
-0.940938
-1.066019
-1.202323
-1.347512
-1.479841
-1.567515
-1.587155
-1.511171
-1.351955
-1.146681
-0.915222
-0.706441
-0.575749
-0.532263
-0.559617
-0.621574
-0.670437
-0.660151
-0.586972
-0.486907
-0.384504
-0.297298
-0.239550
-0.221080
-0.234173
-0.250072
-0.263398
-0.266438
-0.261528
-0.297300
-0.385208
-0.516134
-0.689612
-0.849296
-0.946556
-0.990510
-0.992146
-0.961519
-0.915461
-0.862857
-0.799732
-0.710656
-0.580197
-0.400641
-0.196068
-0.023059
0.085423
0.118622
0.083786
0.008036
-0.100446
-0.227399
-0.339154
-0.428932
-0.498838
-0.546766
-0.583239
-0.598904
-0.565705
-0.476161
-0.356690
-0.244702
-0.159132
-0.111671
-0.116348
-0.168485
-0.240962
-0.321388
-0.403919
-0.470318
-0.521987
-0.567344
-0.596802
-0.600777
-0.569449
-0.504921
-0.413506
-0.295439
-0.157732
0.004055
0.177766
0.321785
0.416473
0.447801
0.396600
0.275726
0.099911
-0.105364
-0.284686
-0.408833
-0.488792
-0.554489
-0.630006
-0.695937
-0.733111
-0.738254
-0.698042
-0.624396
-0.565713
-0.553789
-0.590963
-0.673728
-0.787119
-0.891861
-0.946102
-0.931841
-0.852350
-0.734984
-0.606395
-0.484353
-0.400420
-0.370261
-0.384756
-0.451856
-0.567352
-0.700851
-0.822426
-0.898410
-0.906125
-0.857963
-0.774264
-0.662977
-0.517789
-0.338233
-0.155871
-0.009281
0.089849
0.141518
0.151338
0.136842
0.127022
0.146895
0.187809
0.227321
0.260286
0.286705
0.304941
0.321073
0.344686
0.384431
0.433762
0.480288
0.516526
0.528683
0.511850
0.466025
0.397055
0.339541
0.314758
0.311484
0.321304
0.327148
0.307977
0.264724
0.204404
0.146189
0.123276
0.160684
0.260515
0.393078
0.516756
0.628044
0.737694
0.841266
0.944137
1.043033
1.097507
1.079972
0.982011
0.789596
0.510909
0.175176
-0.185807
-0.524346
-0.795083
-0.981186
-1.076809
-1.092708
-1.051326
-0.964119
-0.851897
-0.720035
-0.557547
-0.381731
-0.202409
-0.023554
0.126076
0.226375
0.275939
0.300956
0.319659
0.323634
0.324101
0.326439
0.325971
0.353793
0.437024
0.578238
0.772289
0.994864
1.189149
1.294358
1.299969
1.230063
1.129296
1.058689
1.037414
1.060325
1.123451
1.201772
1.287342
1.387875
1.486537
1.565326
1.607410
1.592213
1.524879
1.421306
1.304408
1.214629
1.166467
1.136541
1.115966
1.105445
1.089781
1.073882
1.088611
1.141215
1.206678
1.258581
1.284532
1.274713
1.216965
1.111288
0.961891
0.779062
0.597869
0.448238
0.320819
0.194568
0.080942
-0.006498
-0.068221
-0.082950
-0.033152
0.079071
0.239222
0.407322
0.545262
0.630598
0.667304
0.695827
0.738144
0.809686
0.941781
1.125078
1.333391
1.561343
1.777605
1.926534
1.989425
1.972124
1.894036
1.780877
1.642469
1.505698
1.385292
1.254365
1.112684
0.965391
0.826516
0.748661
0.731594
0.755908
0.818800
0.888705
0.946920
0.991341
1.034126
1.105902
1.205499
1.325904
1.460338
1.607630
1.790693
2.005552
2.233037
2.462158
2.655274
2.764457
2.766795
2.675380
2.508215
2.264832
1.968143
1.659296
1.364244
1.098884
0.883790
0.746084
0.700727
0.747252
0.884491
1.110573
1.412171
1.764269
2.128292
2.456777
2.720266
2.911278
3.013681
3.010641
2.914784
2.752061
2.543982
2.316730
2.101403
1.910858
1.751408
1.629833
1.533976
1.448406
1.375929
1.322155
1.275162
1.223492
1.159899
1.046040
0.847546
0.575873
0.257441
-0.070343
-0.365863
-0.598725
-0.729418
-0.735029
-0.626781
-0.450265
-0.271176
-0.106115
0.039774
0.149191
0.248321
0.359842
0.498016
0.676169
0.861336
1.026163
1.148673
1.203381
1.196834
1.133943
1.035748
0.944800
0.870219
0.817614
0.787688
0.765945
0.743500
0.717081
0.706793
0.732277
0.776932
0.812235
0.809663
0.745603
0.601350
0.375501
0.104062
-0.180235
-0.445829
-0.651103
-0.774782
-0.820841
-0.794422
-0.692720
-0.526490
-0.308592
-0.048375
0.224466
0.485617
0.711699
0.848704
0.864368
0.767342
0.588721
0.370120
0.140063
-0.069653
-0.226297
-0.313036
-0.319817
-0.253418
-0.137689
0.008668
0.165078
0.286185
0.340893
0.338789
0.288522
0.201082
0.088158
-0.046977
-0.191464
-0.340160
-0.481140
-0.592895
-0.679868
-0.738083
-0.753514
-0.732706
-0.678466
-0.599910
-0.535148
-0.520185
-0.569984
-0.686883
-0.867609
-1.089015
-1.310889
-1.504473
-1.641946
-1.687537
-1.650129
-1.556845
-1.400668
-1.197732
-0.985678
-0.779002
-0.583548
-0.411005
-0.281248
-0.206433
-0.180949
-0.201290
-0.253193
-0.298550
-0.312812
-0.293641
-0.230282
-0.115254
0.032272
0.209958
0.411257
0.601334
0.766628
0.888904
0.938469
0.905971
0.780422
0.560185
0.266769
-0.052365
-0.341105
-0.565550
-0.703023
-0.739028
-0.680813
-0.571396
-0.462680
-0.363083
-0.262550
-0.149626
-0.011920
0.138879
0.287340
0.417565
0.496822
0.501030
0.448659
0.383897
0.326149
0.301600
0.349061
0.467830
0.644814
0.853127
1.035723
1.161973
1.232346
1.243334
1.189794
1.081546
0.939865
0.764750
0.563918
0.371737
0.211585
0.110585
0.096557
0.175346
0.341108
0.568593
0.803559
1.010235
1.181609
1.286583
1.323289
1.325627
1.293129
1.248707
1.216911
1.171320
1.087153
0.938691
0.733651
0.518791
0.314452
0.146352
0.044182
0.004436
0.012619
0.044182
0.088369
0.145182
0.196383
0.236830
0.275640
0.313281
0.355364
0.407501
0.473665
0.550117
0.609735
0.652520
0.708865
0.772457
0.827399
0.864573
0.865274
0.838855
0.789523
0.707694
0.610668
0.512239
0.428072
0.384586
0.396977
0.474831
0.622357
0.835112
1.094159
1.377521
1.672573
1.961079
2.231582
2.478706
2.684213
2.827765
2.880836
2.816074
2.641661
2.399213
2.120059
1.808173
1.484832
1.169907
0.858488
0.577230
0.364474
0.252251
0.273761
0.418949
0.657655
0.951071
1.219937
1.409547
1.529485
1.607806
1.667658
1.709274
1.717457
1.690570
1.626509
1.525275
1.409311
1.296153
1.197490
1.128052
1.096256
1.116128
1.178552
1.244249
1.297321
1.345015
1.408374
1.512414
1.663213
1.838327
2.016480
2.207258
2.394997
2.532937
2.612662
2.629028
2.560291
2.407387
2.181305
1.911503
1.629310
1.342908
1.067728
0.811019
0.564596
0.352074
0.200106
0.108457
0.075258
0.083908
0.121783
0.213197
0.373114
0.599664
0.880688
1.179013
1.444373
1.634216
1.734047
1.752049
1.698042
1.584884
1.416783
1.202859
0.974672
0.756539
0.572073
0.463825
0.436470
0.451199
0.486970
0.533028
0.578618
0.615090
0.627715
0.626780
0.625143
0.619532
0.623272
0.638937
0.655068
0.671434
0.690839
0.725207
0.796983
0.897983
0.996177
1.068654
1.094839
1.048080
0.919491
0.732453
0.542843
0.400928
0.307409
0.248726
0.228385
0.241010
0.291510
0.423371
0.662780
0.975600
1.306189
1.598202
1.801605
1.905645
1.932999
1.892786
1.804176
1.698734
1.562897
1.368144
1.103485
0.782014
0.464049
0.198923
0.006040
-0.097766
-0.116003
-0.045630
0.100493
0.265086
0.451189
0.671426
0.875998
1.033811
1.125225
1.115172
0.992428
0.770788
0.503558
0.267422
0.105634
0.013752
-0.011031
0.036897
0.132988
0.263914
0.413778
0.550082
0.685450
0.824793
0.967643
1.155850
1.378424
1.602636
1.843213
2.077711
2.259839
2.360138
2.348682
2.235290
2.073502
1.883191
1.650095
1.399931
1.160055
0.913399
0.665807
0.461235
0.320956
0.255726
0.277236
0.367949
0.500745
0.661364
0.822450
0.962962
1.106513
1.270405
1.443882
1.621568
1.793643
1.935090
2.015750
2.028842
1.987694
1.882718
1.709474
1.485964
1.205407
0.864531
0.482739
0.096974
-0.237357
-0.490092
-0.650243
-0.700276
-0.657023
-0.551581
-0.402185
-0.222395
-0.022031
0.184412
0.376593
0.542355
0.683335
0.791583
0.838809
0.811923
0.730561
0.610389
0.450004
0.270915
0.101412
-0.036061
-0.106435
-0.112046
-0.089134
-0.054298
-0.025074
-0.008708
0.001111
-0.017125
-0.076276
-0.152962
-0.251858
-0.399852
-0.578474
-0.764109
-0.953719
-1.111766
-1.197102
-1.198037
-1.124391
-0.996738
-0.843368
-0.711506
-0.630379
-0.590867
-0.573099
-0.537562
-0.477242
-0.432587
-0.397518
-0.344914
-0.306103
-0.324574
-0.388868
-0.458774
-0.530550
-0.610275
-0.666152
-0.663347
-0.601859
-0.527044
-0.469997
-0.400092
-0.327148
-0.304703
-0.310315
-0.288805
-0.244384
-0.215627
-0.225213
-0.281559
-0.388872
-0.515590
-0.613317
-0.669897
-0.676911
-0.652362
-0.660311
-0.712448
-0.775574
-0.835894
-0.841973
-0.755936
-0.612150
-0.407344
-0.156012
0.047859
0.171771
0.233493
0.241910
0.226011
0.193513
0.145818
0.096721
0.026581
-0.085875
-0.222647
-0.342117
-0.422778
-0.461588
-0.461121
-0.452237
-0.466031
-0.503906
-0.545990
-0.574747
-0.589009
-0.572877
-0.509285
-0.448965
-0.459486
-0.528690
-0.607246
-0.685101
-0.746356
-0.758748
-0.711755
-0.602805
-0.469541
-0.359189
-0.273619
-0.227328
-0.229432
-0.266840
-0.334875
-0.412496
-0.486844
-0.572414
-0.670375
-0.772311
-0.878689
-0.987638
-1.081625
-1.123241
-1.102200
-1.039542
-0.935269
-0.787509
-0.615668
-0.424189
-0.226864
-0.043333
0.115649
0.218753
0.248445
0.203790
0.059536
-0.171923
-0.445934
-0.769743
-1.141247
