EVENT_NAME: 202302060117
EVENT_ID: 13194
EVENT_DATE_YYYYMMDD: 2023/02/06
EVENT_TIME_HHMMSS: 01:17:32.00000
EVENT_LATITUDE_DEGREE: 37.288
EVENT_LONGITUDE_DEGREE: 37.043
EVENT_DEPTH_KM: 8.6
HYPOCENTER_REFERENCE: AFAD
MAGNITUDE_W: 7.7
MAGNITUDE_W_REFERENCE: AFAD
MAGNITUDE_L: 
MAGNITUDE_L_REFERENCE: 
FOCAL_MECHANISM: 
NETWORK: TK
STATION_CODE: 4002
STATION_NAME: 
STATION_LATITUDE_DEGREE: 39.36518
STATION_LONGITUDE_DEGREE: 33.712583
STATION_ELEVATION_M: 1112.0
LOCATION: Kahramanmaras_Pazarck_Turkiye
SENSOR_DEPTH_M: 
VS30_M/S: None
SITE_CLASSIFICATION_EC8: unknown
MORPHOLOGIC_CLASSIFICATION: 
EPICENTRAL_DISTANCE_KM: 371.10
EARTHQUAKE_BACKAZIMUTH_DEGREE: 
DATE_TIME_FIRST_SAMPLE_YYYYMMDD_HHMMSS: 2023/02/06 01:17:59.3851810
DATE_TIME_FIRST_SAMPLE_PRECISION: millisecond
SAMPLING_INTERVAL_S: 0.01
NDATA: 21001
DURATION_S: 
STREAM: HNN
UNITS: cm/s^2
INSTRUMENT: sensor = GMS+/GEOSIG | digitizer = 
INSTRUMENT_ANALOG/DIGITAL: 
INSTRUMENTAL_FREQUENCY_HZ: 
INSTRUMENTAL_DAMPING: 
FULL_SCALE_G: 
N_BIT_DIGITAL_CONVERTER: 
PGA_CM/S^2: 2.330
TIME_PGA_S: 
BASELINE_CORRECTION: BASELINE REMOVED
FILTER_TYPE: BUTTERWORTH
FILTER_ORDER: 
LOW_CUT_FREQUENCY_HZ: 
HIGH_CUT_FREQUENCY_HZ: 
LATE/NORMAL_TRIGGERED: 
DATABASE_VERSION: 
HEADER_FORMAT: DYNA 1.2
DATA_TYPE: Acceleration
PROCESSING: Automatic Paolucci et al., 2011
DATA_TIMESTAMP_YYYYMMDD_HHMMSS: 
DATA_LICENSE: U (unknown license)
DATA_CITATION: Turkish Accelerometric Archive v 1.0 - Disaster And Emergency Management Presidency, Earthquake Department
DATA_CREATOR: AFAD
ORIGINAL_DATA_MEDIATOR_CITATION: : AFAD - Disaster And Emergency Management Presidency
ORIGINAL_DATA_MEDIATOR: AFAD PROCESS SERVICE
ORIGINAL_DATA_CREATOR_CITATION: AFAD PROCESS SERVICE
ORIGINAL_DATA_CREATOR: network: TK
USER1: GuestUser
USER2: 
USER3: 
USER4: 
USER5: 
[...]
1.123972
1.123973
1.115920
1.105010
1.096178
1.101114
1.108907
1.118259
1.130468
1.135404
1.140339
1.152549
1.155926
1.151250
1.164239
1.184241
1.204243
1.214115
1.205023
1.192294
1.174371
1.164240
1.154888
1.148654
1.159045
1.161902
1.158266
1.145018
1.129692
1.131770
1.135147
1.135667
1.131771
1.135667
1.131251
1.103197
1.080597
1.058777
1.051763
1.055400
1.045009
1.037736
1.022410
1.009422
1.004746
0.996953
1.007863
1.028905
1.052284
1.069169
1.078781
1.104758
1.123461
1.131774
1.149958
1.157491
1.160868
1.171519
1.175156
1.165025
1.155674
1.156713
1.149699
1.144244
1.149700
1.161649
1.180353
1.193861
1.211525
1.215681
1.205291
1.204252
1.196719
1.199057
1.213864
1.208669
1.192563
1.171522
1.158794
1.158794
1.152819
1.152820
1.150742
1.139831
1.132558
1.126324
1.122427
1.116972
1.115154
1.114115
1.120090
1.140352
1.160614
1.172044
1.160874
1.140613
1.117753
1.093595
1.090478
1.095414
1.107363
1.121910
1.133600
1.149966
1.153602
1.156460
1.166331
1.172046
1.179580
1.178801
1.167891
1.150486
1.125289
1.103469
1.072297
1.043722
1.026058
1.003199
0.990990
0.978521
0.965533
0.956182
0.945791
0.930984
0.906826
0.888383
0.862926
0.833832
0.808634
0.777722
0.735640
0.678751
0.628356
0.586014
0.546270
0.505486
0.451715
0.396644
0.344431
0.301309
0.265981
0.227276
0.191428
0.158438
0.119992
0.074533
0.030632
-0.001838
-0.034309
-0.073274
-0.106265
-0.129903
-0.151983
-0.171466
-0.181856
-0.187831
-0.188870
-0.186272
-0.192766
-0.209911
-0.227834
-0.233809
-0.243420
-0.262383
-0.268617
-0.264461
-0.250953
-0.231990
-0.212247
-0.196661
-0.203155
-0.219520
-0.220559
-0.219520
-0.225235
-0.216922
-0.206011
-0.208869
-0.215363
-0.224454
-0.236404
-0.253288
-0.270433
-0.296669
-0.336933
-0.371742
-0.402654
-0.432787
-0.448113
-0.446035
-0.435384
-0.423435
-0.419019
-0.423954
-0.434345
-0.457464
-0.481882
-0.492532
-0.496688
-0.496169
-0.494350
-0.493571
-0.500324
-0.519027
-0.530457
-0.533574
-0.537990
-0.545783
-0.557992
-0.574357
-0.599035
-0.627869
-0.648910
-0.663976
-0.681121
-0.698525
-0.713072
-0.728398
-0.752037
-0.767103
-0.781131
-0.805808
-0.828408
-0.866074
-0.908676
-0.946082
-0.971540
-0.983489
-0.999334
-1.006088
-1.002451
-0.987385
-0.963226
-0.940626
-0.917507
-0.900362
-0.886334
-0.878281
-0.884515
-0.889191
-0.886074
-0.895425
-0.919324
-0.948937
-0.984525
-1.018555
-1.052324
-1.084535
-1.108694
-1.139865
-1.167401
-1.189741
-1.224030
-1.252604
-1.265592
-1.272866
-1.283516
-1.293127
-1.300660
-1.302219
-1.301180
-1.312609
-1.320402
-1.322740
-1.323779
-1.314687
-1.308452
-1.299360
-1.278579
-1.268188
-1.264031
-1.257277
-1.262472
-1.274162
-1.269745
-1.253640
-1.237534
-1.220129
-1.224545
-1.237274
-1.234676
-1.224545
-1.212595
-1.203503
-1.194931
-1.202204
-1.218829
-1.217011
-1.197788
-1.162459
-1.119857
-1.078554
-1.029717
-0.980101
-0.940357
-0.890741
-0.822422
-0.757479
-0.702668
-0.651234
-0.608892
-0.579278
-0.552522
-0.532520
-0.521349
-0.499788
-0.464979
-0.422118
-0.386010
-0.362111
-0.337952
-0.327561
-0.318729
-0.298467
-0.276127
-0.247552
-0.219497
-0.187805
-0.154555
-0.112212
-0.068052
-0.044672
-0.026229
-0.002070
0.015075
0.007022
0.001827
-0.002849
-0.025708
-0.033761
-0.048568
-0.072466
-0.078181
-0.076362
-0.069868
-0.069608
-0.062594
-0.052983
-0.044930
-0.020251
0.002608
0.015077
0.026507
0.037158
0.031703
0.029625
0.037418
0.024690
0.014559
-0.003625
-0.033238
-0.060254
-0.093504
-0.109350
-0.108570
-0.107271
-0.099478
-0.083112
-0.063889
-0.042588
-0.027002
-0.009597
0.005989
0.008067
0.010665
0.016640
0.032745
0.041318
0.031967
0.010925
-0.014791
-0.035313
-0.052198
-0.053237
-0.045703
-0.031935
-0.011933
0.001315
0.007810
0.014304
0.024435
0.032228
0.049893
0.073532
0.081844
0.089378
0.104445
0.115095
0.130162
0.149125
0.172504
0.201599
0.219263
0.231732
0.239006
0.246539
0.261866
0.256930
0.244202
0.250956
0.257710
0.260827
0.268880
0.267841
0.271478
0.276674
0.258750
0.242904
0.240567
0.225760
0.203420
0.199264
0.193549
0.173547
0.161598
0.145493
0.135102
0.122633
0.095098
0.071979
0.044184
0.020285
-0.009588
-0.030109
-0.017900
-0.013484
-0.025693
-0.036863
-0.065956
-0.095310
-0.103363
-0.119208
-0.106999
-0.082841
-0.091153
-0.108298
-0.145704
-0.185708
-0.174278
-0.142067
-0.136611
-0.134273
-0.151418
-0.156094
-0.152197
-0.170640
-0.171939
-0.211423
-0.256883
-0.294549
-0.312213
-0.267273
-0.275845
-0.327539
-0.392740
-0.462618
-0.504440
-0.531456
-0.474567
-0.412742
-0.421314
-0.433783
-0.488334
-0.527818
-0.471189
-0.404948
-0.379490
-0.367801
-0.347539
-0.358449
-0.442094
-0.484696
-0.417675
-0.378190
-0.378710
-0.380528
-0.399231
-0.390659
-0.431442
-0.471706
-0.431182
-0.419492
-0.423648
-0.444949
-0.456639
-0.416894
-0.417153
-0.432999
-0.408321
-0.397930
-0.365979
-0.317402
-0.304933
-0.255057
-0.256356
-0.262850
-0.221547
-0.239990
-0.205441
-0.189075
-0.254277
-0.292722
-0.321037
-0.355066
-0.349611
-0.367275
-0.431438
-0.489885
-0.562360
-0.593013
-0.611196
-0.583921
-0.582102
-0.658474
-0.660292
-0.647303
-0.591973
-0.532486
-0.501053
-0.480532
-0.531186
-0.508846
-0.427279
-0.395067
-0.393249
-0.412212
-0.445981
-0.485206
-0.512482
-0.481050
-0.456891
-0.531444
-0.565214
-0.589632
-0.629636
-0.570149
-0.580020
-0.639247
-0.653534
-0.672497
-0.654573
-0.633531
-0.606256
-0.609373
-0.652494
-0.664443
-0.714318
-0.717176
-0.660027
-0.690419
-0.746269
-0.773545
-0.789390
-0.812769
-0.841603
-0.863943
-0.882387
-0.912000
-0.966811
-1.054353
-1.087603
-1.079810
-1.151246
-1.156441
-1.179560
-1.230994
-1.226578
-1.282947
-1.295416
-1.302170
-1.307625
-1.296974
-1.304767
-1.320093
-1.326327
-1.298272
-1.276711
-1.222420
-1.195923
-1.159296
-1.136696
-1.123707
-1.081884
-1.070974
-1.006292
-0.984990
-0.953299
-0.882901
-0.896669
-0.919269
-0.915372
-0.921866
-0.921866
-0.934854
-0.971221
-0.936932
-0.964987
-1.025253
-1.035903
-1.083440
-1.060321
-1.053047
-1.059022
-1.022134
-1.042656
-1.021874
-0.996677
-1.034343
-1.044474
-1.045772
-1.050448
-1.034342
-1.032264
-1.036420
-1.022133
-1.041875
-1.089412
-1.079541
-1.042654
-1.025249
-1.022911
-1.033561
-1.020053
-1.035899
-1.058758
-1.035379
-1.011220
-1.009142
-1.039795
-1.024728
-1.011739
-1.036417
-1.036677
-1.025507
-0.997711
-1.004725
-0.999789
-0.989658
-1.013816
-1.010699
-1.008880
-0.982903
-0.982124
-1.011478
-1.005762
-1.042649
-1.048624
-1.035635
-1.076938
-1.083952
-1.109149
-1.161622
-1.188378
-1.209939
-1.221109
-1.256177
-1.292544
-1.300597
-1.326054
-1.318521
-1.285270
-1.310208
-1.317741
-1.274360
-1.306830
-1.349172
-1.301375
-1.319299
-1.352029
-1.329689
-1.336443
-1.306569
-1.295399
-1.304751
-1.270461
-1.289424
-1.315661
-1.284228
-1.285267
-1.302672
-1.313582
-1.328388
-1.328648
-1.407358
-1.490483
-1.485547
-1.489184
-1.531006
-1.560620
-1.553086
-1.578543
-1.599584
-1.597766
-1.620885
-1.638809
-1.660629
-1.662967
-1.649459
-1.647640
-1.685307
-1.711803
-1.708426
-1.729726
-1.735961
-1.725830
-1.696735
-1.684526
-1.699593
-1.696735
-1.666342
-1.616986
-1.602958
-1.561915
-1.507623
-1.515416
-1.484763
-1.441901
-1.430212
-1.421639
-1.424756
-1.414106
-1.457227
-1.511518
-1.524766
-1.572823
-1.603735
-1.601917
-1.621659
-1.643999
-1.652052
-1.681665
-1.707642
-1.712837
-1.715434
-1.702446
-1.712057
-1.718291
-1.726604
-1.761932
-1.762971
-1.764789
-1.748424
-1.723226
-1.786349
-1.844537
-1.862461
-1.886100
-1.872332
-1.857005
-1.858304
-1.863240
-1.892593
-1.904023
-1.881163
-1.877526
-1.907399
-1.955196
-2.004033
-2.010007
-2.007409
-2.027671
-2.042737
-2.052868
-2.060142
-2.112095
-2.157294
-2.139370
-2.150280
-2.154696
-2.111575
-2.088455
-2.093131
-2.126641
-2.137031
-2.096248
-2.080921
-2.074946
-2.031825
-1.950777
-1.878821
-1.872586
-1.871028
-1.835959
-1.801410
-1.796214
-1.809462
-1.799591
-1.772055
-1.733869
-1.688150
-1.680876
-1.718023
-1.736206
-1.745558
-1.711788
-1.608400
-1.568136
-1.596450
-1.628142
-1.639831
-1.567356
-1.444745
-1.383440
-1.345254
-1.359541
-1.483710
-1.544236
-1.497477
-1.453836
-1.387076
-1.317198
-1.387595
-1.482670
-1.485527
-1.494619
-1.485527
-1.437210
-1.375904
-1.317456
-1.341095
-1.417467
-1.506567
-1.574626
-1.524491
-1.451755
-1.374085
-1.328885
-1.429155
-1.546830
-1.607875
-1.574365
-1.447858
-1.328105
-1.230691
-1.201338
-1.279008
-1.342911
-1.328104
-1.248874
-1.174321
-1.138213
-1.052230
-1.010407
-1.056645
-1.138992
-1.293034
-1.289917
-1.057944
-0.991703
-1.088596
-1.096908
-1.080803
-1.082621
-1.101584
-1.154836
-1.094050
-0.966244
-0.990143
-1.008066
-0.975855
-1.016379
-1.048590
-1.049629
-1.003909
-0.941305
-0.948319
-0.946760
-0.903378
-0.949877
-1.000531
-0.930394
-0.868569
-0.850125
-0.852203
-0.827785
-0.744399
-0.731151
-0.706992
-0.665170
-0.656078
-0.548533
-0.515023
-0.515802
-0.403582
-0.414493
-0.393451
-0.240188
-0.201223
-0.189533
-0.167452
-0.145632
-0.109524
-0.072896
0.028153
0.037245
-0.021462
-0.057570
-0.131603
-0.047698
0.050754
-0.002238
-0.013408
-0.047697
-0.084844
-0.090559
-0.133940
-0.092117
-0.032370
-0.053411
-0.025616
-0.053151
-0.169008
-0.178099
-0.163033
-0.197322
-0.239404
-0.216544
-0.155499
-0.231091
-0.278888
-0.288759
-0.364351
-0.277069
-0.273173
-0.365650
-0.264080
-0.276549
-0.350583
-0.354999
-0.407472
-0.376299
-0.338373
-0.406432
-0.515275
-0.603336
-0.584632
-0.543069
-0.561253
-0.570085
-0.615544
-0.678668
-0.656327
-0.653470
-0.666198
-0.613465
-0.653210
-0.709839
-0.670873
-0.649053
-0.645935
-0.665418
-0.676588
-0.719969
-0.756336
-0.660222
-0.650351
-0.766726
-0.796080
-0.840240
-0.847514
-0.776857
-0.825173
-0.807509
-0.771141
-0.819458
-0.788026
-0.755035
-0.709316
-0.667233
-0.672429
-0.658401
-0.616318
-0.564624
-0.537608
-0.494747
-0.433441
-0.422271
-0.428505
-0.425907
-0.445909
-0.439415
-0.383825
-0.343041
-0.355769
-0.379668
-0.366679
-0.370835
-0.327454
-0.293944
-0.404864
-0.391356
-0.303555
-0.321738
-0.278876
-0.240950
-0.208479
-0.154707
-0.172631
-0.156525
-0.109767
-0.062489
0.019858
0.033886
0.050251
0.133377
0.133117
0.116752
0.130001
0.090516
0.147925
0.198320
0.161173
0.200398
0.187410
0.144289
0.142730
0.132859
0.151043
0.164032
0.140133
0.146108
0.153382
0.081426
0.024278
-0.006115
0.032850
0.044540
-0.017285
0.020382
-0.014167
-0.073914
-0.025597
-0.053911
-0.092616
-0.066120
-0.118073
-0.186392
-0.200939
-0.189249
-0.189249
-0.281986
-0.337057
-0.350045
-0.380697
-0.396283
-0.444860
-0.453692
-0.411090
-0.406414
-0.406933
-0.363032
-0.333678
-0.285361
-0.238343
-0.216782
-0.156516
-0.112355
-0.060142
-0.016241
-0.042997
-0.074169
-0.018318
0.027920
0.020907
0.067925
0.086888
0.101695
0.179886
0.214435
0.245867
0.305094
0.298081
0.286651
0.304056
0.363023
0.461995
0.477321
0.506415
0.496025
0.421472
0.503558
0.577852
0.599933
0.653705
0.559929
0.501481
0.670850
0.669551
0.567463
0.665915
0.665915
0.627729
0.698386
0.725143
0.698906
0.649031
0.675787
0.757354
0.758134
0.728520
0.739431
0.706181
0.725144
0.819700
0.741250
0.686179
0.817362
0.816583
0.745407
0.787489
0.813207
0.828793
0.816844
0.780996
0.831910
0.894774
0.956599
1.035829
0.961276
0.834249
0.901269
0.991669
1.003359
1.042324
1.048559
0.969849
0.924909
0.958160
0.932962
0.933222
1.006737
1.042065
1.108566
1.101553
0.994009
0.943874
0.968812
1.098696
1.131167
1.057393
1.104151
1.114023
1.054796
1.071681
1.180264
1.220009
1.134545
1.177407
1.308070
1.279236
1.184941
1.229102
1.304954
1.303655
1.262612
1.300279
1.426006
1.423669
1.387042
1.396653
1.427046
1.453802
1.402368
1.429125
1.484455
1.434061
1.412500
1.490950
1.512251
1.436659
1.426528
1.501341
1.539008
1.496926
1.477443
1.496407
1.508876
1.503421
1.500304
1.561089
1.583430
1.534593
1.544984
1.563947
1.552258
1.600056
1.613564
1.574339
1.588107
1.566546
1.547323
1.592523
1.580314
1.533296
1.553558
1.552779
1.495890
1.527063
1.557715
1.544727
1.555118
1.516413
1.495112
1.505763
1.524986
1.535896
1.520830
1.524986
1.499529
1.497971
1.523688
1.510440
1.523428
1.536157
1.533040
1.566290
1.572265
1.554861
1.578240
1.588371
1.565252
1.560057
1.629155
1.666562
1.616687
1.633572
1.625260
1.569669
1.587593
1.600062
1.598244
1.573307
1.535381
1.525250
1.507586
1.499273
1.501871
1.495637
1.441086
1.380300
1.365494
1.345232
1.337699
1.338219
1.315359
1.288863
1.283148
1.272758
1.261588
1.286526
1.287565
1.276655
1.311204
1.315361
1.274837
1.281851
1.324713
1.343676
1.334325
1.318479
1.302633
1.309387
1.325753
1.325753
1.333806
1.346015
1.343418
1.342119
1.374330
1.381084
1.382124
1.420829
1.413556
1.413037
1.479278
1.512268
1.492526
1.479018
1.453561
1.453561
1.464472
1.436677
1.453562
1.481097
1.452523
1.409142
1.390958
1.416416
1.447848
1.448627
1.423690
1.417975
1.455642
1.478761
1.468630
1.460578
1.489672
1.551237
1.585007
1.595398
1.652027
1.711514
1.717489
1.738011
1.798018
1.859323
1.903224
1.952580
1.985571
1.989987
2.009989
2.043499
2.115975
2.159876
2.143770
2.192087
2.253652
2.251055
2.264303
2.280149
2.278591
2.309503
2.320673
2.324310
2.329766
2.299373
2.266902
2.249238
2.265084
2.268981
2.254694
2.255733
2.241965
2.223003
2.226899
2.254435
2.245603
2.198325
2.200403
2.197286
2.130007
2.095198
2.106368
2.125331
2.104290
2.033893
2.007397
2.019347
2.025062
2.008956
1.971290
1.964536
1.979603
1.959081
1.916999
1.887386
1.894660
1.935443
1.969733
1.956225
1.908168
1.914143
1.927651
1.901415
1.895960
1.909727
1.908169
1.850241
1.805301
1.770752
1.721397
1.725293
1.695680
1.641129
1.621127
1.581902
1.538001
1.527091
1.510986
1.478255
1.480333
1.475918
1.456695
1.465267
1.476957
1.466047
1.437473
1.437473
1.444747
1.437733
1.451501
1.465788
1.455138
1.419290
1.410458
1.439293
1.449683
1.447086
1.450203
1.463452
1.458516
1.439034
1.444229
1.449685
1.446048
1.443710
1.409421
1.393835
1.418513
1.400849
1.391757
1.394355
1.376951
1.382146
1.383186
1.384744
1.398253
1.416956
1.437997
1.467611
1.473326
1.454623
1.483457
1.530995
1.566583
1.571779
1.558791
1.568402
1.579572
1.617499
1.650230
1.640099
1.653347
1.683480
1.727122
1.772321
1.755177
1.771283
1.809469
1.802715
1.827393
1.834147
1.846876
1.880646
1.874412
1.874672
1.890258
1.923768
1.925327
1.864022
1.859346
1.915976
1.921950
1.920132
1.937797
1.926107
1.919353
1.907924
1.884545
1.872855
1.860387
1.838566
1.789730
1.768949
1.781937
1.761676
1.738556
1.734920
1.723230
1.711801
1.727647
1.715957
1.674914
1.673875
1.677512
1.679591
1.665303
1.616727
1.600102
1.593348
1.562956
1.548409
1.525030
1.470219
1.437748
1.440346
1.431514
1.398783
1.381379
1.375664
1.354364
1.338258
1.328647
1.313321
1.319295
1.311503
1.231234
1.181099
1.194867
1.165514
1.110443
1.062126
1.023161
0.990690
0.943413
0.910423
0.863664
0.807555
0.788332
0.752744
0.715857
0.696375
0.682867
0.652994
0.583636
0.542333
0.516876
0.498173
0.477651
0.423879
0.381797
0.354781
0.341274
0.309063
0.247238
0.205156
0.182816
0.152683
0.117614
0.120732
0.118654
0.099691
0.073974
0.036827
0.030593
0.048258
0.068260
0.023840
-0.000578
0.039686
0.045141
0.047739
0.036309
0.029296
0.018905
-0.022658
-0.033568
-0.004993
-0.009928
-0.059804
-0.072013
-0.109159
-0.130720
-0.111237
-0.153579
-0.197220
-0.233328
-0.243718
-0.244237
-0.274370
-0.270474
-0.262161
-0.288397
-0.324245
-0.325284
-0.301126
-0.314893
-0.336713
-0.330739
-0.348403
-0.376457
-0.361910
-0.372820
-0.415682
-0.428670
-0.439320
-0.459582
-0.483481
-0.498547
-0.512055
-0.536213
-0.561670
-0.591024
-0.609207
-0.620377
-0.647393
-0.670252
-0.689995
-0.714932
-0.741688
-0.795720
-0.813124
-0.835204
-0.905341
-0.925603
-0.954177
-1.001455
-1.043277
-1.080164
-1.077047
-1.112375
-1.164329
-1.192124
-1.225893
-1.238102
-1.271612
-1.311876
-1.298368
-1.316292
-1.343048
-1.367985
-1.441499
-1.465138
-1.491115
-1.519689
-1.500726
-1.517611
-1.530599
-1.521247
-1.500465
-1.491373
-1.500465
-1.492672
-1.499945
-1.486437
-1.462538
-1.484619
-1.518908
-1.511894
-1.471110
-1.485657
-1.521505
-1.505399
-1.511114
-1.539169
-1.563846
-1.591122
-1.603331
-1.624372
-1.651387
-1.686456
-1.715290
-1.724122
-1.740227
-1.752956
-1.744903
-1.744383
-1.760489
-1.755293
-1.741785
-1.741785
-1.735550
-1.710353
-1.718925
-1.730874
-1.711132
-1.713469
-1.686453
-1.673205
-1.697103
-1.711391
-1.715806
-1.687751
-1.670347
-1.676841
-1.698401
-1.697882
-1.704635
-1.741003
-1.758667
-1.776850
-1.778669
-1.804645
-1.813997
-1.781006
-1.795553
-1.826985
-1.848545
-1.847246
-1.838674
-1.836076
-1.840232
-1.850882
-1.838413
-1.825165
-1.834257
-1.853479
-1.837633
-1.822307
-1.846725
-1.855297
-1.853738
-1.878936
-1.890625
-1.873740
-1.878416
-1.874779
-1.886988
-1.923355
-1.910626
-1.905950
-1.918419
-1.937122
-1.963359
-1.941538
-1.924913
-1.919717
-1.905430
-1.916080
-1.917379
-1.919976
-1.919976
-1.885687
-1.868282
-1.883868
-1.890622
-1.870619
-1.856851
-1.867502
-1.837888
-1.783856
-1.769049
-1.768010
-1.750865
-1.684364
-1.647218
-1.676831
-1.643580
-1.564871
-1.556818
-1.565650
-1.532139
-1.529282
-1.519151
-1.502006
-1.523307
-1.512136
-1.499667
-1.494991
-1.497849
-1.517851
-1.500966
-1.496030
-1.495510
-1.490315
-1.480963
-1.450830
-1.462259
-1.464077
-1.463818
-1.482261
-1.451089
-1.427450
-1.443815
-1.447971
-1.430566
-1.407966
-1.408745
-1.406148
-1.370040
-1.375235
-1.380430
-1.359389
-1.368221
-1.360947
-1.359388
-1.348478
-1.312630
-1.293407
-1.294446
-1.297303
-1.251584
-1.221191
-1.237816
-1.226645
-1.190018
-1.169236
-1.159625
-1.144818
-1.158585
-1.167417
-1.139882
-1.139102
-1.154429
-1.157805
-1.158065
-1.175729
-1.211577
-1.205342
-1.180924
-1.175728
-1.164039
-1.157544
-1.166636
-1.186118
-1.180663
-1.140399
-1.137022
-1.164557
-1.179883
-1.202483
-1.192612
-1.149490
-1.148191
-1.157802
-1.161958
-1.179622
-1.183779
-1.209755
-1.238329
-1.225081
-1.221444
-1.249759
-1.264046
-1.255993
-1.258590
-1.244823
-1.230275
-1.226898
-1.206896
-1.186114
-1.163774
-1.154682
-1.132602
-1.101949
-1.106365
-1.095454
-1.074413
-1.072335
-1.055969
-1.051293
-1.053891
-1.036486
-1.048955
-1.062203
-1.034667
-1.026614
-1.047136
-1.048434
-1.042979
-1.035186
-1.014145
-1.019600
-1.039082
-1.041420
-1.029990
-1.004013
-0.988946
-0.974659
-0.952059
-0.940109
-0.922185
-0.886857
-0.842176
-0.819317
-0.799314
-0.758790
-0.732813
-0.715149
-0.694367
-0.673586
-0.649168
-0.623191
-0.608384
-0.605266
-0.582407
-0.569678
-0.596174
-0.605525
-0.586302
-0.585783
-0.588640
-0.574612
-0.571495
-0.578509
-0.581366
-0.595913
-0.621110
-0.617473
-0.606563
-0.619031
-0.639813
-0.649944
-0.649164
-0.663451
-0.686051
-0.694883
-0.692804
-0.705793
-0.700337
-0.678776
-0.707091
-0.735925
