EVENT_NAME: 202302060117
EVENT_ID: 13194
EVENT_DATE_YYYYMMDD: 2023/02/06
EVENT_TIME_HHMMSS: 01:17:32.00000
EVENT_LATITUDE_DEGREE: 37.288
EVENT_LONGITUDE_DEGREE: 37.043
EVENT_DEPTH_KM: 8.6
HYPOCENTER_REFERENCE: AFAD
MAGNITUDE_W: 7.7
MAGNITUDE_W_REFERENCE: AFAD
MAGNITUDE_L: 
MAGNITUDE_L_REFERENCE: 
FOCAL_MECHANISM: 
NETWORK: TK
STATION_CODE: 6603
STATION_NAME: 
STATION_LATITUDE_DEGREE: 40.0674
STATION_LONGITUDE_DEGREE: 35.4998
STATION_ELEVATION_M: 918.0
LOCATION: Kahramanmaras_Pazarck_Turkiye
SENSOR_DEPTH_M: 
VS30_M/S: 361
SITE_CLASSIFICATION_EC8: unknown
MORPHOLOGIC_CLASSIFICATION: 
EPICENTRAL_DISTANCE_KM: 336.82
EARTHQUAKE_BACKAZIMUTH_DEGREE: 
DATE_TIME_FIRST_SAMPLE_YYYYMMDD_HHMMSS: 2023/02/06 01:17:57.6470850
DATE_TIME_FIRST_SAMPLE_PRECISION: millisecond
SAMPLING_INTERVAL_S: 0.01
NDATA: 18251
DURATION_S: 
STREAM: HNZ
UNITS: cm/s^2
INSTRUMENT: sensor = GMS+/GEOSIG | digitizer = 
INSTRUMENT_ANALOG/DIGITAL: 
INSTRUMENTAL_FREQUENCY_HZ: 
INSTRUMENTAL_DAMPING: 
FULL_SCALE_G: 
N_BIT_DIGITAL_CONVERTER: 
PGA_CM/S^2: 2.448
TIME_PGA_S: 
BASELINE_CORRECTION: BASELINE REMOVED
FILTER_TYPE: BUTTERWORTH
FILTER_ORDER: 
LOW_CUT_FREQUENCY_HZ: 
HIGH_CUT_FREQUENCY_HZ: 
LATE/NORMAL_TRIGGERED: 
DATABASE_VERSION: 
HEADER_FORMAT: DYNA 1.2
DATA_TYPE: Acceleration
PROCESSING: Automatic Paolucci et al., 2011
DATA_TIMESTAMP_YYYYMMDD_HHMMSS: 
DATA_LICENSE: U (unknown license)
DATA_CITATION: Turkish Accelerometric Archive v 1.0 - Disaster And Emergency Management Presidency, Earthquake Department
DATA_CREATOR: AFAD
ORIGINAL_DATA_MEDIATOR_CITATION: : AFAD - Disaster And Emergency Management Presidency
ORIGINAL_DATA_MEDIATOR: AFAD PROCESS SERVICE
ORIGINAL_DATA_CREATOR_CITATION: AFAD PROCESS SERVICE
ORIGINAL_DATA_CREATOR: network: TK
USER1: GuestUser
USER2: 
USER3: 
USER4: 
USER5: 
[...]
-0.907866
-0.835131
-0.761877
-0.686805
-0.612512
-0.549130
-0.484448
-0.408856
-0.320276
-0.210914
-0.094019
0.035604
0.180294
0.327062
0.478506
0.635406
0.776199
0.890756
0.980895
1.041160
1.074150
1.087917
1.096229
1.092852
1.080382
1.077264
1.069990
1.060638
1.057520
1.045570
1.016475
0.968158
0.911787
0.836454
0.734884
0.624222
0.505768
0.391989
0.290159
0.206513
0.146766
0.101565
0.076887
0.066495
0.069872
0.097147
0.141826
0.207027
0.288853
0.382629
0.486795
0.597975
0.711493
0.816439
0.913331
1.001132
1.069970
1.122443
1.154134
1.167381
1.168679
1.156210
1.133090
1.099060
1.055937
1.013854
0.976967
0.945015
0.931506
0.947871
0.983458
1.033333
1.099054
1.172308
1.238548
1.293878
1.350506
1.399602
1.439865
1.479609
1.513638
1.545848
1.573123
1.604555
1.642220
1.670015
1.692354
1.718330
1.739890
1.760152
1.785349
1.800155
1.799375
1.785606
1.754174
1.698583
1.631302
1.557268
1.467907
1.379066
1.305810
1.241387
1.194109
1.179821
1.186574
1.211771
1.253853
1.301130
1.355161
1.413089
1.466600
1.513617
1.551803
1.583753
1.606872
1.605053
1.593882
1.585829
1.565307
1.537251
1.506598
1.470749
1.419314
1.350215
1.268648
1.165779
1.041090
0.897178
0.742615
0.585455
0.422839
0.272953
0.143587
0.030068
-0.068904
-0.158784
-0.239833
-0.318023
-0.388421
-0.461936
-0.551037
-0.644554
-0.741708
-0.847954
-0.966149
-1.090838
-1.211631
-1.326189
-1.436072
-1.534784
-1.623885
-1.707012
-1.774812
-1.822610
-1.852744
-1.862875
-1.854303
-1.837939
-1.813002
-1.772479
-1.723383
-1.667014
-1.598696
-1.517909
-1.428030
-1.329318
-1.216320
-1.097607
-0.975257
-0.845373
-0.708217
-0.572878
-0.444554
-0.313112
-0.192060
-0.085556
0.017831
0.114204
0.192134
0.253178
0.300196
0.322016
0.324872
0.315260
0.298375
0.277593
0.260707
0.258628
0.276032
0.311360
0.357338
0.418123
0.486961
0.558656
0.618662
0.658146
0.679706
0.668535
0.625933
0.559691
0.476045
0.369540
0.245370
0.119642
-0.009983
-0.140647
-0.267414
-0.391065
-0.506662
-0.604076
-0.683046
-0.747729
-0.807216
-0.862807
-0.908527
-0.954766
-0.998927
-1.029321
-1.047505
-1.055819
-1.054520
-1.047248
-1.027246
-0.990100
-0.942823
-0.887753
-0.825929
-0.756052
-0.673966
-0.578372
-0.464334
-0.338867
-0.208464
-0.072606
0.060914
0.190018
0.306913
0.399389
0.473682
0.535247
0.582524
0.618111
0.641230
0.652659
0.648502
0.636812
0.624602
0.604599
0.584337
0.558879
0.530304
0.508223
0.488999
0.477309
0.473932
0.479386
0.480944
0.480684
0.490554
0.500684
0.512633
0.524322
0.533673
0.545622
0.561986
0.583546
0.603548
0.619653
0.628744
0.631861
0.634977
0.630560
0.612895
0.591594
0.572630
0.553147
0.530546
0.509764
0.493138
0.485085
0.499631
0.540674
0.603018
0.676791
0.760955
0.855770
0.946948
1.038645
1.126186
1.200479
1.265940
1.316854
1.361274
1.393224
1.408031
1.413225
1.405951
1.388806
1.363608
1.343605
1.321524
1.297884
1.284116
1.268529
1.254241
1.242551
1.225406
1.203844
1.177347
1.145655
1.112664
1.081491
1.045902
0.997325
0.944851
0.886143
0.807173
0.720410
0.626892
0.526362
0.428948
0.333872
0.252824
0.189180
0.142162
0.115924
0.103195
0.101636
0.112026
0.133326
0.169433
0.225802
0.298796
0.383740
0.480633
0.577006
0.670781
0.760401
0.840668
0.911844
0.965356
1.004580
1.029257
1.031854
1.027178
1.016786
1.000420
0.983794
0.955479
0.919371
0.881184
0.837283
0.788705
0.740128
0.696486
0.655702
0.616217
0.578810
0.545299
0.514126
0.483992
0.454378
0.419828
0.379564
0.336961
0.299814
0.265004
0.232792
0.209153
0.188630
0.169926
0.149144
0.132259
0.119789
0.095110
0.063418
0.015880
-0.056336
-0.142060
-0.244669
-0.364942
-0.499503
-0.643155
-0.798497
-0.962152
-1.118533
-1.272576
-1.417267
-1.542476
-1.645864
-1.721717
-1.766917
-1.776010
-1.750553
-1.694444
-1.610799
-1.500399
-1.372074
-1.234398
-1.086590
-0.934887
-0.784482
-0.643428
-0.506012
-0.370154
-0.247544
-0.139221
-0.041030
0.045732
0.116129
0.167302
0.194577
0.200811
0.189121
0.152752
0.100279
0.037934
-0.030126
-0.096108
-0.167545
-0.236384
-0.305483
-0.376920
-0.437966
-0.503688
-0.563954
-0.618766
-0.677734
-0.728390
-0.769693
-0.794372
-0.806062
-0.800088
-0.778009
-0.746318
-0.703976
-0.665791
-0.626307
-0.582666
-0.538247
-0.487852
-0.442913
-0.402650
-0.368101
-0.341346
-0.313811
-0.294070
-0.287056
-0.291213
-0.309398
-0.340830
-0.385771
-0.438504
-0.493316
-0.551505
-0.612291
-0.663206
-0.701653
-0.733345
-0.747893
-0.747893
-0.741919
-0.722697
-0.695942
-0.662692
-0.631780
-0.617494
-0.611780
-0.613339
-0.618275
-0.625549
-0.636980
-0.643994
-0.647112
-0.646853
-0.645555
-0.641919
-0.632568
-0.626594
-0.633608
-0.653091
-0.689459
-0.741154
-0.796485
-0.853375
-0.911823
-0.969493
-1.020927
-1.059114
-1.089767
-1.108471
-1.116265
-1.124058
-1.132372
-1.137828
-1.141725
-1.147180
-1.154455
-1.165106
-1.178614
-1.192902
-1.202255
-1.194982
-1.172383
-1.137055
-1.081205
-1.005354
-0.907682
-0.794164
-0.677269
-0.559335
-0.444778
-0.335936
-0.236965
-0.145527
-0.065260
0.000461
0.064883
0.122551
0.172945
0.214507
0.243341
0.265161
0.284123
0.309060
0.334517
0.365428
0.397119
0.422056
0.444396
0.454526
0.455305
0.444394
0.422573
0.392958
0.363864
0.340484
0.315546
0.293724
0.266448
0.236314
0.202284
0.160461
0.110585
0.047201
-0.022937
-0.098530
-0.171266
-0.242183
-0.316218
-0.387135
-0.457014
-0.510786
-0.549752
-0.582743
-0.613396
-0.645089
-0.671586
-0.694706
-0.708474
-0.712631
-0.722243
-0.740947
-0.765886
-0.790304
-0.807709
-0.816802
-0.826934
-0.842001
-0.856548
-0.870836
-0.879150
-0.883047
-0.881489
-0.878113
-0.890842
-0.912143
-0.936043
-0.961241
-0.985920
-1.020989
-1.057617
-1.086971
-1.111130
-1.117625
-1.096325
-1.049827
-0.999952
-0.948519
-0.889552
-0.823832
-0.729796
-0.621993
-0.523022
-0.426130
-0.331055
-0.232604
-0.132334
-0.031805
0.063789
0.141200
0.198608
0.242508
0.287187
0.336542
0.379663
0.413952
0.437590
0.455254
0.470579
0.481749
0.493438
0.504607
0.502528
0.480707
0.448495
0.420959
0.393683
0.360172
0.318349
0.262758
0.201452
0.131574
0.056760
-0.008962
-0.087153
-0.178592
-0.267953
-0.364327
-0.463300
-0.557856
-0.644879
-0.724109
-0.803079
-0.872178
-0.928808
-0.978684
-1.024144
-1.064149
-1.087269
-1.093504
-1.080516
-1.041552
-0.981286
-0.901798
-0.807503
-0.704375
-0.598131
-0.486431
-0.366160
-0.249784
-0.143540
-0.050544
0.025048
0.089210
0.138566
0.177010
0.214157
0.240133
0.247925
0.238313
0.215972
0.175188
0.111804
0.038549
-0.050812
-0.156798
-0.269538
-0.387213
-0.505928
-0.625422
-0.737123
-0.834277
-0.916364
-0.978709
-1.023130
-1.052744
-1.070409
-1.081580
-1.089373
-1.096128
-1.104181
-1.111715
-1.114573
-1.109639
-1.093014
-1.060284
-1.017163
-0.957677
-0.875851
-0.778179
-0.670635
-0.560754
-0.451393
-0.350863
-0.263582
-0.189029
-0.126685
-0.073174
-0.034469
-0.002518
0.028134
0.056188
0.088139
0.127103
0.171003
0.220099
0.271272
0.319329
0.367126
0.407649
0.435703
0.452847
0.461159
0.466094
0.460118
0.446350
0.429724
0.402968
0.368158
0.325815
0.277757
0.224245
0.159042
0.082670
-0.006172
-0.103325
-0.203337
-0.301530
-0.389851
-0.468562
-0.532206
-0.581302
-0.618969
-0.641830
-0.661053
-0.671704
-0.668847
-0.658977
-0.634559
-0.589880
-0.522341
-0.436358
-0.331413
-0.203868
-0.068529
0.074343
0.225007
0.379049
0.536468
0.688951
0.830004
0.950796
1.046390
1.115747
1.154192
1.165621
1.150554
1.107172
1.049763
0.977806
0.888965
0.787914
0.673096
0.545030
0.408392
0.273052
0.140050
0.012503
-0.104133
-0.210379
-0.302597
-0.383386
-0.453783
-0.512232
-0.559770
-0.599515
-0.636143
-0.670953
-0.705762
-0.741871
-0.778758
-0.815646
-0.849936
-0.882148
-0.915399
-0.945793
-0.965795
-0.977486
-0.982162
-0.980604
-0.978007
-0.968916
-0.950213
-0.924497
-0.885792
-0.840333
-0.790718
-0.731752
-0.670967
-0.609143
-0.547838
-0.496924
-0.456401
-0.425230
-0.406007
-0.398475
-0.407308
-0.435103
-0.477966
-0.531738
-0.591745
-0.656688
-0.723189
-0.794626
-0.874116
-0.951527
-1.036472
-1.129989
-1.214155
-1.302476
-1.385083
-1.445610
-1.497564
-1.540426
-1.559910
-1.544584
-1.524323
-1.505620
-1.450550
-1.372361
-1.287417
-1.191823
-1.082981
-0.952578
-0.821916
-0.703722
-0.590464
-0.470192
-0.360570
-0.279524
-0.198217
-0.111975
-0.031447
0.044404
0.135582
0.216629
0.275856
0.344434
0.414830
0.461068
0.488603
0.514839
0.521852
0.514578
0.503147
0.489639
0.464960
0.445737
0.424175
0.381313
0.338970
0.291951
0.239218
0.186484
0.138427
0.074783
0.015555
-0.034581
-0.096926
-0.168622
-0.232786
-0.284740
-0.352800
-0.401117
-0.427355
-0.442422
-0.442423
-0.427876
-0.398783
-0.365273
-0.300332
-0.227338
-0.137978
-0.028097
0.075809
0.212187
0.359474
0.487799
0.620280
0.784193
0.949665
1.084224
1.236967
1.398542
1.524788
1.656490
1.793387
1.905086
2.013149
2.106665
2.170567
2.217325
2.254990
2.264082
2.256807
2.250053
2.209009
2.158873
2.118608
2.069771
2.002491
1.925858
1.856240
1.765321
1.667907
1.576208
1.469183
1.359560
1.252535
1.155641
1.055110
0.963152
0.895612
0.817421
0.733255
0.669092
0.623372
0.569600
0.527517
0.501020
0.479718
0.484913
0.491926
0.498159
0.525434
0.565438
0.592193
0.633496
0.703633
0.749871
0.809876
0.888066
0.951968
1.032495
1.115361
1.191212
1.253556
1.328109
1.391751
1.435132
1.496177
1.531245
1.558000
1.583197
1.599302
1.614368
1.626057
1.625536
1.607352
1.609170
1.614624
1.591504
1.573579
1.580592
1.570721
1.555653
1.551497
1.536689
1.504997
1.458238
1.408362
1.336925
1.249123
1.157424
1.067284
0.966233
0.855312
0.764652
0.668797
0.567487
0.485400
0.407728
0.318627
0.259919
0.222512
0.172116
0.145879
0.140423
0.141721
0.156008
0.186920
0.209519
0.233157
0.268485
0.272121
0.283290
0.297837
0.288225
0.289523
0.291600
0.296275
0.304328
0.313679
0.330303
0.345888
0.367448
0.376799
0.389008
0.401996
0.387448
0.374199
0.349001
0.308996
0.270550
0.222492
0.162485
0.091048
0.020131
-0.060398
-0.145602
-0.227690
-0.313674
-0.391605
-0.468497
-0.538635
-0.590849
-0.633971
-0.669040
-0.690342
-0.697616
-0.696318
-0.683070
-0.651899
-0.615272
-0.570852
-0.507470
-0.438892
-0.366937
-0.283032
-0.202505
-0.131849
-0.063011
0.005827
0.076743
0.139866
0.194676
0.254422
0.308194
0.351314
0.382746
0.406384
0.418852
0.407941
0.384302
0.340140
0.280653
0.217269
0.135441
0.042963
-0.048476
-0.134979
-0.225379
-0.310064
-0.382280
-0.456055
-0.521517
-0.583342
-0.641531
-0.685952
-0.719463
-0.752454
-0.783887
-0.806227
-0.834802
-0.860260
-0.887537
-0.920268
-0.943128
-0.980276
-1.018203
-1.041063
-1.067560
-1.094836
-1.117177
-1.138478
-1.158221
-1.167574
-1.173809
-1.175628
-1.161601
-1.142639
-1.122897
-1.093024
-1.058995
-1.024966
-0.977949
-0.936906
-0.900020
-0.850925
-0.806505
-0.765982
-0.722341
-0.680520
-0.645971
-0.617917
-0.594019
-0.572718
-0.550639
-0.527520
-0.499206
-0.461281
-0.417900
-0.374000
-0.325944
-0.276848
-0.231130
-0.182294
-0.135796
-0.091896
-0.044099
0.005516
0.050715
0.091238
0.128903
0.154620
0.171244
0.173322
0.162151
0.147084
0.124224
0.099805
0.072009
0.049409
0.034082
0.020313
0.017975
0.016675
0.018493
0.020830
0.021868
0.029141
0.039272
0.064209
0.093562
0.126811
0.170452
0.218248
0.271240
0.323193
0.378004
0.433593
0.478533
0.511782
0.534901
0.539836
0.523210
0.488660
0.434368
0.368646
0.298768
0.219538
0.139269
0.063416
-0.012956
-0.080497
-0.131672
-0.164923
-0.178691
-0.167522
-0.138428
-0.091671
-0.027768
0.040810
0.115882
0.196409
0.278495
0.359023
0.435394
0.507349
0.576187
0.642167
0.701394
0.755944
0.806598
0.848420
0.881930
0.908166
0.928427
0.946870
0.959598
0.965831
0.970507
0.976221
0.980636
0.978817
0.974920
0.966866
0.952579
0.935173
0.912313
0.888674
0.864774
0.833861
0.798792
0.763463
0.733069
0.712547
0.703195
0.709428
0.736444
0.781902
0.844506
0.923994
1.016990
1.121936
1.230778
1.334685
1.427941
1.502234
1.559642
1.599385
1.616789
1.612373
1.585616
1.542494
1.488721
1.435728
1.386371
1.337794
1.294412
1.256225
1.229469
1.216999
1.212582
1.221674
1.245312
1.273366
1.308954
1.349996
1.391299
1.432601
1.465851
1.487671
1.501697
1.506632
1.497280
1.480395
1.454417
1.426102
1.401683
1.367393
1.323232
1.280629
1.240624
1.202178
1.181655
1.170745
1.152300
1.140091
1.136193
1.137232
1.138530
1.145803
1.157232
1.162686
1.172037
1.179830
1.185544
1.187622
1.178529
1.171515
1.167877
1.165279
1.162421
1.156965
1.149431
1.141118
1.131765
1.118517
1.107086
1.090460
1.065782
1.041363
1.018503
1.002656
0.985771
0.969405
0.954337
0.936153
0.920047
0.897186
0.878223
0.863415
0.835879
0.806785
0.783145
0.757168
0.726514
0.692484
0.660012
0.629099
0.595589
0.560779
0.525450
0.481029
0.421022
0.349585
0.269316
0.182033
0.091114
0.001493
-0.088647
-0.177748
-0.256978
-0.320881
-0.370238
-0.403749
-0.419595
-0.425570
-0.417778
-0.399335
-0.382191
-0.363229
-0.349721
-0.341929
-0.338553
-0.350243
-0.378558
-0.424798
-0.490000
-0.580400
-0.689503
-0.814192
-0.955247
-1.103835
-1.262034
-1.424390
-1.581031
-1.728839
-1.860283
-1.973022
-2.074852
-2.160057
-2.223700
-2.274356
-2.320076
-2.359561
-2.388656
-2.418270
-2.441390
-2.447885
-2.440612
-2.419052
-2.385283
-2.341123
-2.293326
-2.243451
-2.189161
-2.134870
-2.086813
-2.042653
-2.000312
-1.966283
-1.932514
-1.903421
-1.889394
-1.880822
-1.871731
-1.871991
-1.882642
-1.890176
-1.894333
-1.893814
-1.887321
-1.875892
-1.859527
-1.836928
-1.795106
-1.740555
-1.683407
-1.613530
-1.538198
-1.462606
-1.387794
-1.311682
-1.236870
-1.180501
-1.134263
-1.096857
-1.071141
-1.048022
-1.026202
-1.008019
-0.998668
-0.993214
-0.981005
-0.960224
-0.933988
-0.901518
-0.869827
-0.846189
-0.824369
-0.797354
-0.768780
-0.736310
-0.695787
-0.652406
-0.610065
-0.570321
-0.527719
-0.480442
-0.429788
-0.374718
-0.319908
-0.267955
-0.216262
-0.161451
-0.111576
-0.076249
-0.047675
-0.024556
-0.014426
-0.004555
0.011030
0.025317
0.037005
0.044538
0.052330
0.057265
0.052069
0.042977
0.022455
-0.006900
-0.038073
-0.070285
-0.096782
-0.125876
-0.151594
-0.173675
-0.201211
-0.225630
-0.247711
-0.271870
-0.298107
-0.326163
-0.347724
-0.364869
-0.383054
-0.395523
-0.406174
-0.412929
-0.403578
-0.392669
-0.391630
-0.372668
-0.344354
-0.327729
-0.307988
-0.278634
-0.246684
-0.224344
-0.198108
-0.170054
-0.134726
-0.099918
-0.072903
-0.036276
-0.012118
0.003727
0.026326
0.056199
0.070745
0.081914
0.119060
0.144517
0.163739
0.199327
0.236213
0.264008
0.291023
0.319077
0.343754
0.371809
0.413111
0.460128
0.490780
0.518315
0.557020
0.594686
0.627416
0.670277
0.718333
0.751842
0.773403
0.788728
0.803275
0.817042
0.826652
0.824054
0.816520
0.820156
0.815739
0.814700
0.821453
0.819114
0.823530
0.826127
0.814696
0.795213
0.763521
0.733127
0.687667
0.622984
0.561938
0.494398
0.420623
0.335419
0.269437
0.201637
0.122147
0.069154
0.019797
-0.025143
-0.069824
-0.086190
-0.092425
-0.120741
-0.128534
-0.124379
-0.140745
-0.133991
-0.091650
-0.072947
-0.042295
0.017711
0.072001
0.120837
0.190714
0.266825
0.316440
0.367874
0.414112
0.439309
0.450997
0.461907
0.456971
0.420862
0.387352
0.357218
0.305264
0.256946
0.218760
0.166546
0.113812
0.076405
0.058740
0.044192
0.038217
0.053283
0.060296
0.061854
0.068347
0.069905
0.059774
0.045746
0.022885
-0.017379
-0.043357
-0.067256
-0.094013
-0.116613
-0.140772
-0.158178
-0.179219
-0.195326
-0.202600
-0.217147
-0.243904
-0.269622
-0.297678
-0.335604
-0.370154
-0.402106
-0.447826
-0.490429
-0.522381
-0.568620
-0.590441
-0.595118
-0.604990
-0.607848
-0.604991
-0.588366
-0.575898
-0.556936
-0.529921
-0.509400
-0.491217
-0.477969
-0.464981
-0.456410
-0.453033
-0.452514
-0.462646
-0.475635
-0.483689
-0.494859
-0.508108
-0.519019
-0.531229
-0.544218
-0.544998
-0.535907
-0.526296
-0.515126
-0.495385
-0.469668
-0.442653
-0.393817
-0.333552
-0.278222
-0.208345
-0.135091
-0.067812
0.001805
0.067526
0.122336
0.170133
0.211435
0.241568
0.271180
0.304950
0.336121
0.364695
0.395607
0.427298
0.452235
0.467560
0.470417
0.462364
0.441062
0.408850
0.371183
0.317670
0.265976
0.221815
0.170640
0.129596
0.100241
0.073225
0.051663
0.035038
0.019451
0.001007
-0.018217
-0.042636
-0.073289
-0.095110
-0.115113
-0.134856
-0.145767
-0.149924
-0.144729
-0.130702
-0.100830
-0.060047
-0.020043
0.026714
0.082304
0.139193
0.196601
0.257126
0.317391
0.365967
0.403633
0.440000
0.453247
0.443635
0.429347
0.397655
0.338427
0.253223
0.163083
0.059694
-0.062138
-0.181631
-0.300346
-0.418541
-0.534138
-0.635189
-0.723770
-0.807936
-0.875476
-0.929249
-0.983541
-1.031339
-1.063291
-1.082255
-1.096283
-1.099661
-1.091089
-1.084076
-1.055242
-1.002250
-0.944582
-0.885876
-0.821194
-0.745862
-0.689753
-0.647931
-0.608447
-0.587926
-0.585848
-0.594421
-0.612865
-0.652091
-0.692875
-0.725347
-0.767949
-0.815747
-0.856012
-0.896277
-0.943036
-0.986937
-1.020708
-1.052660
-1.082534
-1.089548
-1.074222
-1.040973
-0.973953
-0.879918
-0.778090
-0.655999
-0.507932
-0.342980
-0.165300
0.018875
0.210843
0.388264
0.550358
0.712453
0.859740
0.988065
1.106519
1.210945
1.284199
1.348361
1.408886
1.446552
1.467332
1.481879
1.473306
1.438236
1.404466
1.363682
1.298219
1.219509
1.134824
1.030916
0.921553
0.818425
0.717374
0.616584
0.527223
0.451890
0.368503
0.297326
0.246411
0.199912
0.158868
0.136008
0.132890
0.136786
0.160164
0.206143
0.266408
0.339142
0.417072
0.496820
0.573971
0.651641
0.726713
0.780224
0.818669
0.845165
0.851139
0.848021
0.828278
0.789832
0.740215
0.678650
0.615006
0.556817
0.505123
0.447454
0.379913
0.316010
0.262497
0.217037
0.177551
0.140144
0.094165
0.043769
-0.001691
-0.039878
-0.076506
-0.105340
-0.127681
-0.153659
-0.164829
-0.160414
-0.146907
-0.125087
-0.099370
-0.076252
-0.054432
-0.026897
0.002456
0.021938
0.028172
0.027392
0.013623
-0.011055
-0.036253
-0.069504
-0.122238
-0.175751
-0.225107
-0.282257
-0.330055
-0.363566
-0.391361
-0.414222
-0.419937
-0.406950
-0.388247
-0.349023
-0.287718
-0.225115
-0.158615
-0.077048
0.014649
0.108944
0.208435
0.304548
0.396246
0.494177
0.590291
0.678871
0.771608
0.863565
0.944612
1.017606
1.086444
1.149047
1.195805
1.236328
1.274773
1.296593
1.301268
1.287759
1.252170
1.199437
1.127480
1.035782
0.918626
0.780948
0.624567
0.453120
0.294401
0.144514
-0.011347
-0.166430
-0.294756
-0.396585
-0.490622
-0.562838
-0.616351
-0.657914
-0.678697
-0.676879
-0.658955
-0.632720
-0.598691
-0.568039
-0.539205
-0.498682
-0.461276
-0.427767
-0.398933
-0.382049
-0.370100
-0.358671
-0.347242
-0.347762
-0.359193
-0.372441
-0.390106
-0.412187
-0.431411
-0.450634
-0.476092
-0.499991
-0.517916
-0.529866
-0.528568
-0.510385
-0.478174
-0.432716
-0.372970
-0.298157
-0.215032
-0.118919
-0.010596
0.095648
0.202412
0.311774
0.417499
0.510495
0.587386
0.648950
