EVENT_NAME: 202302060117
EVENT_ID: 13194
EVENT_DATE_YYYYMMDD: 2023/02/06
EVENT_TIME_HHMMSS: 01:17:32.00000
EVENT_LATITUDE_DEGREE: 37.288
EVENT_LONGITUDE_DEGREE: 37.043
EVENT_DEPTH_KM: 8.6
HYPOCENTER_REFERENCE: AFAD
MAGNITUDE_W: 7.7
MAGNITUDE_W_REFERENCE: AFAD
MAGNITUDE_L: 
MAGNITUDE_L_REFERENCE: 
FOCAL_MECHANISM: 
NETWORK: TK
STATION_CODE: 5507
STATION_NAME: 
STATION_LATITUDE_DEGREE: 41.2056
STATION_LONGITUDE_DEGREE: 36.96417
STATION_ELEVATION_M: 4.0
LOCATION: Kahramanmaras_Pazarck_Turkiye
SENSOR_DEPTH_M: 
VS30_M/S: None
SITE_CLASSIFICATION_EC8: unknown
MORPHOLOGIC_CLASSIFICATION: 
EPICENTRAL_DISTANCE_KM: 435.67
EARTHQUAKE_BACKAZIMUTH_DEGREE: 
DATE_TIME_FIRST_SAMPLE_YYYYMMDD_HHMMSS: 2023/02/06 01:18:07.3695130
DATE_TIME_FIRST_SAMPLE_PRECISION: millisecond
SAMPLING_INTERVAL_S: 0.01
NDATA: 21001
DURATION_S: 
STREAM: HNN
UNITS: cm/s^2
INSTRUMENT: sensor = ACEBOX/SARA | digitizer = 
INSTRUMENT_ANALOG/DIGITAL: 
INSTRUMENTAL_FREQUENCY_HZ: 
INSTRUMENTAL_DAMPING: 
FULL_SCALE_G: 
N_BIT_DIGITAL_CONVERTER: 
PGA_CM/S^2: 8.204
TIME_PGA_S: 
BASELINE_CORRECTION: BASELINE REMOVED
FILTER_TYPE: BUTTERWORTH
FILTER_ORDER: 
LOW_CUT_FREQUENCY_HZ: 
HIGH_CUT_FREQUENCY_HZ: 
LATE/NORMAL_TRIGGERED: 
DATABASE_VERSION: 
HEADER_FORMAT: DYNA 1.2
DATA_TYPE: Acceleration
PROCESSING: Automatic Paolucci et al., 2011
DATA_TIMESTAMP_YYYYMMDD_HHMMSS: 
DATA_LICENSE: U (unknown license)
DATA_CITATION: Turkish Accelerometric Archive v 1.0 - Disaster And Emergency Management Presidency, Earthquake Department
DATA_CREATOR: AFAD
ORIGINAL_DATA_MEDIATOR_CITATION: : AFAD - Disaster And Emergency Management Presidency
ORIGINAL_DATA_MEDIATOR: AFAD PROCESS SERVICE
ORIGINAL_DATA_CREATOR_CITATION: AFAD PROCESS SERVICE
ORIGINAL_DATA_CREATOR: network: TK
USER1: GuestUser
USER2: 
USER3: 
USER4: 
USER5: 
[...]
-4.983865
-4.910685
-4.799865
-4.664963
-4.514397
-4.346296
-4.166972
-3.966140
-3.746603
-3.520287
-3.276669
-3.024635
-2.770029
-2.503266
-2.230190
-1.954776
-1.686843
-1.427561
-1.173891
-0.937988
-0.708399
-0.482550
-0.268157
-0.053530
0.158758
0.366839
0.574218
0.762192
0.938242
1.116162
1.282860
1.438804
1.591708
1.735728
1.873435
2.005999
2.134588
2.264814
2.393871
2.516849
2.639827
2.761870
2.877367
2.991695
3.100177
3.196269
3.291191
3.383776
3.476126
3.575024
3.665738
3.750139
3.829397
3.885042
3.935309
3.983472
4.015503
4.042390
4.058523
4.059927
4.054784
4.043095
4.024860
3.999844
3.971322
3.936487
3.892533
3.839696
3.764648
3.679546
3.591639
3.488302
3.380288
3.266430
3.142284
3.015801
2.882069
2.740857
2.598709
2.457963
2.318153
2.174603
2.023804
1.867395
1.703504
1.529559
1.349536
1.166941
0.982710
0.798011
0.608636
0.425106
0.254668
0.085867
-0.073114
-0.219470
-0.359982
-0.480387
-0.585361
-0.684256
-0.763747
-0.825936
-0.878539
-0.918518
-0.946573
-0.964107
-0.969951
-0.958260
-0.932308
-0.906590
-0.875728
-0.829201
-0.773557
-0.710431
-0.634913
-0.550044
-0.460967
-0.370486
-0.274863
-0.171056
-0.064443
0.042870
0.153691
0.272695
0.396842
0.520989
0.644435
0.770920
0.905354
1.040022
1.166741
1.298603
1.431868
1.561860
1.691151
1.806648
1.915598
2.019171
2.108249
2.194520
2.270739
2.333865
2.392315
2.435335
2.465963
2.495422
2.519972
2.526986
2.520675
2.512726
2.488646
2.458019
2.430900
2.388349
2.346500
2.300443
2.231707
2.163206
2.096107
2.021526
1.940867
1.846647
1.746349
1.644648
1.532192
1.410852
1.286005
1.161158
1.031168
0.897904
0.769316
0.637923
0.506764
0.376072
0.238600
0.108609
-0.011562
-0.132200
-0.246526
-0.352670
-0.449461
-0.531523
-0.604935
-0.672267
-0.733288
-0.788697
-0.841067
-0.894372
-0.944871
-0.994669
-1.043298
-1.082108
-1.112501
-1.130502
-1.135411
-1.130267
-1.108757
-1.074388
-1.024822
-0.964969
-0.904415
-0.830768
-0.743561
-0.653314
-0.556521
-0.450844
-0.335815
-0.220085
-0.104822
0.017688
0.138095
0.257800
0.374232
0.477571
0.569454
0.651518
0.720021
0.774730
0.819386
0.854690
0.871525
0.878306
0.883450
0.874566
0.849083
0.810274
0.769360
0.727277
0.666491
0.599392
0.524577
0.431059
0.339879
0.241919
0.131333
0.024021
-0.086330
-0.190837
-0.292538
-0.396343
-0.479574
-0.556025
-0.631073
-0.690925
-0.743294
-0.780935
-0.812263
-0.848735
-0.873984
-0.898532
-0.925652
-0.945290
-0.967967
-0.993918
-1.023376
-1.054236
-1.082759
-1.118295
-1.158741
-1.201525
-1.254129
-1.317955
-1.389730
-1.466648
-1.551282
-1.637787
-1.715874
-1.801911
-1.893325
-1.973282
-2.053708
-2.132731
-2.206142
-2.284230
-2.352030
-2.419363
-2.496983
-2.551925
-2.597982
-2.665315
-2.726803
-2.786888
-2.862871
-2.934412
-3.002914
-3.079131
-3.157452
-3.246528
-3.343787
-3.441046
-3.549527
-3.658476
-3.756670
-3.853461
-3.947681
-4.032782
-4.112273
-4.183113
-4.240392
-4.282241
-4.300243
-4.296267
-4.276628
-4.236647
-4.177028
-4.101277
-4.009862
-3.912835
-3.802248
-3.670853
-3.532912
-3.390529
-3.240898
-3.080980
-2.912879
-2.753662
-2.595147
-2.434060
-2.294950
-2.170802
-2.052968
-1.950096
-1.861720
-1.786670
-1.717699
-1.661821
-1.625114
-1.589810
-1.558714
-1.538139
-1.521539
-1.516161
-1.515692
-1.514756
-1.519665
-1.525743
-1.530886
-1.537198
-1.537898
-1.525039
-1.504931
-1.478745
-1.432687
-1.372132
-1.300356
-1.205667
-1.095314
-0.984493
-0.871101
-0.752799
-0.641510
-0.531157
-0.410985
-0.291046
-0.175316
-0.050935
0.084669
0.217934
0.346289
0.477684
0.599259
0.710314
0.820667
0.921902
1.012850
1.097953
1.176042
1.250858
1.321933
1.395346
1.482319
1.573501
1.663981
1.764749
1.873465
1.981480
2.094639
2.217851
2.349714
2.489525
2.637519
2.793697
2.955018
3.117975
3.277192
3.435707
3.595392
3.741282
3.875248
4.005007
4.116996
4.208178
4.282059
4.340041
4.377917
4.394518
4.396856
4.378153
4.330459
4.263828
4.178493
4.066972
3.933709
3.778000
3.597743
3.405095
3.205199
2.997121
2.789743
2.582132
2.371715
2.161532
1.953687
1.745141
1.530048
1.319164
1.108981
0.890381
0.680198
0.474691
0.264508
0.065548
-0.127802
-0.319515
-0.500941
-0.682834
-0.867767
-1.049895
-1.234360
-1.427242
-1.626904
-1.825631
-2.020149
-2.212797
-2.405212
-2.593652
-2.780922
-2.967726
-3.144476
-3.310705
-3.468517
-3.616510
-3.753047
-3.867607
-3.966035
-4.047629
-4.104909
-4.144653
-4.160785
-4.152367
-4.129688
-4.085032
-4.022374
-3.950597
-3.866429
-3.766597
-3.654607
-3.532097
-3.394623
-3.240550
-3.072683
-2.895464
-2.708191
-2.506891
-2.301383
-2.096809
-1.879143
-1.657970
-1.449188
-1.237601
-1.027417
-0.823778
-0.608684
-0.392655
-0.185042
0.025376
0.231586
0.425873
0.608001
0.782181
0.948879
1.101550
1.246739
1.385615
1.517244
1.644196
1.760161
1.866072
1.960059
2.042122
2.118575
2.188949
2.261894
2.335307
2.398433
2.466235
2.546429
2.629427
2.716401
2.801270
2.877255
2.957916
3.035069
3.093286
3.149164
3.204575
3.246659
3.286639
3.322411
3.346025
3.356547
3.347663
3.317504
3.269109
3.202945
3.117142
3.008194
2.880307
2.738627
2.588764
2.426275
2.253734
2.085868
1.921042
1.754111
1.590922
1.437084
1.291663
1.146709
1.001522
0.863115
0.730319
0.605472
0.481326
0.360220
0.253843
0.154246
0.066339
0.001812
-0.053364
-0.098720
-0.126307
-0.142204
-0.147347
-0.141969
-0.135188
-0.131447
-0.127004
-0.122794
-0.120456
-0.119520
-0.119285
-0.119752
-0.125362
-0.133778
-0.136817
-0.139154
-0.144297
-0.148504
-0.155284
-0.169545
-0.184974
-0.199002
-0.230330
-0.274283
-0.308416
-0.345356
-0.387438
-0.420169
-0.449159
-0.480020
-0.512517
-0.542208
-0.561846
-0.575172
-0.584991
-0.590367
-0.595978
-0.598315
-0.595742
-0.590364
-0.580544
-0.566749
-0.543369
-0.510402
-0.477904
-0.441197
-0.393034
-0.342767
-0.290395
-0.227269
-0.153155
-0.083249
-0.022227
0.050485
0.125535
0.189596
0.262308
0.335253
0.396976
0.463376
0.522761
0.573963
0.627504
0.670289
0.707931
0.746509
0.781112
0.820858
0.863877
0.901519
0.937525
0.972829
1.003224
1.027539
1.049985
1.060272
1.054662
1.052325
1.041337
1.010477
0.981019
0.945716
0.901997
0.861785
0.809649
0.746992
0.682465
0.608352
0.527692
0.438149
0.339721
0.240358
0.140060
0.038359
-0.068018
-0.184215
-0.303685
-0.425492
-0.555015
-0.690850
-0.832297
-0.973276
-1.117294
-1.273470
-1.433387
-1.597044
-1.765845
-1.932308
-2.104616
-2.278560
-2.441750
-2.600263
-2.756205
-2.916356
-3.080714
-3.239930
-3.401717
-3.567010
-3.727628
-3.885441
-4.045825
-4.201299
-4.347422
-4.492142
-4.619794
-4.724535
-4.823898
-4.903622
-4.963005
-5.011167
-5.036650
-5.043663
-5.035479
-5.012567
-4.976093
-4.915072
-4.841191
-4.758192
-4.657658
-4.544967
-4.422691
-4.282645
-4.117584
-3.943638
-3.770627
-3.578912
-3.368260
-3.146620
-2.913757
-2.674581
-2.430496
-2.180800
-1.922220
-1.664808
-1.414410
-1.164246
-0.923201
-0.690572
-0.459112
-0.243316
-0.034300
0.182197
0.387939
0.578017
0.765523
0.945080
1.112012
1.279178
1.434654
1.568387
1.701184
1.832112
1.951583
2.072223
2.182576
2.282408
2.398373
2.509661
2.601310
2.703714
2.804949
2.890052
2.974687
3.054647
3.133437
3.220645
3.303410
3.381265
3.457250
3.529260
3.599634
3.662058
3.711390
3.746227
3.769140
3.791118
3.799535
3.788547
3.786210
3.783873
3.767040
3.758624
3.748338
3.721686
3.696670
3.666745
3.630274
3.602219
3.568085
3.529276
3.503559
3.486492
3.470127
3.459373
3.471298
3.500056
3.522968
3.554999
3.593811
3.613684
3.632155
3.651795
3.662082
3.677514
3.683126
3.666995
3.652032
3.630991
3.588909
3.542851
3.493053
3.432267
3.370545
3.306485
3.240321
3.180938
3.113137
3.035517
2.967483
2.896176
2.810139
2.721297
2.639469
2.566525
2.496153
2.426716
2.370605
2.331795
2.303974
2.281531
2.271010
2.278727
2.298834
2.337879
2.395160
2.457585
2.520944
2.578927
2.638780
2.708452
2.777657
2.846862
2.922379
2.999299
3.070374
3.140280
3.213226
3.284067
3.352571
3.422944
3.498228
3.569537
3.629857
3.690879
3.745121
3.785335
3.824146
3.855008
3.878622
3.909718
3.938710
3.963259
3.993186
4.018203
4.041350
4.077121
4.112192
4.139781
4.166434
4.185139
4.196830
4.198233
4.182569
4.154047
4.107522
4.042293
3.960933
3.866479
3.762440
3.645543
3.519760
3.380184
3.221437
3.050999
2.866768
2.665235
2.442427
2.205358
1.961040
1.696850
1.430790
1.172912
0.902877
0.639856
0.396707
0.154027
-0.084446
-0.311696
-0.528659
-0.736036
-0.934530
-1.119696
-1.293407
-1.451687
-1.595238
-1.742061
-1.883274
-2.004147
-2.116369
-2.216901
-2.301067
-2.381492
-2.452098
-2.515457
-2.583023
-2.639134
-2.680515
-2.715350
-2.743639
-2.770759
-2.788994
-2.792968
-2.795071
-2.787823
-2.769586
-2.754154
-2.735917
-2.713004
-2.689624
-2.658060
-2.623224
-2.588154
-2.543030
-2.485749
-2.408127
-2.315543
-2.225530
-2.128971
-2.027268
-1.920890
-1.798613
-1.674232
-1.549618
-1.414482
-1.274203
-1.129715
-0.982422
-0.826946
-0.666561
-0.504772
-0.329891
-0.151269
0.023378
0.200363
0.368932
0.536566
0.707940
0.867858
1.022165
1.171562
1.310672
1.443236
1.559434
1.651551
1.730108
1.802118
1.867816
1.923928
1.972091
2.011370
2.034750
2.054624
2.083849
2.109334
2.131078
2.156328
2.174098
2.189763
2.206597
2.218989
2.239798
2.252658
2.243306
2.232085
2.210109
2.173871
2.129684
2.070067
2.000863
1.912723
1.808216
1.702774
1.584240
1.463835
1.341092
1.204322
1.075500
0.938729
0.798218
0.667994
0.507376
0.363825
0.236874
0.062462
-0.069399
-0.181153
-0.362579
-0.500285
-0.604792
-0.759331
-0.902648
-1.041756
-1.176890
-1.276487
-1.391281
-1.512153
-1.613153
-1.711347
-1.792474
-1.859339
-1.924334
-1.981146
-2.025567
-2.066714
-2.106927
-2.134982
-2.163270
-2.192494
-2.208859
-2.234108
-2.261696
-2.275957
-2.294426
-2.308453
-2.309154
-2.304944
-2.291851
-2.267068
-2.230361
-2.182198
-2.122345
-2.058751
-1.991183
-1.904443
-1.808118
-1.708052
-1.599336
-1.488281
-1.362498
-1.226894
-1.084277
-0.925996
-0.777066
-0.629773
-0.468920
-0.321159
-0.173165
-0.010675
0.139891
0.282275
0.426762
0.561664
0.689084
0.812062
0.923585
1.027158
1.125587
1.206949
1.268205
1.318238
1.351204
1.358920
1.348167
1.318008
1.260260
1.179134
1.080238
0.958664
0.813243
0.655431
0.492007
0.315725
0.122141
-0.080560
-0.274611
-0.461180
-0.646347
-0.824266
-1.001484
-1.186416
-1.378363
-1.582234
-1.787039
-1.976648
-2.140773
-2.288064
-2.445175
-2.601819
-2.743733
-2.886582
-3.027561
-3.161760
-3.284503
-3.390412
-3.498192
-3.611817
-3.722636
-3.828311
-3.918089
-3.996410
-4.068653
-4.128504
-4.181809
-4.231841
-4.273222
-4.305252
-4.322084
-4.323486
-4.320446
-4.311795
-4.295896
-4.282101
-4.257552
-4.216636
-4.174318
-4.130130
-4.078460
-4.019542
-3.950337
-3.871313
-3.777092
-3.667908
-3.546099
-3.406755
-3.257124
-3.102115
-2.942197
-2.779474
-2.610437
-2.437193
-2.256934
-2.063350
-1.866258
-1.666594
-1.457812
-1.245991
-1.035807
-0.821648
-0.603514
-0.387952
-0.176599
0.033352
0.244004
0.457462
0.673725
0.892093
1.106018
1.314566
1.518204
1.719972
1.919869
2.110181
2.292310
2.462281
2.614016
2.758971
2.893172
3.011708
3.117385
3.209736
3.290630
3.349782
3.382748
3.404258
3.408701
3.396077
3.381582
3.364983
3.341371
3.317524
3.301860
3.287833
3.270065
3.248791
3.215826
3.170470
3.115061
3.042818
2.961458
2.875421
2.774188
2.664070
2.556524
2.446640
2.335587
2.224067
2.109974
1.998220
1.879686
1.747123
1.607313
1.456982
1.299170
1.139721
0.973492
0.808899
0.648515
0.485092
0.319564
0.158011
0.006511
-0.143586
-0.291345
-0.423907
-0.552261
-0.680849
-0.798682
-0.910202
-1.010968
-1.090225
-1.156622
-1.214603
-1.256219
-1.278195
-1.284974
-1.283337
-1.273984
-1.249902
-1.211325
-1.165500
-1.115700
-1.067771
-1.014932
-0.949468
-0.880263
-0.810357
-0.736009
-0.662829
-0.594326
-0.531200
-0.475556
-0.421314
-0.363097
-0.314467
-0.272149
-0.226558
-0.185876
-0.144961
-0.104045
-0.071547
-0.035074
0.001633
0.019870
0.029924
0.040446
0.037641
0.031096
0.034369
0.029928
0.024785
0.024786
0.019643
0.021515
0.027360
0.033907
0.046066
0.051911
0.063134
0.086281
0.109895
0.143329
0.187985
0.234512
0.285246
0.342294
0.399575
0.453349
0.504551
0.550376
0.590356
0.626128
0.659328
0.690658
0.711467
0.725963
0.738589
0.737654
0.729706
0.723862
0.712173
0.695340
0.684352
0.678274
0.677106
0.692304
0.719659
0.748183
0.786526
0.837027
0.889165
0.937795
0.980581
1.023601
1.066854
1.102158
1.133254
1.159674
1.182119
1.207136
1.228179
1.249923
1.276109
1.290137
1.292710
1.288736
1.271202
1.244316
1.204104
1.146590
1.079959
1.002105
0.908821
0.801976
0.684377
0.557660
0.419954
0.270558
0.110642
-0.057458
-0.232104
-0.417270
-0.609451
-0.806307
-1.005736
-1.198150
-1.388226
-1.580173
-1.769782
-1.955650
-2.136141
-2.317567
-2.496888
-2.660779
-2.816955
-2.968455
-3.111071
-3.251582
-3.385079
-3.505250
-3.625422
-3.753074
-3.882831
-4.014224
-4.147254
-4.282622
-4.421263
-4.562476
-4.713508
-4.867112
-5.012767
-5.165669
-5.330729
-5.500933
-5.677683
-5.854667
-6.033755
-6.216116
-6.396139
-6.574292
-6.751509
-6.933169
-7.109451
-7.269602
-7.426245
-7.576108
-7.713814
-7.840531
-7.950182
-8.044167
-8.118280
-8.170416
-8.200108
-8.204082
-8.185611
-8.138617
-8.063099
-7.967008
-7.841692
-7.687853
-7.507828
-7.299748
-7.065482
-6.804330
-6.522135
-6.219367
-5.894856
-5.550939
-5.184111
-4.802787
-4.416553
-4.015122
-3.600599
-3.182802
-2.756355
-2.321491
-1.890369
-1.463922
-1.040514
-0.618509
-0.198375
0.219422
0.638154
1.049871
1.443820
1.821638
2.182621
2.528174
2.854089
3.156857
3.447468
3.724518
3.982865
4.220871
4.433628
4.626277
4.805834
4.967389
5.104161
5.222463
5.325569
5.405528
5.462809
5.499049
5.508869
5.494842
5.457669
5.400389
5.327679
5.236733
5.126148
4.996625
4.850736
4.686143
4.497704
4.289391
4.065648
3.824604
3.566258
3.291314
3.000237
2.692093
2.370622
2.039332
1.693547
1.334435
0.970414
0.603820
0.234188
-0.136147
-0.504376
-0.874009
-1.243408
-1.601117
-1.947604
-2.280297
-2.597091
-2.909911
-3.214081
-3.499312
-3.771919
-4.030498
-4.270374
-4.490610
-4.684661
-4.855098
-5.008001
-5.145940
-5.266579
-5.375060
-5.473254
-5.551342
-5.613765
-5.666836
-5.700970
-5.721777
-5.743052
-5.754975
-5.753571
-5.750297
-5.743049
-5.728552
-5.711952
-5.687169
-5.649994
-5.599493
-5.536601
-5.461785
-5.369434
-5.262121
-5.146624
-5.024113
-4.895758
-4.762493
-4.626890
-4.488481
-4.347500
-4.202545
-4.044497
-3.876396
-3.704788
-3.520088
-3.328140
-3.137828
-2.942139
-2.738968
-2.534395
-2.336601
-2.139743
-1.936807
-1.745326
-1.563898
-1.382705
-1.225125
-1.087183
-0.953918
-0.841695
-0.739291
-0.634081
-0.546640
-0.466915
-0.384150
-0.306762
-0.229140
-0.151987
-0.082782
-0.012174
0.061239
0.136990
0.222327
0.314677
0.413107
0.514809
0.614174
0.716110
0.820151
0.929335
1.046468
1.162432
1.284008
1.400907
1.500973
1.598234
1.677959
1.736643
1.791820
1.828527
1.845127
1.855182
1.849104
1.825958
1.791825
1.743430
1.675162
1.595905
1.508232
1.399751
1.274436
1.134860
0.975177
0.802636
0.617235
0.422950
0.226328
0.020587
-0.190064
-0.396272
-0.600610
-0.803779
-1.002740
-1.195388
-1.384763
-1.567592
-1.740601
-1.900985
-2.042198
-2.169617
-2.290957
-2.407153
-2.519843
-2.622245
-2.724881
-2.834298
-2.937168
-3.042843
-3.158806
-3.280847
-3.404759
-3.526567
-3.657025
-3.791224
-3.919578
-4.057050
-4.188443
-4.304406
-4.425044
-4.544514
-4.649020
-4.741603
-4.820158
-4.881646
-4.923729
-4.941029
-4.940327
-4.927234
-4.888189
-4.826465
-4.755157
-4.667014
-4.563441
-4.450516
-4.319589
-4.169724
-4.001156
-3.816455
-3.626377
-3.428350
-3.221205
-3.014294
-2.804109
-2.591353
-2.383506
-2.174491
-1.972723
-1.781476
-1.594671
-1.419556
-1.251221
-1.088732
-0.943309
-0.817759
-0.709042
-0.610613
-0.530654
-0.463787
-0.393179
-0.337301
-0.296619
-0.254535
-0.213620
-0.170367
-0.126646
-0.085730
-0.040139
0.013167
0.077229
0.142926
0.208858
0.282505
0.360360
0.447801
0.540853
0.635074
0.742856
0.860223
0.981097
1.115531
1.254407
1.380191
1.499896
1.624043
1.738371
1.839606
1.936632
2.032256
2.125776
2.213451
2.298086
2.385059
2.466655
2.544978
2.620495
2.682452
2.738331
2.793975
2.844944
2.898718
2.948518
2.985225
3.021932
3.057002
3.091371
3.144911
3.206167
3.265786
3.340602
3.423133
3.515718
3.626772
3.747178
3.876001
4.012774
4.159365
4.319517
4.481306
4.652914
4.835043
5.009456
5.190650
5.378857
5.559350
5.736335
5.915658
6.089838
6.246950
6.400556
6.547381
6.664515
6.770426
6.871427
6.956764
7.033450
7.098680
7.159936
7.216983
7.256963
7.288760
7.320090
7.347913
7.364279
7.371761
7.371996
7.355631
7.326875
7.286195
7.234059
7.176545
7.105706
7.026215
6.937841
6.834269
6.726256
6.613800
6.491525
6.365041
6.230375
6.083785
5.931583
5.770966
5.600294
5.426818
5.245158
5.058588
4.870382
4.668616
4.464979
4.264616
4.057940
3.849861
3.640613
3.428092
3.211597
2.992062
2.773696
2.552759
2.336731
2.133795
1.943485
1.765800
1.598402
1.441759
1.297740
1.169386
1.050151
0.940033
0.853061
0.779883
0.715122
0.670468
0.633528
0.608747
0.606176
0.613424
0.629791
0.654574
0.685904
0.724013
0.762825
0.808182
0.856111
0.899365
0.954308
1.022811
1.093886
1.171508
1.256611
1.348260
1.453002
1.560783
1.664356
1.774242
1.886699
1.994948
2.107639
2.221031
2.333956
2.454129
2.566352
2.672965
2.784487
2.879877
2.966616
3.051485
3.112975
3.163008
3.200417
3.211172
3.213511
3.204861
3.175403
3.133554
3.076976
3.004734
2.916125
2.813022
2.692383
2.553976
2.412295
2.258691
2.085916
1.908465
1.722129
1.527143
1.327714
1.120103
0.909687
0.693425
0.470383
0.255290
0.046978
-0.158763
-0.353749
-0.534474
-0.697430
-0.850566
-0.993883
-1.114989
-1.224172
-1.326107
-1.407935
-1.478073
-1.542834
-1.591230
-1.627935
-1.654587
-1.665809
-1.670484
-1.668145
-1.655519
-1.636581
-1.612265
-1.588183
-1.566206
-1.540487
-1.519211
-1.502610
-1.481802
-1.464500
-1.450939
-1.440885
-1.443456
-1.448599
-1.458885
-1.478757
-1.492550
-1.508915
-1.531827
-1.551932
-1.574376
-1.597521
-1.620433
-1.643812
-1.664619
-1.686595
-1.708571
-1.733820
-1.761408
-1.789463
-1.819622
-1.845806
-1.869419
-1.890460
-1.909397
-1.936750
-1.962233
-1.983274
-2.009225
-2.032838
-2.061360
-2.098533
-2.137109
-2.181764
-2.236238
-2.290711
-2.342380
-2.397789
-2.452731
-2.500658
-2.549054
-2.594877
-2.634154
-2.672964
-2.708500
-2.740763
-2.768351
-2.787755
-2.801782
-2.808094
-2.801079
-2.785648
-2.761566
-2.724158
-2.679034
-2.628299
-2.564939
-2.488019
-2.398007
-2.295836
-2.187821
-2.076299
-1.960569
-1.837824
-1.707832
-1.578074
-1.443406
-1.301724
-1.156769
-1.003164
-0.849324
-0.698057
-0.536034
-0.365829
-0.192818
-0.017937
0.153905
0.326214
0.500160
0.672703
0.845714
1.014049
1.174902
1.330612
1.482581
1.632212
1.779738
1.924226
2.060764
2.191458
2.321450
