EVENT_NAME: 202302060117
EVENT_ID: 13194
EVENT_DATE_YYYYMMDD: 2023/02/06
EVENT_TIME_HHMMSS: 01:17:32.00000
EVENT_LATITUDE_DEGREE: 37.288
EVENT_LONGITUDE_DEGREE: 37.043
EVENT_DEPTH_KM: 8.6
HYPOCENTER_REFERENCE: AFAD
MAGNITUDE_W: 7.7
MAGNITUDE_W_REFERENCE: AFAD
MAGNITUDE_L: 
MAGNITUDE_L_REFERENCE: 
FOCAL_MECHANISM: 
NETWORK: TK
STATION_CODE: 4410
STATION_NAME: 
STATION_LATITUDE_DEGREE: 38.86677
STATION_LONGITUDE_DEGREE: 37.679
STATION_ELEVATION_M: 1243.0
LOCATION: Kahramanmaras_Pazarck_Turkiye
SENSOR_DEPTH_M: 
VS30_M/S: None
SITE_CLASSIFICATION_EC8: unknown
MORPHOLOGIC_CLASSIFICATION: 
EPICENTRAL_DISTANCE_KM: 184.16
EARTHQUAKE_BACKAZIMUTH_DEGREE: 
DATE_TIME_FIRST_SAMPLE_YYYYMMDD_HHMMSS: 2023/02/06 01:17:43.7646880
DATE_TIME_FIRST_SAMPLE_PRECISION: millisecond
SAMPLING_INTERVAL_S: 0.01
NDATA: 13501
DURATION_S: 
STREAM: HNE
UNITS: cm/s^2
INSTRUMENT: sensor = ACEBOX/SARA | digitizer = 
INSTRUMENT_ANALOG/DIGITAL: 
INSTRUMENTAL_FREQUENCY_HZ: 
INSTRUMENTAL_DAMPING: 
FULL_SCALE_G: 
N_BIT_DIGITAL_CONVERTER: 
PGA_CM/S^2: 45.496
TIME_PGA_S: 
BASELINE_CORRECTION: BASELINE REMOVED
FILTER_TYPE: BUTTERWORTH
FILTER_ORDER: 
LOW_CUT_FREQUENCY_HZ: 
HIGH_CUT_FREQUENCY_HZ: 
LATE/NORMAL_TRIGGERED: 
DATABASE_VERSION: 
HEADER_FORMAT: DYNA 1.2
DATA_TYPE: Acceleration
PROCESSING: Automatic Paolucci et al., 2011
DATA_TIMESTAMP_YYYYMMDD_HHMMSS: 
DATA_LICENSE: U (unknown license)
DATA_CITATION: Turkish Accelerometric Archive v 1.0 - Disaster And Emergency Management Presidency, Earthquake Department
DATA_CREATOR: AFAD
ORIGINAL_DATA_MEDIATOR_CITATION: : AFAD - Disaster And Emergency Management Presidency
ORIGINAL_DATA_MEDIATOR: AFAD PROCESS SERVICE
ORIGINAL_DATA_CREATOR_CITATION: AFAD PROCESS SERVICE
ORIGINAL_DATA_CREATOR: network: TK
USER1: GuestUser
USER2: 
USER3: 
USER4: 
USER5: 
[...]
-2.915854
-3.036491
-3.574456
-4.281456
-4.781313
-4.909431
-4.749044
-4.457029
-4.191666
-4.124798
-4.335915
-4.471982
-3.993864
-2.890806
-1.674591
-0.798784
-0.344981
-0.140172
0.002914
0.186214
0.450407
0.838045
1.292783
1.601632
1.632028
1.363631
0.760203
-0.022548
-0.565423
-0.595347
-0.177549
0.486906
1.185027
1.693538
1.853458
1.730249
1.627147
1.795250
2.042609
1.826583
1.000580
0.080590
-0.424644
-0.513484
-0.502493
-0.490100
-0.269159
0.208258
0.802105
1.316228
1.514256
1.482696
1.609417
2.069766
2.612879
2.838730
2.708507
2.489208
2.328124
2.321814
2.601204
3.063423
3.417862
3.490809
3.085174
1.866157
-0.114337
-2.148839
-3.344943
-3.150655
-1.619047
0.475545
1.867343
1.636120
-0.083457
-2.296813
-3.967058
-4.840523
-5.358849
-5.718427
-5.679614
-5.159179
-4.385541
-3.689524
-3.194807
-2.684425
-2.080057
-1.652907
-1.525017
-1.448563
-1.189747
-0.817306
-0.464971
-0.247070
-0.317674
-0.492552
-0.376586
0.143849
1.055661
2.349965
3.955687
5.695375
7.141179
7.783423
7.426884
6.375033
5.187579
4.240936
3.554042
2.761706
1.588747
0.364587
-0.633725
-1.647467
-2.668691
-3.213904
-3.022422
-2.371762
-1.762250
-1.551129
-1.880546
-2.619110
-3.280286
-3.414951
-2.992243
-2.223047
-1.383245
-0.685826
-0.086367
0.605909
1.569156
2.769941
3.746982
4.120125
3.975173
3.387877
2.365718
1.175224
0.153767
-0.608176
-1.331776
-2.133699
-2.611344
-2.402561
-1.791179
-1.321477
-1.218370
-1.310718
-1.457073
-1.859669
-2.657149
-3.547681
-4.069514
-3.958691
-3.302420
-2.401597
-1.387148
-0.273102
0.782495
1.481551
1.507739
1.013494
0.712366
1.103277
2.099022
3.306821
4.117165
3.779798
2.167300
-0.097725
-2.332357
-3.926384
-4.642269
-4.333187
-2.902345
-0.866904
1.318869
2.984210
3.966628
4.555566
3.688180
2.240978
1.222325
-1.116346
-2.590903
-1.319278
-0.829704
-1.397127
-1.397359
-1.574808
-1.112121
0.369221
1.410088
1.760787
1.419679
0.115092
-1.000118
-1.046641
-1.027234
-1.286045
-1.172885
-0.860997
-0.435717
0.023697
-0.153285
-0.929957
-1.720891
-2.104784
-1.884311
-1.406894
-0.976237
-0.431955
0.375116
1.263781
1.542003
0.696828
-0.949102
-2.824856
-4.288424
-4.677694
-3.932580
-2.513896
-0.866090
0.837125
2.518832
3.942192
4.686838
4.284008
2.964692
1.774667
1.458108
2.109703
3.327555
4.370995
4.870155
4.869689
4.382224
3.521853
2.673873
2.312658
2.472110
2.709885
2.832630
2.979691
3.169771
3.205778
2.776762
1.663656
-0.047270
-1.860599
-2.922036
-2.617630
-1.359331
-0.413852
-0.690432
-1.953168
-3.409255
-4.560938
-5.386708
-5.990370
-6.311138
-6.351114
-6.273024
-6.278866
-6.452575
-6.459821
-6.063064
-5.453319
-4.663783
-3.542021
-2.045950
-0.591729
0.348606
0.803812
0.541728
-0.329399
-0.985431
-1.431280
-1.632110
-0.902426
0.472538
1.683376
2.457014
2.901231
3.360411
4.046609
4.795931
5.375050
5.652569
5.338816
4.212850
2.707666
1.611159
1.252283
1.223294
1.072965
0.853198
0.583632
0.185946
-0.182984
-0.323260
0.020424
1.094491
2.770119
4.444811
5.296303
4.876172
3.409330
1.451046
-0.490404
-2.015461
-2.859700
-3.161764
-3.326589
-3.278892
-2.429738
-0.630899
1.402204
2.669622
2.688094
1.910954
1.082145
0.325814
-0.432856
-0.959833
-0.999108
-0.233654
1.471900
3.549191
5.114700
5.477556
4.419625
2.399385
0.050427
-2.037147
-3.104195
-2.887696
-2.045322
-1.407287
-1.289919
-1.575850
-2.128545
-2.816140
-3.456742
-4.001020
-4.409461
-4.605848
-4.539915
-4.198335
-3.725828
-3.139696
-2.386165
-1.764028
-1.562727
-1.786234
-2.175504
-2.406026
-2.385683
-1.740868
-0.343693
0.920685
1.605479
1.789714
1.121056
-0.153838
-1.276764
-2.051799
-2.519625
-2.901881
-3.503206
-4.028779
-4.081381
-3.714551
-2.854409
-1.546544
-0.521341
-0.337106
-0.787631
-1.409530
-1.890214
-2.231556
-2.563780
-2.807160
-2.850644
-2.765773
-2.618712
-2.328334
-1.795975
-1.034729
-0.093225
0.973361
2.005111
2.935392
3.887417
4.889007
5.891766
6.803578
7.350899
7.265098
6.377372
4.766512
3.026829
1.791914
1.217710
1.268914
1.900403
2.913449
4.000608
4.896054
5.589499
6.246238
6.551580
5.850658
4.179945
2.187527
0.441064
-0.641882
-0.990472
-0.914251
-0.515157
0.341011
1.293036
1.526602
0.720705
-0.764373
-2.356062
-3.343152
-3.174348
-1.930077
-0.141525
1.629959
3.126965
4.423607
5.472191
6.103212
6.438947
6.692853
6.890414
6.831734
6.262907
5.398795
4.688054
4.106135
3.305148
2.050828
0.584687
-0.409182
-0.577982
-0.221906
0.104477
-0.136799
-1.221616
-2.837620
-4.250455
-5.012631
-5.125787
-4.697000
-3.969888
-3.290705
-2.831057
-2.577852
-2.451366
-2.467729
-2.815149
-3.555817
-4.380417
-4.751685
-4.186361
-2.651479
-0.765434
0.699775
1.401871
1.516434
1.456584
1.454249
1.526027
1.847734
2.698057
3.955422
5.108278
5.843807
6.170424
6.136058
5.830488
5.436542
5.219580
5.395632
5.765969
5.806886
5.236423
4.243255
3.284922
2.710718
2.412629
2.142596
2.211335
3.188142
4.968511
6.788858
7.919037
8.071241
7.474359
6.469968
5.071629
3.381979
1.962832
1.267521
1.219128
1.393309
1.308209
0.788948
0.048748
-0.634171
-1.181255
-1.722960
-2.286409
-2.548260
-2.181897
-1.385581
-0.882213
-1.176328
-1.949259
-2.536322
-2.537021
-1.961410
-1.353768
-1.368027
-2.097005
-3.064923
-3.622060
-3.422394
-2.520636
-1.178170
0.047866
0.607111
0.673979
0.978620
1.871260
3.061758
4.204094
5.105852
5.429898
4.865747
3.644393
2.397788
1.469148
0.805634
0.394620
0.282400
0.269310
0.071520
-0.278472
-0.507358
-0.384612
0.231213
1.386875
3.009197
4.758236
6.004144
6.331697
5.840257
4.854570
3.647711
2.380533
1.257840
0.614900
0.648570
1.291281
2.375167
3.523816
4.118364
3.993285
3.654983
3.450179
3.334218
3.266419
3.252394
3.387531
3.821929
4.618478
5.801261
7.191188
8.290973
8.610342
8.027956
6.883287
5.580571
4.455541
3.968310
4.087315
4.250040
4.153484
3.569227
2.475760
1.302567
0.403853
0.239496
0.841293
1.438647
2.057978
3.299678
4.831520
5.964738
6.369911
5.962638
4.874548
3.351362
1.699586
0.340525
-0.345901
-0.423753
-0.237414
0.116089
0.472866
0.407406
-0.215662
-1.224962
-2.508974
-3.856813
-4.686090
-4.502089
-3.565261
-2.504286
-1.578213
-0.782365
-0.102480
0.449050
0.789929
0.938393
0.942837
0.699223
0.260388
-0.241573
-0.978032
-2.020297
-2.919246
-3.115165
-2.440892
-1.183761
0.191904
1.358555
2.141544
2.421402
2.205142
1.609663
0.855903
0.377322
0.561323
1.443676
2.789416
4.091903
4.713104
4.516951
4.028551
3.690716
3.493861
3.374861
3.494801
4.100339
5.027347
5.740899
6.029875
5.905731
5.354439
4.508329
3.533397
2.610602
1.782494
1.042762
0.828606
1.371486
2.208248
2.882990
3.124505
2.666498
1.459873
-0.181148
-1.828948
-3.397258
-4.996429
-6.457893
-7.533592
-8.260232
-8.781831
-9.053735
-8.852667
-8.211358
-7.629201
-7.373892
-7.118115
-6.556999
-5.629757
-4.252689
-2.466709
-0.596796
0.996301
2.108944
2.674736
2.719861
2.285702
1.541294
0.897886
0.683497
1.031156
2.003755
3.320503
4.259435
4.060476
2.303726
-0.926181
-5.041945
-9.162386
-12.512231
-14.794791
-16.291325
-17.509874
-18.535306
-18.924109
-18.388243
-17.472457
-17.174597
-17.854944
-19.350076
-21.485811
-23.691452
-25.326394
-26.233993
-26.443473
-26.176708
-25.763352
-25.307678
-24.742822
-23.996071
-23.310107
-23.089868
-23.473761
-24.327586
-25.308831
-26.068669
-26.210816
-25.507083
-24.150122
-22.211239
-19.758469
-16.903568
-14.044927
-11.984937
-10.301828
-8.714810
-7.911714
-6.497705
-3.488265
-0.846587
0.192177
-0.266999
-1.626761
-2.427047
-2.173141
-1.413531
-0.147282
1.715850
4.089830
7.163565
10.593140
13.266614
14.802197
15.852650
16.984231
18.326931
19.763384
21.186510
22.514481
23.458791
23.764834
23.428870
22.695684
21.973019
21.367252
20.729690
20.098907
19.457136
18.659656
17.767956
16.927457
16.190998
15.533562
14.969646
14.742397
15.100343
15.989009
17.082949
17.801644
17.467316
15.710800
12.825744
9.869847
8.140919
8.147702
9.231588
10.416241
11.199698
11.406611
11.102911
10.854387
11.367107
12.694142
14.210320
15.365748
15.989756
15.854857
14.768871
13.096054
11.123275
8.683603
6.005224
3.597348
1.950717
1.376747
1.306142
1.236941
1.351036
1.571743
1.789645
1.804610
1.211703
0.028223
-1.834671
-4.360380
-6.821562
-8.567090
-9.451075
-9.867465
-10.282921
-10.861567
-12.137396
-14.431646
-17.005985
-18.955618
-19.947618
-20.147512
-19.846846
-19.355636
-19.036267
-18.856006
-18.588774
-18.171911
-17.630902
-17.161200
-16.659235
-16.066323
-15.735498
-15.147963
-13.618225
-11.681212
-9.871151
-8.386302
-7.627394
-7.389854
-6.977199
-6.061179
-4.417348
-1.951720
1.015170
4.195517
7.045040
8.852763
9.960263
11.196351
12.702008
14.197144
15.311892
15.837470
15.670308
14.653058
12.990061
11.118750
9.248842
7.478064
6.073646
5.346539
5.153191
4.995380
4.433801
3.214551
1.394208
-0.841593
-3.211126
-5.246796
-6.644200
-7.210455
-6.800606
-5.629747
-4.186046
-3.137931
-3.147981
-4.144423
-5.175233
-5.501144
-5.502077
-6.019468
-7.191958
-8.482283
-9.696390
-11.244359
-13.306215
-15.599764
-17.843747
-19.870300
-21.410554
-22.218555
-22.453519
-22.276298
-21.654862
-20.829088
-20.304445
-20.466230
-20.558110
-19.540154
-18.076113
-16.623295
-14.740289
-13.086872
-11.940796
-10.662624
-9.441498
-8.369068
-6.873464
-4.758298
-2.258068
0.129706
1.838533
2.871218
3.448465
3.120216
1.581599
-0.346525
-1.541928
-1.306959
0.585165
3.740027
7.422804
11.065368
14.389500
16.966416
17.945795
16.997983
15.049519
13.250919
12.000574
11.335891
11.196550
11.290071
11.427313
11.631888
11.754867
11.526450
11.056753
11.065406
12.279050
14.459914
16.647791
18.542954
20.741586
23.390277
25.537941
26.140673
25.050245
22.868919
20.368460
17.952401
15.616067
13.378630
11.341323
9.726955
8.854426
8.739167
8.931350
8.193956
5.220057
0.366428
-4.915283
-9.527867
-12.918393
-15.393134
-17.642262
-19.674425
-21.081882
-21.613067
-21.276163
-20.201394
-18.480644
-16.340695
-14.022827
-11.414115
-8.270942
-4.644510
-1.004284
2.024795
4.136689
5.459516
6.345142
6.986217
7.075296
6.376478
5.479401
5.188793
5.488290
5.790358
5.871722
5.809534
5.312717
3.960203
2.015947
0.360899
-0.549038
-1.015695
-1.280117
-1.444474
-2.069880
-3.713238
-6.010762
-7.810063
-8.349431
-7.871313
-6.966515
-6.198255
-6.190303
-7.306683
-9.348900
-11.605976
-13.343555
-14.461805
-15.501733
-16.839285
-18.239260
-19.604400
-21.149564
-22.578998
-23.492909
-23.950448
-23.662875
-21.821251
-18.224278
-13.751266
-9.441913
-5.716819
-2.527822
0.288035
2.671367
4.400300
5.403293
5.631715
5.224676
4.646966
4.163242
3.708742
3.168205
2.541397
2.114252
2.405332
3.836407
6.145391
8.256349
9.199490
8.736574
6.941948
3.911704
0.219347
-3.086311
-5.462156
-7.082135
-8.148248
-8.679433
-8.471819
-7.363851
-5.791796
-4.559448
-4.214828
-4.832752
-6.152302
-7.436080
-7.505048
-5.984896
-3.713787
-1.652628
-0.383574
0.142940
0.116757
-0.884126
-2.589675
-3.757958
-4.027056
-3.937977
-3.878356
-3.971171
-4.259675
-4.804887
-5.586002
-6.592496
-7.919294
-9.279757
-9.844142
-9.102768
-7.670991
-6.506679
-5.851342
-5.652612
-5.659858
-5.215640
-4.141573
-2.905719
-1.790737
-0.578496
0.998937
2.555094
3.423653
3.515771
3.037892
1.873584
-0.255138
-3.177367
-6.234264
-9.058065
-11.745095
-14.051970
-15.489587
-16.202666
-16.788092
-17.841113
-19.543622
-21.351340
-22.824260
-23.621740
-23.553703
-23.623138
-24.291562
-24.337852
-23.058277
-20.939838
-19.135388
-18.750088
-19.273791
-19.267710
-18.277810
-16.503520
-13.813213
-10.099808
-5.850774
-1.907547
1.281917
4.016413
6.452816
7.954966
8.290701
8.459739
9.463199
11.419150
14.279895
17.835487
21.219237
23.866759
25.935868
27.594194
28.971964
30.080633
30.823877
31.225777
30.960887
29.527946
26.951736
23.690734
20.373855
17.656431
16.013073
15.509008
15.665187
15.803130
15.687637
15.682262
15.982460
16.044886
15.101516
12.718657
8.940729
4.284893
-0.469606
-4.450703
-7.256969
-9.790862
-13.356735
-17.750952
-21.474873
-23.577643
-24.464901
-25.009179
-25.539663
-26.205281
-27.252457
-28.497892
-29.542730
-30.263524
-30.802658
-31.234713
-31.277963
-30.830473
-30.225403
-29.599058
-29.053373
-28.923613
-29.194348
-29.473733
-29.401020
-28.741943
-27.466343
-25.726187
-23.995618
-22.936046
-22.679568
-22.734976
-22.312735
-20.890077
-19.024606
-17.770749
-17.388488
-17.311332
-16.915745
-16.164786
-15.473211
-14.972882
-14.318949
-13.071405
-11.042276
-8.503936
-5.935905
-3.409723
-0.608596
2.685610
6.309003
9.599468
11.943989
13.529605
14.960212
16.547698
18.239691
19.583561
20.079213
19.881189
19.440484
19.016612
18.931980
19.088860
18.929880
18.459482
17.829635
16.624880
14.696055
12.700832
11.425236
10.847993
10.265373
9.425809
8.692389
8.397573
8.713436
9.585268
10.730644
11.919973
12.859372
12.831319
11.005365
7.177638
1.887744
-3.878863
-8.987097
-12.526785
-13.838152
-12.717325
-9.741084
-6.013184
-3.082767
-2.232210
-3.111519
-4.298272
-4.987036
-5.585087
-6.958176
-9.042242
-10.863521
-11.381145
-9.650342
-5.522181
0.051080
5.983221
11.687643
17.205494
22.773846
28.296841
33.498599
37.802342
40.518133
41.851481
42.694089
43.378650
43.723269
43.857939
44.235991
45.041192
45.496163
44.577343
42.559908
39.937173
36.569793
33.260162
31.065042
29.804175
28.677509
26.759438
23.989177
21.574521
20.356440
20.351532
21.097582
21.634850
21.225240
19.487895
16.399903
12.521209
8.144994
3.444269
-0.662144
-3.528262
-5.627058
-7.624386
-9.520012
-10.826235
-11.386410
-11.910581
-13.098269
-14.414779
-14.880735
-14.361469
-13.324342
-12.598165
-12.794085
-13.393305
-13.551349
-12.946747
-11.496033
-9.434874
-7.105549
-4.444232
-1.485292
1.174155
3.022558
4.157646
4.865353
5.079747
4.628287
3.848342
3.358539
3.472401
4.370185
6.124602
8.332352
10.309811
11.596634
12.464959
13.789657
15.946907
18.295169
19.693513
19.470239
18.166588
16.615345
14.842463
12.691764
10.470926
8.623930
7.081806
5.291856
3.138820
1.296032
0.795708
1.923315
3.504255
4.551669
5.398251
6.381371
7.354905
8.353923
9.444590
10.105069
9.533204
7.688780
5.397335
3.303683
1.032579
-1.766206
-4.048065
-4.937661
-4.859804
-3.799531
-1.332266
1.584591
3.194755
2.992289
2.019227
1.297965
0.869183
0.594941
0.713011
0.798116
-0.203469
-1.976585
-2.884885
-2.239135
-0.760365
0.738044
2.022763
2.971280
3.212562
2.990457
3.242492
3.790749
3.209532
0.962509
-1.983101
-4.323876
-5.162739
-4.275709
-2.222967
0.075964
1.836927
2.540659
2.093408
0.915072
-0.431832
-1.720520
-3.046148
-4.265866
-4.881686
-4.632455
-3.740984
-2.751084
-2.270628
-2.375835
-2.563571
-2.526161
-2.369983
-2.318077
-2.253313
-1.531578
-0.173448
0.947846
1.413807
1.257633
0.804770
0.462259
0.254883
0.194332
-0.028007
-0.217146
1.042088
3.799496
6.682920
9.011777
10.240617
9.935047
8.213834
5.208372
1.546174
-1.423516
-2.756860
-2.539893
-1.284867
0.716674
3.383835
6.158076
7.670279
7.404454
6.605103
6.304442
6.422513
6.768535
7.461746
8.798835
10.908390
13.659251
16.708438
19.111642
19.804619
18.689877
16.371779
13.301556
9.957088
7.268890
6.064602
6.352175
7.284094
7.642741
6.822115
5.256377
3.874638
3.546623
4.247315
4.847242
4.550789
3.707251
3.026669
2.863949
3.021998
2.789372
1.494138
-0.736753
-2.891193
-3.921535
-3.678617
-2.862896
-1.880711
-0.100343
2.985082
6.453701
8.999288
10.107957
9.729675
8.372251
7.103669
6.635609
6.831768
7.136876
7.509317
8.606764
10.824099
13.403587
14.691345
13.844533
11.446711
8.098269
4.031602
-0.256939
-4.045855
-6.697114
-8.083062
-8.648615
-8.763407
-8.563040
-8.511602
-8.990884
-9.253203
-8.234545
-6.061865
-3.669649
-1.858653
-1.138789
-1.588612
-2.801784
-4.172067
-5.006487
-4.950841
-4.645967
-4.925586
-5.636094
-6.165876
-6.174758
-5.728437
-5.610601
-6.711082
-8.852896
-10.875942
-11.510933
-10.562415
-9.437380
-9.527156
-10.781943
-12.279178
-13.323081
-14.134589
-15.370672
-16.966570
-17.936359
-17.515288
-16.297903
-15.636488
-16.228928
-17.382014
-18.047398
-18.363490
-18.580919
-19.020923
-20.927070
-23.680965
-24.907463
-24.046853
-22.364913
-21.718695
-23.146726
-25.483060
-27.145824
-27.867086
-28.108362
-28.459056
-28.896488
-28.512591
-26.740171
-23.885037
-20.501520
-17.197261
-14.725554
-13.589998
-13.527338
-14.058290
-14.661016
-14.484030
-13.457891
-11.548233
-7.914553
-3.116096
1.515431
5.508457
8.331561
10.024723
11.366722
12.664767
13.812480
14.364244
14.186560
14.140972
14.803088
15.544228
15.797900
16.004813
16.629756
17.714811
19.281255
20.985640
22.090802
21.743849
19.468537
16.066321
12.915438
10.639424
9.245527
8.712004
9.124191
10.263721
11.598238
12.951693
14.225189
14.949262
14.718974
13.479851
11.738531
10.431841
9.888732
9.411554
8.316450
6.753050
4.942527
2.678436
0.069261
-2.415066
-4.315368
-5.074505
-4.283099
-2.309380
-0.749716
-1.286512
-3.750266
-6.562143
-8.508970
-9.443689
-9.779186
-9.624878
-8.916937
-7.486329
-4.882527
-1.422792
1.606521
3.202190
3.201257
1.919817
-0.504191
-3.946152
-7.682464
-10.596510
-11.640179
-10.571957
-8.238190
-5.571029
-3.093944
-0.959606
1.173562
3.604822
6.243227
8.860590
11.034439
12.431848
13.400238
14.260615
14.401831
13.194738
11.324830
10.348027
11.015521
13.073874
16.104590
19.034540
20.714376
21.363166
21.529632
21.160702
20.087809
18.457543
16.885960
16.107184
17.198318
20.418878
23.616759
24.744132
24.009543
22.906724
22.898076
23.850568
24.264859
23.147077
21.038462
19.631706
19.619317
20.112164
20.617403
21.375843
22.434947
23.299766
22.615677
19.693915
16.221093
13.971031
12.920114
12.463744
11.904270
11.160096
11.326328
12.994006
14.758477
14.432566
12.601468
11.751150
11.107040
8.491553
4.770672
1.557598
-0.504024
-1.144626
-1.712517
-3.379489
-4.845162
-5.096725
-4.440921
-3.321965
-3.119728
-4.186075
-4.518533
-3.645531
-3.045137
-2.962838
-2.893398
-2.792629
-2.822085
-3.598757
-5.602865
-8.115950
-9.828980
-10.625525
-11.834020
-13.995240
-16.673385
-19.756935
-21.977773
-21.649285
-19.791530
-19.177809
-21.130482
-23.880637
-24.548827
-22.808905
-20.501090
-19.256585
-19.912617
-21.841676
-23.186008
-23.326986
-23.110253
-22.532771
-21.354665
-20.541515
-20.673608
-21.118288
-21.568813
-22.239809
-22.064693
-19.520275
-15.731354
-13.031461
-11.643638
-10.456646
-8.958471
-8.052738
-7.915964
-6.313983
-3.912415
-4.343769
-6.562502
-7.535564
-7.773568
-7.855160
-6.960416
-5.231483
-3.960091
-3.775856
-3.520547
-2.632349
-2.290301
-3.183872
-5.335973
-8.028848
-9.209054
-8.393567
-7.513551
-7.597015
-8.183142
-8.606780
-8.516766
-8.891307
-11.178309
-14.627518
-17.058540
-18.189648
-19.218588
-20.486702
-21.583676
-21.872881
-21.216843
-20.052998
-18.384385
-16.560062
-15.476410
-15.586759
-16.766030
-17.883579
-17.478172
-14.914349
-10.643572
-6.745468
-5.254073
-5.373307
-4.905710
