EVENT_NAME: 202302060117
EVENT_ID: 13194
EVENT_DATE_YYYYMMDD: 2023/02/06
EVENT_TIME_HHMMSS: 01:17:32.00000
EVENT_LATITUDE_DEGREE: 37.288
EVENT_LONGITUDE_DEGREE: 37.043
EVENT_DEPTH_KM: 8.6
HYPOCENTER_REFERENCE: AFAD
MAGNITUDE_W: 7.7
MAGNITUDE_W_REFERENCE: AFAD
MAGNITUDE_L: 
MAGNITUDE_L_REFERENCE: 
FOCAL_MECHANISM: 
NETWORK: TK
STATION_CODE: 4404
STATION_NAME: 
STATION_LATITUDE_DEGREE: 38.19588
STATION_LONGITUDE_DEGREE: 38.87385
STATION_ELEVATION_M: 1255.0
LOCATION: Kahramanmaras_Pazarck_Turkiye
SENSOR_DEPTH_M: 
VS30_M/S: 1380
SITE_CLASSIFICATION_EC8: unknown
MORPHOLOGIC_CLASSIFICATION: 
EPICENTRAL_DISTANCE_KM: 190.02
EARTHQUAKE_BACKAZIMUTH_DEGREE: 
DATE_TIME_FIRST_SAMPLE_YYYYMMDD_HHMMSS: 2023/02/06 01:17:44.7714990
DATE_TIME_FIRST_SAMPLE_PRECISION: millisecond
SAMPLING_INTERVAL_S: 0.01
NDATA: 13501
DURATION_S: 
STREAM: HNE
UNITS: cm/s^2
INSTRUMENT: sensor = CMG-5T/GURALP | digitizer = 
INSTRUMENT_ANALOG/DIGITAL: 
INSTRUMENTAL_FREQUENCY_HZ: 
INSTRUMENTAL_DAMPING: 
FULL_SCALE_G: 
N_BIT_DIGITAL_CONVERTER: 
PGA_CM/S^2: 137.416
TIME_PGA_S: 
BASELINE_CORRECTION: BASELINE REMOVED
FILTER_TYPE: BUTTERWORTH
FILTER_ORDER: 
LOW_CUT_FREQUENCY_HZ: 
HIGH_CUT_FREQUENCY_HZ: 
LATE/NORMAL_TRIGGERED: 
DATABASE_VERSION: 
HEADER_FORMAT: DYNA 1.2
DATA_TYPE: Acceleration
PROCESSING: Automatic Paolucci et al., 2011
DATA_TIMESTAMP_YYYYMMDD_HHMMSS: 
DATA_LICENSE: U (unknown license)
DATA_CITATION: Turkish Accelerometric Archive v 1.0 - Disaster And Emergency Management Presidency, Earthquake Department
DATA_CREATOR: AFAD
ORIGINAL_DATA_MEDIATOR_CITATION: : AFAD - Disaster And Emergency Management Presidency
ORIGINAL_DATA_MEDIATOR: AFAD PROCESS SERVICE
ORIGINAL_DATA_CREATOR_CITATION: AFAD PROCESS SERVICE
ORIGINAL_DATA_CREATOR: network: TK
USER1: GuestUser
USER2: 
USER3: 
USER4: 
USER5: 
[...]
4.123066
6.029597
8.718541
10.624472
8.533439
4.193871
2.651847
3.289358
1.687633
-2.878440
-7.235709
-11.098570
-14.749928
-16.781260
-17.589772
-17.662372
-16.501353
-15.375134
-15.257532
-14.707622
-13.303299
-13.228297
-14.205712
-15.182527
-16.108941
-16.422446
-15.272827
-13.192293
-12.228677
-12.134774
-11.977271
-11.502363
-9.485430
-5.852371
-2.423916
1.564349
6.701032
11.187004
13.809947
16.464090
18.982331
20.409454
22.919595
27.229765
29.516102
27.770375
23.396906
18.570429
14.894771
12.985241
12.032727
11.411717
10.578305
8.128166
4.415307
1.507961
-0.443269
-2.144596
-1.804989
0.850354
3.445996
5.499829
7.980570
11.698530
16.926414
21.122282
22.904011
24.463437
26.395768
26.496271
25.101549
24.595442
24.574442
23.176720
20.978886
19.783067
18.516148
16.453916
14.407283
12.345951
10.523123
9.815412
9.482107
8.279389
6.673464
4.197225
0.555767
-2.839086
-4.858418
-5.981635
-6.534544
-6.590044
-6.159836
-4.621411
-2.584678
-0.870750
0.877979
2.493206
4.076032
5.519955
6.219567
5.634559
4.365839
1.752798
-2.674072
-7.215244
-10.749900
-13.263940
-14.214654
-13.602944
-13.149036
-13.465540
-13.840846
-13.577141
-12.081616
-9.942881
-8.639060
-8.136251
-6.737328
-4.546992
-2.860964
-1.382540
0.620293
2.455423
3.703143
5.178868
7.136400
8.245218
8.335220
8.119217
7.836913
6.439192
4.364959
3.940153
5.524479
7.365609
9.009036
10.842066
11.743281
10.735566
8.923238
7.365013
6.263696
5.689788
5.362783
4.235366
2.064532
-0.369106
-3.377254
-6.864209
-9.437349
-10.892672
-12.321594
-13.621814
-14.552129
-15.778847
-17.136369
-17.239870
-15.949248
-13.808413
-11.321973
-8.477627
-4.440161
0.526419
5.252995
8.470847
10.179075
11.016089
11.687201
12.394913
12.954722
13.397830
12.930423
10.930592
7.936245
4.904097
1.595945
-2.393218
-5.935974
-9.472130
-13.553995
-17.255454
-19.736793
-20.830609
-20.725007
-20.115997
-19.035679
-16.583439
-13.354186
-11.290453
-9.764328
-7.108984
-4.196837
-2.041302
-0.001869
2.363970
4.056598
4.933212
5.424921
5.442322
5.311520
5.669727
6.413439
6.906048
7.381856
7.861865
8.339773
9.048985
8.756181
6.964253
4.425613
2.267979
-0.063658
-2.644598
-4.355525
-5.685445
-7.125168
-8.283486
-8.746092
-8.399286
-7.495971
-6.660757
-6.517654
-6.608255
-6.509853
-6.143846
-5.675538
-4.937525
-3.838007
-3.091894
-2.770889
-2.221579
-1.680670
-1.789871
-2.581283
-3.414696
-4.268809
-5.472127
-6.803248
-7.406857
-7.112251
-6.285437
-5.147519
-3.520292
-1.330556
0.883480
2.295303
2.786712
2.817613
2.657711
2.256005
2.060703
3.000919
4.900850
6.940283
8.325106
9.227521
10.334239
11.182954
11.835465
11.741264
11.036553
10.378043
9.659533
8.270511
5.960475
2.952927
-0.040820
-2.285155
-3.617476
-4.264886
-4.194084
-4.454787
-6.214015
-8.234246
-9.520066
-10.786086
-12.185308
-13.341825
-15.107653
-17.457890
-19.265118
-19.178116
-17.414987
-15.245352
-12.414206
-8.839648
-4.836683
-0.646515
3.987359
8.318529
11.548382
13.874020
15.386944
15.740351
15.549248
14.963940
13.543718
11.623088
9.244050
5.999199
3.125154
2.251240
2.510145
2.780450
3.126356
3.760567
4.069873
4.002972
3.713468
3.286562
2.901657
3.103561
3.550869
3.974476
4.446984
4.774290
4.374084
3.130565
1.887346
0.744928
-1.326904
-3.854144
-5.748673
-7.335398
-9.250628
-10.888954
-12.615181
-15.137620
-17.405356
-18.565774
-19.301085
-19.992295
-20.598904
-21.588019
-23.090143
-23.822154
-23.415047
-22.565732
-22.002323
-21.458113
-20.767502
-19.819786
-18.132558
-15.665018
-13.045675
-10.884740
-9.068210
-7.512685
-5.886358
-4.018528
-2.109296
0.098740
3.001587
6.839249
11.188719
15.537589
19.621855
23.589120
27.217678
30.434630
33.099574
34.866303
35.988021
37.295743
38.907969
40.014688
39.676283
37.737353
34.980009
32.202566
29.061516
25.414658
23.236324
23.395027
24.267742
24.631948
24.925954
24.976355
24.669451
24.843155
25.146760
24.502950
23.219531
21.431203
19.269069
17.060134
15.111604
12.929069
10.456730
7.945391
5.633255
3.840727
2.049699
0.135969
-1.688360
-3.179083
-4.499403
-5.704822
-6.238830
-5.538618
-3.615887
-1.396450
0.201676
0.558682
-0.145428
-0.944940
-1.627451
-3.041373
-4.742099
-5.782215
-6.867032
-8.579459
-9.867079
-10.326685
-10.709191
-10.741590
-9.314167
-6.681624
-3.162867
1.333005
6.702492
13.108795
20.462214
27.668630
33.502524
37.928495
41.114847
42.420168
42.090464
39.868029
35.313957
29.102358
22.364851
15.869147
10.078756
5.194978
0.963411
-3.218355
-6.988215
-9.638757
-10.854675
-10.751473
-9.766257
-8.569237
-7.293616
-5.849092
-4.383868
-3.173348
-2.122730
-1.541020
-1.782823
-2.675037
-3.332647
-3.157143
-2.274229
-0.924506
0.571018
1.607536
2.043743
1.947742
1.209431
-0.233591
-1.672114
-2.130520
-1.860215
-1.113503
0.336421
3.131867
7.262633
11.682005
15.444666
18.511015
20.695951
21.491864
21.011257
19.804339
17.785007
14.844061
11.288705
7.384143
3.257877
-0.285179
-3.102523
-5.621963
-7.753496
-9.207619
-10.314336
-10.982446
-10.608939
-9.108614
-7.118682
-5.380153
-3.884929
-2.635408
-1.698792
-1.161183
-1.004280
-1.000679
-0.805975
-0.212865
1.044456
2.612881
3.390794
3.120791
1.805570
-0.721669
-4.930136
-9.506709
-14.172382
-19.351065
-25.066755
-31.144852
-37.186648
-43.231144
-49.040436
-54.669426
-59.453602
-62.540950
-63.566666
-62.364246
-58.569485
-51.545472
-42.197621
-32.650268
-23.710124
-15.375990
-8.138374
-2.018275
3.593615
8.436293
11.763047
14.008284
15.952016
16.839431
16.391824
15.541311
13.837285
10.711235
6.326666
1.453988
-3.820995
-8.966377
-13.350346
-17.188607
-20.394758
-22.234086
-23.120300
-23.740109
-24.554022
-26.018044
-28.177478
-30.187210
-31.110624
-30.275410
-27.212060
-21.519768
-13.190734
-3.449278
6.524982
15.770231
23.170450
27.987328
30.251465
29.923560
26.592608
20.631513
13.194395
5.247868
-2.419654
-9.159861
-14.564747
-18.765713
-21.744460
-23.803093
-25.108713
-25.319616
-24.120496
-21.979961
-19.722124
-17.786192
-16.583472
-16.135265
-15.094247
-13.907428
-13.040113
-11.617790
-8.825344
-5.189585
-1.222621
2.745543
6.274500
8.561437
8.791542
8.029530
6.987914
5.095185
2.665746
-0.481903
-4.762071
-10.175357
-16.395656
-22.721856
-28.819153
-34.299040
-38.539307
-41.555255
-43.283882
-43.541285
-42.466368
-40.808840
-38.811408
-36.902477
-35.539554
-34.124131
-32.402403
-30.614673
-28.842244
-26.652208
-24.118967
-21.745329
-19.172787
-15.821732
-11.684066
-7.102092
-2.289414
2.576665
7.433743
12.104818
15.388372
16.815195
16.580892
14.628461
10.938703
5.922324
-0.171973
-6.723777
-12.894276
-18.487864
-23.450543
-27.211103
-29.283235
-29.921045
-29.423936
-27.643107
-24.769960
-20.690194
-15.219606
-9.066207
-3.637919
0.638050
4.294809
7.108855
8.407276
8.027171
5.974239
2.497484
-1.863385
-6.512259
-11.179133
-15.310499
-18.473449
-20.885186
-22.767416
-24.223039
-25.465058
-26.431673
-26.998681
-26.968080
-26.116365
-24.228735
-20.781979
-15.487193
-8.665384
-1.003860
6.504661
13.380771
19.393768
24.909357
30.331344
35.842133
40.674011
44.376071
47.516822
50.265167
51.806892
52.271900
52.538605
52.012097
49.929165
46.821416
42.504647
36.611054
29.591842
22.170624
14.841207
7.479690
0.091773
-7.344145
-15.131669
-22.116080
-26.110944
-27.022658
-26.511749
-25.373230
-24.032508
-23.246195
-22.865788
-22.185976
-20.682651
-20.208643
-21.975371
-24.448010
-25.436825
-24.383807
-22.980384
-22.675579
-24.353805
-27.287551
-29.454185
-29.812090
-28.123362
-25.199815
-22.555572
-22.700474
-26.062627
-28.506765
-26.644635
-21.558353
-16.455270
-12.808111
-10.108667
-8.291838
-6.979316
-4.699279
-1.166122
2.983845
5.856992
6.058896
4.431971
3.011449
3.198952
3.443157
1.225822
-3.156647
-6.904607
-7.846021
-8.874137
-12.063187
-15.473641
-17.721576
-19.762508
-21.871241
-23.309764
-24.562883
-24.849687
-23.976372
-22.555249
-21.337829
-19.548300
-16.641252
-12.620587
-8.052114
-2.796629
3.265869
10.598287
19.359328
26.713946
31.633725
33.446955
31.133319
25.643832
21.190861
19.358132
16.871993
12.974632
10.952000
9.218573
4.388496
-0.441580
-2.302509
-1.900802
-2.870117
-5.691362
-7.558591
-8.065898
-10.087030
-13.417082
-16.021723
-14.900005
-11.286746
-8.652704
-5.825458
-2.267700
-1.370085
0.129040
4.428409
6.739347
5.338325
5.142723
8.100771
8.932685
5.980638
1.882873
-1.937987
-4.520428
-7.392073
-13.235566
-17.534034
-17.585334
-17.861938
-19.925970
-23.143221
-27.103284
-29.475121
-29.712724
-29.206015
-27.605489
-22.332604
-14.639280
-10.994521
-10.609615
-6.118842
-0.172446
3.169308
5.763150
8.972002
10.991935
9.230908
6.256361
5.474549
8.556499
11.086740
9.535116
7.315681
5.131947
2.671608
0.976882
0.871281
0.923482
0.231072
-0.298736
0.402376
2.125904
4.266739
6.016068
8.241204
10.145935
11.896764
13.747794
13.192486
8.960919
3.482832
-1.648750
-5.449210
-8.035250
-11.086899
-14.173647
-17.077693
-20.144041
-21.842368
-20.541546
-16.389479
-10.918591
-7.327533
-7.497635
-10.167677
-10.335979
-8.310946
-6.772521
-3.892174
0.693400
7.078703
13.619108
15.463238
14.668826
14.904031
15.107135
13.787714
13.654213
16.406158
17.181971
15.212140
13.116007
11.548183
12.366596
14.459730
16.454763
20.188023
25.108403
29.858380
29.664277
23.806384
17.701887
17.283381
19.876323
20.240230
19.464118
16.494971
9.689063
4.180675
3.361363
2.343147
-0.447197
-1.144707
-1.101206
-2.927634
-2.112520
1.033931
3.515571
5.447603
9.326965
13.006225
14.588451
15.331863
14.604952
12.573921
12.579621
13.809342
14.081147
15.742274
20.556152
21.309464
17.913711
15.948380
20.021546
23.945609
19.309936
16.150286
20.991164
20.237553
13.860051
13.744850
15.378077
14.593865
11.387414
8.710772
7.093747
2.694177
-8.196896
-15.821818
-15.491512
-11.491847
-10.120224
-12.150956
-16.026417
-11.989552
-6.379162
-4.579132
1.788770
8.259275
6.274443
3.307697
7.385963
4.985925
0.719557
6.776955
8.744387
0.055949
-5.564941
-0.691362
6.669857
12.051043
13.182962
9.693007
6.766761
8.882095
19.231362
27.316192
27.821400
26.243076
16.092414
-2.305980
-9.836699
-1.592267
0.913074
-11.447123
-20.106161
-21.388081
-23.137408
-29.512810
-33.282069
-24.847734
-11.146214
-16.549899
-36.471418
-38.183244
-26.107750
-24.269020
-32.184046
-29.014495
-17.669513
-18.870431
-22.877895
-19.315937
-17.976715
-12.921333
-0.714137
4.338844
-5.168607
-2.695067
9.302426
6.152976
5.522667
25.937694
39.286708
24.180567
13.300294
18.721381
21.915833
19.681698
20.759916
24.754780
29.766361
29.185853
20.648317
12.575788
16.028844
26.309709
25.686600
15.758842
7.442409
4.193958
1.828721
-5.889802
-14.157333
-14.684741
-9.926364
-10.531473
-18.117394
-23.449079
-23.466178
-22.585364
-22.564063
-23.239673
-23.238772
-22.799864
-25.009699
-27.233634
-23.081567
-18.496293
-23.403171
-30.548084
-34.196442
-38.435509
-39.414124
-36.809182
-37.946199
-40.804944
-41.120249
-43.263482
-45.536618
-42.442368
-34.781144
-26.633013
-23.497963
-21.133024
-16.854355
-10.697956
-6.604090
-4.850561
-1.480606
-0.157284
1.821848
3.566977
-1.900310
-6.865989
-0.843092
7.519842
8.724062
8.223955
9.333374
7.705848
2.438065
-3.198425
-6.643679
-7.203188
-9.673127
-12.251367
-13.975794
-16.587635
-20.673100
-26.797397
-29.960347
-30.087248
-26.202786
-14.382896
1.418958
15.021176
23.372710
31.641743
44.662552
55.896233
59.296488
62.412638
76.187659
82.964769
75.341647
70.186965
77.972691
85.117906
87.186439
82.985773
66.187005
44.707862
41.103905
39.748184
21.942000
7.611371
7.815375
13.940274
6.966363
-13.961371
-31.399750
-31.713254
-29.375316
-41.951517
-59.156791
-65.495592
-58.689682
-58.036571
-63.936765
-60.467209
-49.645735
-36.250820
-24.340329
-22.311396
-29.231906
-18.183928
-1.111254
4.181731
8.251297
13.081975
4.914945
14.158993
37.481067
48.319941
57.284085
76.223089
86.987262
77.127605
67.740455
62.371870
54.500045
50.740685
55.811067
38.995799
16.950547
31.592582
49.130263
44.545890
53.072627
80.500267
85.337245
79.380350
83.732821
81.873392
70.915717
55.452570
35.308149
7.438303
-22.286172
-47.538775
-59.695869
-60.611483
-58.886754
-59.858769
-62.487111
-69.918229
-74.730605
-69.317018
-63.134818
-55.412994
-38.330120
-20.778639
-9.106051
2.467235
21.573941
36.675283
48.433672
54.710973
63.009407
69.233607
66.287860
70.606430
77.908848
74.945101
65.044943
62.131897
54.941683
36.218984
21.209145
13.392220
8.865148
5.912502
0.530716
-6.482195
-10.866165
-11.692977
-15.236633
-18.234280
-17.213663
-20.470215
-26.035603
-25.861900
-20.735417
-16.107542
-10.388250
-3.882345
-0.322188
0.213622
2.370357
8.957263
13.576737
11.049798
10.769294
17.957110
20.922658
17.429402
16.156483
21.944176
22.520186
11.972618
-4.053338
-19.886991
-32.151486
-41.243131
-52.706614
-58.512906
-50.724781
-39.993308
-40.594517
-41.804436
-39.289495
-35.131728
-24.926464
-13.999988
-9.010608
-5.570752
5.995934
22.122392
32.255355
32.602461
27.377878
16.931712
4.237610
-5.356843
-3.897619
8.925787
24.045429
38.211057
58.008674
77.064680
89.358877
85.526316
60.138411
24.414140
-14.667785
-54.969829
-89.359978
-118.275040
-137.416246
-137.339444
-110.308411
-77.733289
-51.152263
-23.279716
-2.610885
9.564510
15.081299
10.613029
7.225075
13.145370
24.823658
31.551866
29.251730
27.076996
23.560640
14.498996
-1.819464
-20.640865
-38.366948
-48.012401
-51.941864
-57.863058
-64.797668
-67.703214
-66.255990
-59.674784
-51.415951
-42.112502
-38.395441
-38.020435
-39.862464
-40.409372
-32.991452
-25.433431
-21.958174
-18.719022
-9.287170
6.034676
18.811881
27.071613
38.829702
53.670640
54.504054
41.518647
26.340805
11.816073
-2.117649
-10.692085
-7.902040
3.177138
16.237548
29.740764
48.760169
55.776082
48.628169
32.514611
10.901666
-12.752512
-33.454942
-44.700921
-44.283014
-35.445172
-26.052021
-24.216891
-24.211190
-19.596216
-13.035410
-7.990229
-3.639258
0.600710
6.482905
14.703337
13.305316
8.938746
7.820629
9.155051
12.155400
17.073979
28.704566
41.156866
48.965992
56.212308
65.450957
69.037515
61.682598
48.946495
33.929755
20.724444
7.815539
-8.249418
-26.952916
-40.597734
-45.232208
-41.572448
-32.361100
-18.352675
-7.726205
0.366425
7.118634
11.403303
17.035594
17.981210
12.684026
8.497760
8.443159
10.538394
10.649696
8.296459
8.582664
9.254376
9.420579
7.250045
2.447869
-3.685129
-8.401503
-9.338418
-6.622174
-3.332320
-1.627392
-1.793594
-6.253465
-14.618498
-21.301704
-21.370705
-17.434941
-15.979017
-20.512089
-27.375298
-33.962503
-41.334220
-48.752138
-53.399812
-53.360211
-50.693167
-45.705887
-36.334636
-27.295791
-23.591331
-23.051922
-23.159923
-21.919702
-18.650549
-13.415465
-6.226149
1.602177
8.007880
11.206232
12.828959
16.444917
21.965606
24.027840
22.658619
22.767221
24.392048
24.925457
24.993259
25.930474
24.983960
21.644607
17.851947
13.530979
7.578884
1.733591
-1.440159
-1.839765
1.529290
7.925093
12.959174
16.799536
22.032821
28.710028
33.761510
35.791643
36.879761
36.759460
35.527641
33.037602
30.536762
29.857852
29.405745
26.542500
20.761108
14.591210
7.499698
0.027179
-5.701712
-10.032281
-12.072913
-10.335284
-6.690225
-5.058799
-4.577890
-3.484672
-4.715891
-9.967174
-16.906585
-21.566259
-24.644607
-26.681639
-26.511536
-24.409401
-20.714842
-14.940349
-6.957820
0.265396
4.775369
7.782618
10.519562
13.152405
14.426526
14.120822
12.006989
6.526502
-0.728514
-5.446989
-6.418103
-5.396286
-4.132365
-2.117833
1.889632
7.666525
11.165782
9.995164
6.687612
3.102555
-0.866208
-4.541566
-5.300877
-3.563849
-2.233027
-1.723918
-1.470713
-1.865819
-4.948368
-9.611042
-13.278300
-15.491134
-16.248946
-15.703836
-13.625102
-9.654238
-4.054048
2.032750
8.156749
14.220146
20.257144
25.494328
29.866299
33.394356
35.188985
34.618377
32.273240
28.751784
23.217596
14.432257
4.247994
-3.895635
-9.708528
-15.267016
-20.339496
-24.227858
-26.839999
-29.243937
-31.832678
-32.800192
-32.068480
-29.619840
-26.248086
-22.779429
-19.925783
-16.929634
-12.809668
-9.455613
-7.349879
-4.474932
0.394746
5.009721
8.549478
12.518542
17.294019
22.632605
28.912307
36.154423
41.835615
44.844963
46.445190
46.421190
43.901750
38.775869
32.572970
26.970682
22.313108
18.105841
12.958359
6.829862
-0.771659
-10.391612
-21.983797
-34.127991
-45.692275
-56.441446
-63.674861
-65.443089
-62.365039
-56.979052
-49.032224
-38.535956
-27.149273
-16.197597
-7.201352
-1.047353
3.519921
7.296382
10.083727
11.930557
13.453082
16.124926
19.476280
22.699832
26.075487
28.627628
29.971351
28.744032
24.238260
15.334718
4.366544
-4.430497
-10.325890
-15.273869
-20.023544
-22.963290
-24.763919
-26.629948
-28.603079
-30.602610
-32.994247
-35.927094
-37.610420
-37.141812
-34.753473
-30.794609
-26.315237
-21.595260
-16.378176
-9.758270
-2.858159
2.740832
6.828998
9.786446
11.783578
13.403905
15.161934
16.640358
18.292485
19.995313
20.869228
20.123117
17.925582
14.251724
8.523433
0.895212
-7.899128
-17.054074
-24.890199
-30.342185
-33.585837
-34.293847
-32.916225
-31.114395
-29.506369
-27.529636
-24.829593
-21.561640
-17.756978
-13.432108
-8.145123
-2.605834
2.459148
6.739617
9.969770
12.302608
14.120337
15.671963
16.467276
16.940385
18.107104
19.774231
20.969151
20.546145
19.538430
19.086923
18.379212
17.033991
15.574769
14.598554
13.838342
13.929845
15.174565
17.352901
19.229431
20.465752
21.549070
22.288282
22.512087
21.857477
20.847061
20.598358
20.815562
21.184569
20.804763
19.134037
16.424095
13.914855
12.095927
9.943393
7.034547
3.735995
0.951651
-0.895478
-2.371801
-3.564619
-4.342531
-4.815638
-5.270444
-5.298644
-4.094124
-2.477098
-0.876871
1.489267
4.255312
6.288445
7.669368
9.043391
9.876805
9.645502
9.037093
8.695088
8.263682
8.009878
7.910577
7.175266
5.459239
4.111019
4.275122
5.260338
6.302556
6.984167
6.974868
7.125771
6.684464
4.672333
2.454398
1.862189
1.436183
0.227765
-0.684849
-1.099155
-1.842567
-2.534977
-2.739880
-3.017083
-3.208186
-2.434773
-1.073650
0.231671
2.581610
6.265069
9.695925
13.072779
17.412050
22.524132
27.701916
32.905200
38.034082
41.812043
43.908478
44.946795
45.158299
44.363887
42.456457
39.249406
34.823436
28.724039
21.413523
13.853103
7.097895
1.013199
-4.277385
-8.266248
-11.215595
-13.360029
-14.674949
-15.272258
-15.517361
-15.705763
-15.917866
-15.421657
-13.603028
-10.772482
-6.865219
-1.838037
3.335846
7.264410
9.949753
11.684082
12.233991
12.008688
11.171075
10.084459
9.480550
9.634753
10.641870
12.161395
13.789821
14.804438
14.926841
14.621437
14.139030
13.270816
12.288001
11.377188
10.407573
9.605661
9.360857
9.441559
9.480561
9.822867
10.729782
11.444694
11.389194
10.553381
9.149659
7.177728
5.207898
3.976379
3.428570
3.734876
4.959496
6.912228
9.494070
12.099313
