EVENT_NAME: 202302060117
EVENT_ID: 13194
EVENT_DATE_YYYYMMDD: 2023/02/06
EVENT_TIME_HHMMSS: 01:17:32.00000
EVENT_LATITUDE_DEGREE: 37.288
EVENT_LONGITUDE_DEGREE: 37.043
EVENT_DEPTH_KM: 8.6
HYPOCENTER_REFERENCE: AFAD
MAGNITUDE_W: 7.7
MAGNITUDE_W_REFERENCE: AFAD
MAGNITUDE_L: 
MAGNITUDE_L_REFERENCE: 
FOCAL_MECHANISM: 
NETWORK: TK
STATION_CODE: 0604
STATION_NAME: 
STATION_LATITUDE_DEGREE: 38.96246
STATION_LONGITUDE_DEGREE: 33.52402
STATION_ELEVATION_M: 971.0
LOCATION: Kahramanmaras_Pazarck_Turkiye
SENSOR_DEPTH_M: 
VS30_M/S: 291
SITE_CLASSIFICATION_EC8: C
MORPHOLOGIC_CLASSIFICATION: 
EPICENTRAL_DISTANCE_KM: 359.70
EARTHQUAKE_BACKAZIMUTH_DEGREE: 
DATE_TIME_FIRST_SAMPLE_YYYYMMDD_HHMMSS: 2023/02/06 01:17:57.9765760
DATE_TIME_FIRST_SAMPLE_PRECISION: millisecond
SAMPLING_INTERVAL_S: 0.01
NDATA: 21001
DURATION_S: 
STREAM: HNZ
UNITS: cm/s^2
INSTRUMENT: sensor = CMG-5T/GURALP | digitizer = 
INSTRUMENT_ANALOG/DIGITAL: 
INSTRUMENTAL_FREQUENCY_HZ: 
INSTRUMENTAL_DAMPING: 
FULL_SCALE_G: 
N_BIT_DIGITAL_CONVERTER: 
PGA_CM/S^2: 2.383
TIME_PGA_S: 
BASELINE_CORRECTION: BASELINE REMOVED
FILTER_TYPE: BUTTERWORTH
FILTER_ORDER: 
LOW_CUT_FREQUENCY_HZ: 
HIGH_CUT_FREQUENCY_HZ: 
LATE/NORMAL_TRIGGERED: 
DATABASE_VERSION: 
HEADER_FORMAT: DYNA 1.2
DATA_TYPE: Acceleration
PROCESSING: Automatic Paolucci et al., 2011
DATA_TIMESTAMP_YYYYMMDD_HHMMSS: 
DATA_LICENSE: U (unknown license)
DATA_CITATION: Turkish Accelerometric Archive v 1.0 - Disaster And Emergency Management Presidency, Earthquake Department
DATA_CREATOR: AFAD
ORIGINAL_DATA_MEDIATOR_CITATION: : AFAD - Disaster And Emergency Management Presidency
ORIGINAL_DATA_MEDIATOR: AFAD PROCESS SERVICE
ORIGINAL_DATA_CREATOR_CITATION: AFAD PROCESS SERVICE
ORIGINAL_DATA_CREATOR: network: TK
USER1: GuestUser
USER2: 
USER3: 
USER4: 
USER5: 
[...]
-0.005888
-0.121753
-0.222859
-0.303556
-0.415024
-0.472799
-0.598397
-0.798412
-0.886017
-0.980843
-1.119629
-1.218852
-1.321214
-1.421379
-1.466908
-1.528765
-1.576806
-1.589365
-1.595645
-1.591562
-1.592190
-1.626415
-1.665036
-1.662524
-1.642742
-1.671001
-1.665348
-1.672570
-1.723751
-1.681675
-1.668801
-1.723436
-1.742903
-1.698943
-1.689209
-1.717468
-1.699256
-1.671310
-1.640538
-1.624210
-1.646817
-1.598461
-1.520275
-1.503319
-1.437380
-1.361706
-1.290742
-1.186495
-1.012855
-0.890710
-0.818490
-0.674993
-0.539661
-0.379208
-0.251725
-0.192065
-0.227546
-0.127067
0.016744
0.012034
0.042178
0.106234
0.186931
0.228065
0.218332
0.246592
0.337023
0.284900
0.168408
0.124449
0.067930
-0.042596
-0.121095
-0.195512
-0.302898
-0.375117
-0.415936
-0.449219
-0.493178
-0.543417
-0.566967
-0.545928
-0.543416
-0.566337
-0.592085
-0.530227
-0.499141
-0.478731
-0.397405
-0.349363
-0.374483
-0.381390
-0.318276
-0.268351
-0.249824
-0.305087
-0.268349
-0.128621
-0.074927
-0.098476
-0.061424
0.007970
0.034346
0.092749
0.123522
0.106880
0.058525
0.002634
0.011426
-0.001133
-0.076178
-0.141489
-0.121392
-0.163467
-0.245420
-0.227208
-0.208368
-0.206483
-0.218101
-0.268340
-0.342442
-0.407439
-0.455480
-0.515139
-0.550934
-0.614989
-0.708874
-0.668996
-0.668681
-0.700395
-0.708558
-0.712326
-0.727711
-0.701335
-0.584528
-0.545906
-0.495352
-0.424702
-0.331131
-0.241014
-0.178842
-0.082445
0.039386
0.097476
0.098733
0.160904
0.227472
0.236264
0.294982
0.329208
0.318218
0.369086
0.395148
0.392637
0.380391
0.384474
0.375682
0.309430
0.247259
0.165306
0.083353
0.011135
-0.112894
-0.227502
-0.345250
-0.439135
-0.483094
-0.525797
-0.624705
-0.728010
-0.731463
-0.744337
-0.832883
-0.944037
-1.047656
-1.107315
-1.141540
-1.203397
-1.296339
-1.346578
-1.391479
-1.480654
-1.514879
-1.512995
-1.518646
-1.589295
-1.646128
-1.647383
-1.574536
-1.475313
-1.516446
-1.515503
-1.400894
-1.277807
-1.160372
-1.105736
-1.032261
-0.866156
-0.738673
-0.695655
-0.562835
-0.324197
-0.128891
0.047890
0.258896
0.421232
0.543377
0.736799
0.912324
1.062729
1.171058
1.219728
1.318951
1.473752
1.534039
1.563555
1.661523
1.683503
1.762630
1.811928
1.737825
1.723696
1.749130
1.699519
1.571095
1.518658
1.492283
1.349729
1.241400
1.177974
1.023174
0.899774
0.779513
0.649205
0.550297
0.405231
0.200506
0.022156
-0.095906
-0.203920
-0.281791
-0.459827
-0.650736
-0.751528
-0.812443
-0.891570
-0.983884
-1.086561
-1.214357
-1.295368
-1.335559
-1.372924
-1.425047
-1.448282
-1.512337
-1.553156
-1.577961
-1.655204
-1.681893
-1.618466
-1.590834
-1.601195
-1.576075
-1.531801
-1.496319
-1.431007
-1.377942
-1.376057
-1.285312
-1.188600
-1.099111
-1.035683
-0.975082
-0.857647
-0.713522
-0.629998
-0.567199
-0.457928
-0.404862
-0.371264
-0.313488
-0.248176
-0.205158
-0.148953
-0.092747
-0.066057
0.006477
0.095652
0.170070
0.277771
0.352503
0.434456
0.538703
0.580151
0.587374
0.625996
0.685969
0.673096
0.646721
0.658967
0.670271
0.678749
0.663364
0.674668
0.741236
0.788964
0.781428
0.814398
0.874058
0.864011
0.864953
0.876257
0.845800
0.871548
0.895726
0.799644
0.728995
0.722088
0.690688
0.624750
0.587070
0.567917
0.553474
0.548764
0.520819
0.479686
0.469324
0.479687
0.478431
0.452998
0.428506
0.435101
0.438555
0.434474
0.421600
0.488482
0.557561
0.573890
0.627897
0.678451
0.690384
0.722098
0.766058
0.806249
0.844557
0.885063
0.896996
0.897624
0.956342
0.998732
1.027934
1.011606
1.005013
1.064987
1.131240
1.109261
1.070012
1.054312
0.996852
0.960114
0.917725
0.864974
0.814421
0.716141
0.570761
0.479388
0.417846
0.326787
0.221913
0.130226
0.036342
-0.021119
-0.064136
-0.181257
-0.297435
-0.348930
-0.423975
-0.524453
-0.600126
-0.700918
-0.787267
-0.828400
-0.845983
-0.857601
-0.853204
-0.897791
-0.951484
-0.973150
-1.021505
-1.055416
-1.088385
-1.137054
-1.179443
-1.186351
-1.213668
-1.276153
-1.261395
-1.192629
-1.165311
-1.162798
-1.157774
-1.145842
-1.091206
-1.023068
-1.000774
-0.967804
-0.891189
-0.825249
-0.728538
-0.624919
-0.575307
-0.486759
-0.424274
-0.370266
-0.252517
-0.170563
-0.132569
-0.053442
0.063051
0.121141
0.184569
0.253962
0.320216
0.398716
0.497311
0.604070
0.695443
0.801261
0.883214
0.987461
1.077893
1.096733
1.104269
1.131273
1.133472
1.152626
1.216996
1.206320
1.189051
1.227673
1.247455
1.285763
1.361750
1.378079
1.369915
1.402257
1.416387
1.389384
1.356729
1.338204
1.298326
1.281371
1.247460
1.162367
1.110872
1.067855
1.024838
0.981507
0.897670
0.825138
0.771759
0.687922
0.591840
0.499839
0.405641
0.303592
0.248329
0.188042
0.084738
0.005925
-0.069433
-0.127836
-0.179645
-0.239618
-0.298335
-0.336956
-0.346376
-0.384055
-0.400068
-0.393474
-0.403835
-0.382797
-0.347001
-0.320311
-0.260965
-0.178384
-0.158288
-0.155461
-0.119351
-0.068797
-0.017616
0.009702
0.012215
0.012529
0.031683
0.025090
-0.017927
-0.037081
-0.015414
-0.026090
-0.037393
-0.040533
-0.016355
0.046131
0.066541
0.043620
0.054924
0.113014
0.092291
0.073765
0.060264
0.040482
0.044879
0.033889
0.027296
0.064348
0.064348
-0.000335
-0.008498
-0.035815
-0.077576
-0.089508
-0.077576
-0.104265
-0.101125
-0.080714
-0.068154
-0.022624
-0.013518
-0.025763
-0.045859
-0.043974
-0.097353
-0.118705
-0.127182
-0.181817
-0.170513
-0.123727
-0.110225
-0.059043
-0.000011
0.031389
0.083513
0.148825
0.190586
0.226696
0.324664
0.336910
0.352610
0.411642
0.463452
0.546347
0.671318
0.730036
0.760180
0.871021
0.936019
0.997877
1.080144
1.116568
1.125046
1.201348
1.244366
1.267916
1.307166
1.305282
1.264777
1.250334
1.243426
1.191303
1.191618
1.194130
1.152055
1.095850
1.055345
0.984068
0.948901
0.903372
0.823617
0.808546
0.773379
0.670074
0.604136
0.625488
0.600682
0.581843
0.590007
0.604452
0.635538
0.613872
0.539142
0.519360
0.516849
0.445572
0.405695
0.366446
0.284807
0.232056
0.223893
0.155128
0.092015
0.080712
0.027961
-0.021964
-0.014742
-0.027930
-0.067493
-0.096380
-0.135001
-0.171110
-0.211615
-0.258714
-0.310523
-0.327165
-0.380544
-0.446483
-0.466264
-0.496407
-0.548530
-0.571137
-0.593117
-0.641472
-0.671301
-0.724680
-0.768639
-0.796584
-0.833949
-0.899574
-0.903970
-0.892352
-0.925635
-0.960802
-1.026113
-1.064420
-1.039614
-1.002876
-1.004759
-0.948240
-0.884812
-0.844306
-0.770516
-0.665955
-0.584316
-0.500164
-0.422293
-0.410046
-0.348189
-0.278481
-0.276283
-0.287586
-0.279422
-0.309879
-0.326834
-0.358234
-0.427312
-0.454316
-0.462793
-0.518056
-0.580541
-0.622302
-0.690439
-0.744446
-0.799081
-0.889511
-0.958590
-0.991873
-1.085758
-1.173676
-1.222659
-1.292680
-1.375889
-1.404776
-1.430523
-1.488298
-1.505254
-1.521267
-1.541362
-1.541048
-1.527860
-1.525661
-1.482957
-1.455639
-1.451243
-1.401945
-1.373057
-1.390326
-1.393466
-1.393466
-1.421097
-1.397861
-1.376823
-1.373996
-1.317790
-1.265039
-1.255932
-1.196586
-1.142893
-1.138810
-1.094850
-1.033935
-1.003477
-0.941933
-0.851502
-0.821671
-0.745056
-0.670638
-0.633272
-0.561367
-0.472191
-0.415986
-0.385214
-0.363233
-0.362605
-0.311423
-0.264009
-0.278453
-0.292268
-0.242028
-0.215652
-0.204348
-0.169494
-0.161644
-0.165411
-0.139663
-0.124277
-0.106065
-0.045463
-0.017517
0.013569
0.052819
0.037748
0.022049
0.050623
0.049681
0.021422
-0.034783
-0.091302
-0.101978
-0.086905
-0.079369
-0.099150
-0.089416
-0.086276
-0.085647
-0.078739
-0.096322
-0.122384
-0.130547
-0.140909
-0.210301
-0.258970
-0.272158
-0.304813
-0.350028
-0.382369
-0.432294
-0.444540
-0.427269
-0.457727
-0.439200
-0.428838
-0.456155
-0.440455
-0.388959
-0.378911
-0.378597
-0.354419
-0.378596
-0.430091
-0.450814
-0.510159
-0.593996
-0.637327
-0.695102
-0.753505
-0.810966
-0.871880
-0.943785
-1.011608
-1.123704
-1.205343
-1.234858
-1.319323
-1.400961
-1.410695
-1.403473
-1.424510
-1.392482
-1.379294
-1.388713
-1.357941
-1.320889
-1.320575
-1.331564
-1.332820
-1.343495
-1.347263
-1.356368
-1.370811
-1.336271
-1.289486
-1.254632
-1.155722
-1.073141
-1.042369
-0.994955
-0.903268
-0.825710
-0.781122
-0.730882
-0.704192
-0.653638
-0.643904
-0.670279
-0.636995
-0.609991
-0.638250
-0.658974
-0.613758
-0.590208
-0.581729
-0.539653
-0.514533
-0.490983
-0.457699
-0.447023
-0.431637
-0.434776
-0.482817
-0.496005
-0.472768
-0.495376
-0.515471
-0.505737
-0.486583
-0.466486
-0.424724
-0.386417
-0.381706
-0.339316
-0.314196
-0.315138
-0.303519
-0.327069
-0.360352
-0.360979
-0.409020
-0.463341
-0.495997
-0.558168
-0.649854
-0.711711
-0.749704
-0.828831
-0.919575
-1.002470
-1.071863
-1.121160
-1.159467
-1.214730
-1.256491
-1.309556
-1.359795
-1.349747
-1.321172
-1.306728
-1.276270
-1.223204
-1.159463
-1.066833
-0.963528
-0.874981
-0.787061
-0.683756
-0.586731
-0.491589
-0.397704
-0.347150
-0.266767
-0.170369
-0.132689
-0.121699
-0.099719
-0.100661
-0.101288
-0.090926
-0.125779
-0.155608
-0.159376
-0.138338
-0.127347
-0.100657
-0.092179
-0.078991
-0.042567
-0.037228
-0.040368
-0.033146
-0.037227
-0.044135
-0.022782
-0.034714
-0.037225
-0.003313
0.020237
0.010503
0.013958
0.014900
0.009563
0.016785
0.008935
-0.005508
-0.008648
-0.029057
-0.111952
-0.172552
-0.209290
-0.275542
-0.327037
-0.363461
-0.412444
-0.450437
-0.495652
-0.566929
-0.616854
-0.671488
-0.751243
-0.806192
-0.873073
-0.980459
-1.050794
-1.098207
-1.188638
-1.285348
-1.369185
-1.451451
-1.527752
-1.608135
-1.721173
-1.808778
-1.859017
-1.919931
-1.962949
-1.969228
-1.965774
-1.954155
-1.908311
-1.867492
-1.843627
-1.797784
-1.738438
-1.697932
-1.633248
-1.596196
-1.562284
-1.462119
-1.366978
-1.306062
-1.197105
-1.048584
-0.929579
-0.798328
-0.669903
-0.522952
-0.352452
-0.215863
-0.103138
0.037219
0.170354
0.267693
0.340227
0.370999
0.368487
0.408679
0.458291
0.440080
0.433800
0.454838
0.482784
0.503509
0.528001
0.544015
0.583893
0.647321
0.669929
0.684059
0.718913
0.727705
0.733358
0.759106
0.747802
0.750315
0.750943
0.716090
0.690971
0.710439
0.673074
0.605251
0.593319
0.559408
0.514193
0.501006
0.474003
0.423763
0.425334
0.380119
0.303190
0.267709
0.232228
0.184501
0.154986
0.129238
0.095327
0.108201
0.126728
0.121390
0.131752
0.145569
0.140231
0.176027
0.197065
0.184820
0.196752
0.208684
0.201149
0.197381
0.196126
0.181996
0.196755
0.198011
0.156250
0.127991
0.104755
0.035990
-0.013621
-0.036228
-0.104679
-0.169361
-0.176897
-0.175013
-0.180664
-0.169046
-0.175325
-0.163079
-0.137959
-0.142982
-0.133248
-0.083950
-0.057574
-0.032768
0.046359
0.099111
0.163795
0.254540
0.311060
0.361614
0.448277
0.511705
0.556921
0.636676
0.695080
0.743436
0.810946
0.864953
0.908599
0.995263
1.050527
1.068111
1.124945
1.194652
1.251172
1.318682
1.366095
1.379598
1.397810
1.410370
1.416651
1.436119
1.451819
1.440202
1.483219
1.524039
1.508968
1.527180
1.554812
1.534717
1.529693
1.538800
1.521844
1.518077
1.523415
1.501750
1.495784
1.513683
1.498297
1.508345
1.524988
1.524046
1.517139
1.517453
1.493276
1.447119
1.400648
1.331883
1.293262
1.298286
1.286041
1.238628
1.223242
1.188703
1.137522
1.089167
1.021972
0.951951
0.900142
0.832006
0.738121
0.671868
0.589288
0.523977
0.499485
0.475622
0.437315
0.406544
0.363213
0.316114
0.301670
0.261479
0.209042
0.192715
0.184551
0.152524
0.156920
0.165085
0.145931
0.141536
0.155038
0.170110
0.212186
0.257088
0.248925
0.274045
0.303247
0.292257
0.297282
0.321146
0.306389
0.313297
0.334335
0.320206
0.325858
0.332452
0.317381
0.297914
0.298228
0.263061
0.229464
0.214392
0.188017
0.174516
0.196496
0.204032
0.211254
0.254272
0.252389
0.256471
0.306711
0.337797
0.341251
0.370767
0.375478
0.359778
0.376107
0.364489
0.338428
0.371398
0.370142
0.338429
0.343767
0.323358
0.296355
0.293529
0.285052
0.240151
0.228219
0.212834
0.183319
0.180179
0.164480
0.137162
0.142815
0.149095
0.129628
0.138106
0.156632
0.152865
0.144387
0.141248
0.115814
0.119269
0.114873
0.093836
0.100744
0.129632
0.140623
0.179245
0.259314
0.290086
0.314892
0.366074
0.408778
0.415372
0.437353
0.438923
0.425422
0.447402
0.455252
0.448031
0.462789
0.464359
0.463418
0.504866
0.522764
0.542232
0.596868
0.636118
0.657470
0.702372
0.735028
0.747588
0.791862
0.829856
0.863140
0.906786
0.944152
0.962678
1.013860
1.055936
1.056564
1.082626
1.103037
1.106805
1.118109
1.136322
1.130042
1.136950
1.140719
1.129415
1.135068
1.133498
1.123765
1.130987
1.134755
1.119370
1.125336
1.122197
1.077924
1.059712
1.066935
1.033337
1.004764
0.992205
0.958608
0.922184
0.890157
0.833638
0.786225
0.782458
0.757966
0.713693
0.697366
0.645243
0.563918
0.521215
0.459986
0.387454
0.342866
0.288859
0.218525
0.165460
0.126525
0.095753
0.092614
0.087904
0.074089
0.090103
0.106117
0.113654
0.170801
0.224809
0.239881
0.294517
0.329685
0.319324
0.352294
0.405360
0.427026
0.464392
0.503328
0.521854
0.569896
0.617938
0.664410
0.726895
0.775879
0.786241
0.828317
0.893315
0.929739
0.983747
1.050314
1.100240
1.183764
1.271683
1.325063
1.419890
1.531045
1.593845
1.637805
1.714421
1.746449
1.782559
1.834368
1.842847
1.861687
1.912555
1.951805
1.992939
2.067356
2.111316
2.149310
2.205202
2.253872
2.277422
2.305054
2.314474
2.320755
2.348073
2.358435
2.349016
2.370682
2.383242
2.363461
2.372881
2.344622
2.290929
2.295639
2.307885
2.264868
2.214001
2.155598
2.105987
2.078984
2.033769
1.976622
1.954329
1.942711
1.897496
1.868295
1.829674
1.767189
1.743640
1.732964
1.661688
1.586957
1.521960
1.408294
1.294627
1.190067
1.068237
0.967131
0.887062
0.768686
0.676371
0.612630
0.515292
0.442759
0.390008
0.305229
0.238977
0.212915
0.149175
0.098936
0.073816
0.029229
-0.014730
-0.020067
-0.039849
-0.079412
-0.086633
-0.096053
-0.124626
-0.137186
-0.148489
-0.172038
-0.139696
-0.134358
-0.149743
-0.141579
-0.125251
-0.119598
-0.098874
-0.077522
-0.090710
-0.067473
-0.036387
-0.027909
-0.007813
0.016051
0.008516
0.031124
0.064722
0.090156
0.130976
0.166772
0.171482
0.203511
0.244330
0.240877
0.259089
0.258148
0.227690
0.222039
0.236797
0.208538
0.195978
0.206969
0.198805
0.192840
0.189072
0.165837
0.161127
0.184677
0.144172
0.126903
0.171177
0.196611
0.220789
0.260353
0.270715
0.298347
0.341051
0.331632
0.320642
0.350159
0.385327
0.405737
0.462256
0.494599
0.498995
0.539501
0.569645
0.583461
0.611407
0.611722
0.572159
0.553633
0.527886
0.467599
0.417046
0.363981
0.303694
0.270411
0.188772
0.081072
0.000375
-0.091625
-0.216595
-0.324610
-0.409702
-0.518345
-0.607519
-0.694810
-0.805650
-0.899535
-0.963275
-1.057160
-1.125611
-1.169256
-1.223891
-1.259686
-1.309611
-1.371154
-1.421393
-1.447768
-1.493611
-1.540396
-1.574621
-1.623604
-1.680437
-1.728478
-1.760192
-1.774949
-1.774635
-1.788764
-1.788136
-1.766155
-1.765841
-1.766155
-1.724393
-1.706180
-1.725020
-1.713716
-1.692677
-1.693619
-1.679489
-1.665672
-1.657194
-1.601616
-1.555144
-1.512755
-1.438651
-1.357639
-1.305202
-1.227016
-1.145691
-1.073471
-0.964514
-0.888840
-0.825413
-0.749111
-0.675950
-0.613464
-0.522718
-0.431973
-0.360067
-0.252052
-0.135559
-0.063968
0.026150
0.135735
0.219572
0.319738
0.418333
0.484587
0.551468
0.630596
0.664508
0.709410
0.758393
0.766872
0.777862
0.797644
0.803611
0.821195
0.868923
0.874575
0.902207
0.968461
0.999547
1.041309
1.111644
1.155604
1.179468
1.223742
1.276494
1.327676
1.384510
1.413398
1.444170
1.517960
1.557209
1.594261
1.630999
1.647956
1.640734
1.630373
1.592066
1.538687
1.525499
1.466782
1.397076
1.338673
1.280270
1.191409
1.125470
1.077115
1.016514
0.992023
0.970358
0.930167
0.921061
0.943983
0.945868
0.981036
1.003958
0.994852
1.010239
1.021857
0.977898
0.946499
0.926403
0.863604
0.809283
0.768150
0.700642
0.640983
0.603303
0.532027
0.457610
0.403289
0.321022
0.233418
0.188831
0.112844
0.045335
0.014250
-0.041955
-0.092508
-0.106637
-0.143374
-0.208371
-0.246992
-0.308849
-0.380126
-0.445123
-0.521424
-0.603376
-0.657069
-0.718298
-0.773247
-0.764141
-0.778898
-0.826939
-0.828195
-0.812181
-0.827566
-0.816576
-0.813121
-0.824111
-0.807155
-0.807782
-0.826307
-0.817515
-0.809665
-0.850484
-0.875289
-0.887535
-0.914852
-0.909200
-0.893813
-0.903861
-0.892557
-0.874658
-0.884392
-0.866180
-0.826616
-0.813427
-0.787993
-0.729903
-0.708237
-0.680291
-0.628795
-0.592685
-0.543074
-0.476506
-0.431604
-0.396436
-0.347138
-0.328612
-0.329553
-0.301607
-0.301921
-0.322016
-0.290302
-0.288104
-0.299721
-0.289673
-0.286847
-0.292498
-0.266436
-0.249794
-0.256073
-0.222161
-0.213997
-0.227184
-0.211798
-0.179770
-0.159360
-0.121366
-0.085256
-0.049774
0.024644
0.096549
0.140823
0.212729
0.282436
0.306928
0.355912
0.418712
0.454508
0.488106
0.532694
0.540858
0.566920
0.582935
0.554989
0.544942
0.537406
0.489993
0.417147
0.362826
0.274279
0.178825
0.087766
-0.040344
-0.162802
-0.265479
-0.387937
-0.505999
-0.580102
-0.667392
-0.751543
-0.790478
-0.845741
-0.908226
-0.934287
-0.982014
-1.039475
-1.058314
-1.101960
-1.156280
-1.172922
-1.216881
-1.270574
-1.282191
-1.303229
-1.346560
-1.348129
-1.338395
-1.349071
-1.332742
-1.323950
-1.328659
-1.290980
-1.258323
-1.255183
-1.220329
-1.178881
-1.148423
-1.092845
-1.054223
-1.043233
-0.997389
-0.950603
-0.946521
-0.925797
-0.872731
-0.857659
-0.852634
-0.834422
-0.856087
-0.879323
-0.879950
-0.903186
-0.920769
-0.910093
-0.921396
-0.946829
-0.952481
-0.964726
-0.976972
-0.960330
-0.955619
-0.937407
-0.890621
-0.867071
-0.850429
-0.781663
-0.732051
-0.704733
-0.648841
-0.608335
-0.592321
-0.550873
-0.483364
-0.440346
-0.359334
-0.269531
-0.204533
-0.117870
-0.015507
0.066133
0.153110
0.235064
0.292212
0.355953
0.397715
0.396774
0.418440
0.453608
0.446386
0.470564
0.503220
0.503535
0.513583
0.544669
0.552520
0.563824
0.583292
0.586118
0.595539
0.606215
0.587062
0.567280
0.584237
0.552837
0.519240
0.506367
0.463664
0.413111
0.379827
0.330844
0.271814
0.252032
0.209329
0.137738
0.087813
0.029096
-0.037470
-0.065730
-0.123505
-0.215505
-0.271710
-0.327601
-0.400448
-0.435615
-0.464502
-0.528871
-0.567178
-0.602659
-0.657294
-0.684926
-0.705649
-0.766564
-0.817745
-0.866414
-0.943028
-0.990128
-1.008967
-1.036284
-1.047902
-1.037539
-1.039737
-1.008651
-0.957469
-0.935489
-0.905973
-0.859501
-0.848511
-0.849766
-0.825588
-0.829984
-0.843799
-0.836577
-0.845682
-0.856358
-0.833749
-0.834063
-0.843482
-0.821188
-0.829352
-0.834061
-0.799835
-0.785391
-0.784763
-0.759956
-0.764038
-0.780679
-0.768119
-0.760583
-0.759326
-0.726670
-0.701550
-0.702492
-0.659160
-0.623678
-0.615828
-0.577520
-0.543294
-0.535443
-0.504043
-0.493995
-0.510322
-0.495564
-0.474526
-0.485829
-0.464791
-0.419889
-0.418319
-0.396025
-0.368393
-0.373730
-0.378754
-0.359913
-0.368705
-0.368704
-0.346724
-0.365878
-0.367447
-0.329453
-0.332279
-0.342326
-0.331650
-0.353629
-0.357711
-0.341697
-0.347976
-0.361478
-0.330705
-0.319401
-0.311865
