EVENT_NAME: 202302060117
EVENT_ID: 13194
EVENT_DATE_YYYYMMDD: 2023/02/06
EVENT_TIME_HHMMSS: 01:17:32.00000
EVENT_LATITUDE_DEGREE: 37.288
EVENT_LONGITUDE_DEGREE: 37.043
EVENT_DEPTH_KM: 8.6
HYPOCENTER_REFERENCE: AFAD
MAGNITUDE_W: 7.7
MAGNITUDE_W_REFERENCE: AFAD
MAGNITUDE_L: 
MAGNITUDE_L_REFERENCE: 
FOCAL_MECHANISM: 
NETWORK: TK
STATION_CODE: 8003
STATION_NAME: 
STATION_LATITUDE_DEGREE: 37.08417
STATION_LONGITUDE_DEGREE: 36.26936
STATION_ELEVATION_M: 122.0
LOCATION: Kahramanmaras_Pazarck_Turkiye
SENSOR_DEPTH_M: 
VS30_M/S: 350
SITE_CLASSIFICATION_EC8: unknown
MORPHOLOGIC_CLASSIFICATION: 
EPICENTRAL_DISTANCE_KM: 72.18
EARTHQUAKE_BACKAZIMUTH_DEGREE: 
DATE_TIME_FIRST_SAMPLE_YYYYMMDD_HHMMSS: 2023/02/06 01:17:19.5251700
DATE_TIME_FIRST_SAMPLE_PRECISION: millisecond
SAMPLING_INTERVAL_S: 0.01
NDATA: 10501
DURATION_S: 
STREAM: HNE
UNITS: cm/s^2
INSTRUMENT: sensor = GMS+/GEOSIG | digitizer = 
INSTRUMENT_ANALOG/DIGITAL: 
INSTRUMENTAL_FREQUENCY_HZ: 
INSTRUMENTAL_DAMPING: 
FULL_SCALE_G: 
N_BIT_DIGITAL_CONVERTER: 
PGA_CM/S^2: 185.738
TIME_PGA_S: 
BASELINE_CORRECTION: BASELINE REMOVED
FILTER_TYPE: BUTTERWORTH
FILTER_ORDER: 
LOW_CUT_FREQUENCY_HZ: 
HIGH_CUT_FREQUENCY_HZ: 
LATE/NORMAL_TRIGGERED: 
DATABASE_VERSION: 
HEADER_FORMAT: DYNA 1.2
DATA_TYPE: Acceleration
PROCESSING: Automatic Paolucci et al., 2011
DATA_TIMESTAMP_YYYYMMDD_HHMMSS: 
DATA_LICENSE: U (unknown license)
DATA_CITATION: Turkish Accelerometric Archive v 1.0 - Disaster And Emergency Management Presidency, Earthquake Department
DATA_CREATOR: AFAD
ORIGINAL_DATA_MEDIATOR_CITATION: : AFAD - Disaster And Emergency Management Presidency
ORIGINAL_DATA_MEDIATOR: AFAD PROCESS SERVICE
ORIGINAL_DATA_CREATOR_CITATION: AFAD PROCESS SERVICE
ORIGINAL_DATA_CREATOR: network: TK
USER1: GuestUser
USER2: 
USER3: 
USER4: 
USER5: 
[...]
-10.434671
-12.473339
-12.510755
-7.366841
3.611202
14.118285
14.552088
3.821325
-11.919062
-26.038497
-33.684776
-34.735547
-33.355669
-35.566823
-41.824642
-48.023234
-51.845469
-52.975469
-54.948676
-57.093329
-55.284056
-50.906196
-45.037529
-38.328772
-33.808041
-32.127352
-30.022722
-26.506513
-22.276722
-15.054404
-7.400351
-3.951682
-3.239668
-4.853876
-10.138864
-14.646366
-12.819428
-8.720040
-7.769819
-7.021697
-5.125141
-4.854213
-6.295934
-8.008074
-9.133398
-5.931768
3.187635
14.153208
25.500901
34.591729
37.910774
36.405929
29.206971
16.411573
4.795261
-0.257754
1.771283
9.376239
14.700173
11.408644
2.876038
-3.328789
-3.633506
-2.538854
-2.432358
-3.298434
-6.432544
-12.116276
-21.906679
-31.766180
-36.341742
-35.534133
-28.887461
-19.407760
-11.649281
-8.880684
-13.728742
-22.665288
-30.405602
-36.539772
-39.127590
-35.089507
-28.127476
-21.024912
-15.035712
-12.454148
-11.556659
-11.880600
-13.895629
-17.417832
-21.080829
-22.004574
-20.489876
-19.581478
-19.817876
-19.286660
-21.378841
-25.981678
-27.217404
-21.454982
-6.471058
9.134230
14.130337
5.762423
-8.739650
-16.502564
-17.531255
-16.792744
-15.073350
-13.521766
-8.651127
3.194800
16.887158
22.812714
16.354095
2.583008
-9.489976
-14.233088
-8.773036
3.309280
14.043661
19.480594
18.020169
9.523410
0.667392
-0.958245
5.153825
15.321391
22.603716
21.945194
14.083309
1.766922
-10.608171
-15.916279
-10.538573
-1.057313
4.858112
3.798509
-8.239925
-25.301232
-33.754869
-30.087995
-20.152661
-9.745588
-0.258354
9.030678
20.724121
30.513985
30.698930
22.137230
10.398827
4.432727
6.798424
14.157640
20.992124
22.174578
19.748336
15.229923
9.941298
4.674234
-0.003416
-3.232861
-6.092396
-7.521389
-9.945553
-15.356528
-19.271500
-16.777997
-7.541959
4.438528
17.801500
30.073447
35.971208
32.912691
24.051218
18.994046
22.392840
31.121812
41.406015
48.283880
45.458635
35.627188
29.357160
26.939231
24.967063
26.525661
33.407423
43.731630
51.802869
50.746903
37.297929
20.015559
11.562182
11.014841
14.923559
20.815606
22.582797
21.181340
20.446706
20.370585
18.397118
8.883628
-6.536206
-18.138750
-23.291516
-21.067652
-11.733681
-3.489176
-2.547787
-11.092343
-23.368725
-29.827344
-27.872081
-20.211275
-14.892536
-16.770408
-21.508585
-19.789710
-8.489815
3.888636
8.816165
0.111332
-19.848206
-39.131568
-48.675451
-44.625939
-32.116824
-18.244707
-8.993082
-11.353343
-22.507008
-34.999517
-42.872573
-42.526052
-37.390710
-33.852680
-35.249462
-37.595436
-34.680849
-28.938429
-27.521405
-33.264623
-43.826537
-52.756069
-53.612014
-46.500357
-39.617816
-39.249994
-39.535229
-32.337329
-18.694328
-1.669147
17.429500
32.056243
34.327644
30.489823
33.103598
40.074461
47.030517
55.432441
62.207438
61.681658
52.346109
42.209176
35.857061
32.430712
35.197491
40.965628
45.153857
48.630061
50.350495
48.366897
42.373782
34.152896
24.318333
11.929472
-2.096447
-15.234999
-23.435103
-24.308972
-19.150770
-12.037294
-6.549707
-4.305322
-6.847680
-12.652983
-17.562866
-19.467494
-24.072930
-37.147319
-53.616095
-66.638790
-73.550705
-71.710259
-59.663011
-45.556324
-38.124113
-33.001240
-24.395918
-11.720811
2.843587
13.549393
15.831704
11.301862
7.613927
10.143797
17.776029
26.520846
28.801339
21.093496
11.394271
8.629812
15.468712
29.548643
44.877539
54.490241
54.810525
43.177848
19.886527
0.865271
-4.094747
-1.761262
5.220251
11.054370
8.996738
-0.561172
-16.056599
-35.085907
-54.356281
-66.628766
-66.675534
-57.316365
-43.191234
-29.347952
-23.119506
-28.228371
-40.183160
-52.899330
-61.660532
-63.544119
-58.798169
-48.842572
-38.265352
-30.549475
-25.063965
-21.788042
-21.219419
-23.121709
-26.486493
-29.466820
-30.030007
-26.766032
-21.086736
-17.466620
-14.930255
-9.869726
-4.256671
-0.025840
3.695586
6.900593
7.747167
7.563501
7.541411
2.159010
-12.292928
-25.319520
-28.102683
-25.334866
-15.384725
2.765770
20.046042
28.537326
27.804771
22.861638
14.761804
8.634649
10.839549
16.434681
21.271030
26.692637
32.011895
37.145679
42.279723
45.384979
45.759814
41.860688
35.253221
28.351957
19.739082
12.243729
7.831561
8.151326
17.532315
32.966157
46.539021
53.933046
57.170264
59.412831
62.166361
69.155408
79.630799
88.856447
94.386637
93.132208
84.452313
71.322853
57.511243
47.741362
46.357308
52.676673
59.906264
64.867822
68.540411
67.553543
61.437298
55.015046
46.794161
32.823053
16.292712
2.136909
-9.200672
-19.342021
-30.051743
-39.036865
-41.450639
-36.697934
-27.990263
-24.025955
-29.387574
-38.227746
-46.498247
-50.499982
-45.113703
-33.569626
-23.619486
-20.561247
-26.506046
-37.349288
-45.630959
-47.117880
-45.350429
-45.035340
-43.842236
-39.618419
-31.136746
-19.411871
-12.950673
-14.557867
-20.135094
-25.185511
-26.283820
-28.071552
-36.480509
-55.001712
-75.518193
-84.168734
-78.808173
-60.219969
-38.348818
-21.542363
-7.355407
5.646487
22.058875
38.302673
46.159344
46.945392
43.728936
38.787361
38.349383
44.930334
49.566922
48.058700
48.348331
53.559526
56.803498
53.874865
43.754816
26.184364
10.318249
6.239104
12.152451
18.110479
16.441200
10.697202
9.256520
13.217451
20.215330
24.088720
18.539028
10.334249
7.704868
11.259523
17.817354
22.792420
24.172297
21.687088
18.273468
12.056693
-3.870728
-23.982230
-36.920500
-32.603687
-10.453026
14.661587
36.350641
50.656830
53.882359
53.768051
50.685895
41.033169
25.107827
5.249339
-8.633967
-12.076681
-12.944835
-15.316007
-18.731185
-19.005770
-10.752952
2.429481
16.642673
26.334085
27.396267
28.663665
40.489849
62.195788
86.077023
108.004023
120.349224
113.044801
89.907262
61.431233
33.841272
12.763433
1.172319
-2.050371
-2.745001
-13.882560
-37.478589
-60.526248
-75.820613
-84.046174
-86.483586
-84.897193
-81.291365
-75.764292
-68.042700
-59.223849
-48.880419
-35.962689
-25.410926
-22.161759
-18.856741
-6.266838
10.721974
22.708176
31.425978
39.503712
44.749715
49.508654
55.691121
60.094697
58.742335
51.403362
40.142673
28.343745
22.018905
23.016405
26.584048
25.539251
19.191553
14.807959
11.483959
1.520291
-15.411132
-34.037021
-50.287852
-61.948325
-67.324231
-67.496467
-68.793758
-74.492037
-77.587181
-72.197266
-58.924953
-45.395210
-35.224786
-24.720820
-13.280391
3.517492
13.991066
8.273304
-3.154416
-19.691771
-29.256436
-18.329567
3.729136
28.719060
48.211256
55.261088
55.134052
53.262674
52.087474
51.699371
49.299885
47.823615
50.478953
56.417498
63.526297
70.782904
77.566474
78.858290
76.657007
74.807970
69.625070
62.105299
58.858969
62.883025
71.199745
84.971332
98.919301
101.767387
96.419275
84.781143
64.344671
40.471730
25.305689
25.603374
36.534398
50.627058
59.082235
60.800330
56.717288
38.819009
8.097546
-21.639657
-40.744558
-49.631488
-51.270374
-51.490667
-57.904086
-71.500609
-85.268059
-86.310777
-68.561883
-44.189687
-28.204358
-18.596591
-7.547372
8.109870
32.370885
58.118293
73.921784
76.722333
59.920794
20.559449
-31.391288
-74.802933
-100.027967
-106.086284
-86.119752
-59.387304
-49.234544
-63.293973
-96.536744
-124.693259
-139.326775
-143.534245
-134.513554
-115.256968
-87.053454
-48.095289
-9.518463
18.493601
37.535879
49.182045
61.040960
72.008092
73.792948
67.475902
55.173543
42.578686
35.995378
42.069002
57.698449
70.342124
78.020074
79.117324
70.043102
55.770403
44.429705
40.115470
42.638586
46.851233
50.525381
55.732939
55.649284
45.951098
31.712430
15.581611
-3.519394
-28.332695
-55.873560
-77.942673
-89.948377
-92.630490
-91.437386
-90.606657
-87.275143
-76.331390
-52.879552
-20.669898
3.880759
15.521470
11.796128
-9.731109
-30.994162
-41.624135
-43.849836
-37.520081
-30.604289
-29.808110
-37.579597
-54.335677
-68.849959
-72.154736
-63.681116
-50.700523
-47.360177
-52.949353
-61.968765
-71.493165
-72.141816
-66.286396
-61.182226
-55.316157
-50.692297
-45.263677
-31.891873
-10.574807
12.536216
26.998785
34.979366
45.561262
59.135425
73.796458
85.015565
92.574282
98.067325
97.516088
86.893388
68.012147
43.563040
18.057457
2.292912
-0.857563
4.199070
9.378313
6.407857
-7.164507
-28.464967
-47.096571
-58.177761
-64.082036
-63.036739
-51.597609
-29.884657
-3.117140
24.445006
47.839955
56.208369
48.048010
31.304659
10.019266
-10.670999
-19.658979
-8.713927
14.805711
39.508332
63.085638
79.893652
80.962587
71.866544
66.297630
66.571935
68.283536
66.134726
56.071827
44.653458
40.303115
39.113109
34.775494
25.575284
11.648077
-2.222241
-10.251157
-7.343065
1.736334
3.755240
1.886980
9.802358
26.769091
41.561306
54.110165
66.101042
72.774211
78.107756
82.829288
82.181418
75.367695
60.486620
41.711365
30.963977
31.579617
36.421681
41.352846
47.847554
61.426653
79.617412
90.418552
92.097423
84.107211
64.157805
45.058878
36.990477
37.915760
44.123944
48.872232
48.573230
36.052406
6.822790
-25.307394
-51.390961
-69.856833
-78.417495
-78.166568
-71.533664
-63.403717
-53.684769
-36.938840
-11.127010
16.181083
35.826283
43.610738
38.947115
31.317981
27.364044
25.454481
26.986322
33.029294
38.883414
41.971526
45.330315
50.197837
56.292762
58.823931
51.908639
37.161345
22.446262
13.511275
9.420700
11.161395
19.508248
31.154933
41.799953
48.157244
51.804636
52.468853
44.725421
30.677682
15.422021
-1.991531
-16.832862
-25.380794
-34.179663
-49.128278
-70.797608
-96.204739
-119.261750
-133.354948
-133.739415
-116.968807
-91.651056
-72.768275
-64.082944
-63.471980
-64.870840
-60.590134
-47.716565
-27.530009
-5.149453
12.741273
22.531397
23.561627
13.940333
-3.630898
-20.539202
-32.452688
-41.753169
-49.350611
-52.273010
-49.596890
-42.311449
-35.766086
-37.151178
-48.013124
-61.314550
-68.200228
-68.986296
-65.803888
-62.219360
-62.574733
-65.061501
-65.880559
-59.790049
-45.424114
-27.051517
-9.013502
6.964813
21.108388
31.336220
32.106423
19.014110
-0.649033
-15.764678
-25.668080
-31.404285
-30.723183
-24.336799
-14.737864
1.468528
25.180653
49.298017
66.406843
73.106248
75.993559
77.384346
80.401022
84.557558
78.834082
74.030964
71.668105
65.038818
64.598242
69.145470
75.331573
79.045985
77.637774
74.589387
66.001450
50.187808
29.806927
11.670181
5.348199
10.463799
18.830395
26.871761
34.189414
38.053971
38.866516
43.415302
52.254935
53.272696
40.590297
21.548000
3.801945
-11.554506
-25.181681
-35.266141
-41.874387
-43.476125
-39.794704
-33.383382
-27.295990
-25.462298
-25.707009
-27.169252
-25.872240
-18.970736
-13.447560
-16.205785
-23.182902
-38.002931
-60.230503
-68.740769
-61.776921
-43.565640
-35.898080
-34.391436
-42.966904
-74.663016
-84.646427
-86.099059
-75.726535
-57.903088
-68.882449
-69.798660
-68.837788
-84.067472
-79.125137
-63.467635
-56.082962
-67.511462
-78.410554
-64.084363
-59.025652
-54.380491
-44.920013
-33.859105
-19.593959
5.851079
30.293413
29.751267
44.816758
35.531084
2.847334
2.018665
15.756482
-0.031443
-25.525336
4.797624
26.299384
27.848371
56.431405
58.340949
42.689662
49.296071
61.193172
84.976215
106.160799
107.520674
107.204527
95.138297
79.617674
80.545815
79.941585
57.432945
31.728639
20.670049
23.489820
32.636759
37.447391
45.193921
42.321917
27.325505
15.045746
7.261791
7.729104
6.455971
-1.405914
-12.160576
-29.998849
-47.347200
-48.151191
-44.587444
-20.382539
40.426525
105.250821
119.447648
41.384780
-59.439214
-137.249068
-171.068264
-135.371485
-89.158521
-52.864796
-40.795988
-39.881614
-38.587200
-61.108050
-67.427953
-50.632928
-39.393559
-42.018263
-42.355192
-38.686239
-53.128307
-89.072144
-117.487907
-95.999654
-48.824770
-3.536061
28.284721
30.808617
15.582050
-11.735414
-22.292392
-5.190840
8.639714
-1.853881
-26.980462
-45.011223
-52.559050
-37.340036
-9.715286
10.535173
20.784307
9.694285
-17.065718
-42.465315
-58.075559
-69.833963
-85.938545
-104.487024
-114.323405
-104.522891
-82.573550
-62.165412
-39.659389
-5.312105
31.710270
59.051094
75.623758
83.533422
76.403303
61.062958
63.028612
79.783634
91.762302
92.214029
84.944934
79.064038
83.182389
98.297755
110.083936
105.643973
88.382385
64.355920
43.128195
38.215195
47.392007
61.723134
75.937365
84.550740
87.480913
84.016638
72.928694
53.498304
28.890479
1.896166
-35.848643
-81.570145
-124.170276
-154.079964
-158.551099
-137.789157
-108.443704
-87.747744
-76.947902
-74.425825
-81.193308
-80.157623
-58.665214
-22.210173
25.041603
73.019949
111.014895
134.077081
131.001679
99.659111
57.078203
13.152736
-24.840670
-34.071533
-19.397252
-6.786568
-2.937337
-13.066217
-33.358778
-50.253314
-56.596077
-51.145376
-38.784589
-20.655655
-1.046304
10.558559
15.132543
17.765801
4.617118
-31.635843
-64.467142
-77.859746
-76.335697
-62.490596
-44.958090
-34.463475
-32.759667
-28.264652
-2.222149
38.711032
76.440755
110.748035
125.402833
114.552577
104.851534
104.164178
104.207550
103.657871
105.297517
102.852831
91.635783
79.465386
66.921963
56.875429
53.913545
52.777311
52.987973
55.552132
58.485162
54.994911
39.955897
24.246942
14.344579
5.150863
-3.255237
-8.470088
-16.628628
-35.672484
-61.576032
-88.638404
-108.309599
-117.299138
-129.155735
-147.532506
-165.855766
-179.069391
-185.737903
-178.247245
-150.156211
-115.196134
-79.095676
-41.652737
-8.219316
22.740855
50.396258
67.126861
66.963197
49.154538
18.871044
-10.635485
-31.099232
-39.946158
-42.713475
-54.554486
-71.849844
-86.522066
-98.805981
-99.930006
-91.158692
-83.083556
-76.176337
-65.062696
-46.147704
-27.137637
-15.231704
-8.282142
-3.086533
4.996136
15.716229
25.319580
31.881567
36.256050
41.424123
47.018735
50.370771
47.238219
37.632512
28.409182
20.193232
11.187588
5.856881
4.800395
5.614758
5.572926
0.823579
-9.775741
-23.235366
-33.825854
-38.927965
-37.148565
-32.117649
-32.898521
-43.081433
-58.414764
-69.981720
-72.274181
-65.611663
-56.228596
-52.791356
-57.364061
-65.492728
-72.852223
-76.010751
-70.119744
-56.292047
-38.463405
-19.821429
-3.668030
10.725701
20.643890
25.433482
30.916913
38.815407
45.761072
46.866635
40.442824
30.858677
25.972432
27.110986
29.323679
31.673011
31.428559
25.686120
20.330995
18.439095
16.499658
10.713058
1.513887
-4.698472
-3.696297
8.077154
28.269165
47.203899
56.691913
52.814867
45.745014
46.790310
55.679819
67.405473
75.394366
78.438837
76.476800
65.948396
44.171003
14.729936
-10.275594
-23.890560
-27.775919
-25.135647
-21.751400
-24.678215
-34.674874
-41.521067
-34.535138
-18.363036
-8.062468
-7.282395
-11.232955
-17.392062
-22.406372
-26.250687
-28.642640
-27.087679
-20.923395
-7.446385
11.175328
29.190224
44.957608
53.687359
54.138826
49.329213
39.358791
30.491084
25.710046
17.599302
2.328056
-20.701160
-50.385110
-80.635094
-104.875867
-119.366251
-119.820854
-103.460940
-75.613309
-40.021216
-1.670129
27.375552
45.869200
61.527481
79.000501
100.843078
125.442830
147.070838
161.032575
164.518651
158.121077
144.940703
128.115265
113.655534
101.245891
83.597768
63.241824
49.501130
41.394283
29.061272
8.448158
-19.048286
-51.144701
-82.195290
-104.731206
-110.874208
-97.690476
-77.155571
-62.568053
-52.211895
-43.270173
-33.848141
-20.567255
-7.355988
6.062314
24.052792
45.779512
67.090343
82.471712
91.068981
89.260207
74.270030
53.103610
30.196226
6.991927
-14.602070
-32.217982
-44.246805
-49.833643
-47.360403
-40.714250
-34.024456
-29.912600
-32.138301
-40.398151
-53.630219
-65.912316
-67.837985
-58.105010
-39.858661
-19.665612
-2.229738
14.695691
31.609171
50.269070
71.732905
89.672987
98.460927
96.320429
85.252747
70.785483
59.058510
56.613045
61.943473
66.892302
67.227393
58.819475
40.901194
20.798784
4.272079
-10.185314
-24.654138
-39.678085
-52.869629
-57.972001
-52.540523
-36.410763
-15.661550
-0.348760
7.853922
16.601338
33.125166
51.732332
66.654691
77.366991
77.381528
64.492614
48.696896
37.061621
24.855636
5.788142
-21.351382
-52.021411
-77.511667
-91.181185
-93.218294
-88.438834
-82.462103
-80.799598
-80.521656
-71.149239
-52.280226
-27.956867
-1.555363
18.261543
28.324423
30.704666
27.882278
23.787547
17.566096
5.961214
-1.534919
3.977347
18.296524
34.972576
42.960170
37.400348
21.887517
0.462109
-20.791852
-37.174645
-47.625638
-57.864141
-68.503985
-72.328298
-68.556997
-63.285796
-62.175297
-65.410717
-72.256390
-83.504091
-97.714705
-110.936123
-120.492735
-125.227015
-122.191636
-109.904363
-87.487440
-54.355610
-14.569824
23.463307
49.903256
57.865653
46.531969
24.079438
2.248013
-14.699516
-28.972734
-41.217684
-49.692362
-54.797851
-58.477213
-61.494687
-64.504368
-69.277873
-73.458068
-71.457605
-59.952233
-38.663742
-16.285784
1.589616
15.554470
19.456175
18.332669
22.970815
28.739732
29.974399
24.730195
11.664638
-3.938073
-12.987877
-11.692164
-7.488350
-10.899372
-21.616107
-28.393202
-27.644821
-23.800265
-18.891440
-19.775700
-28.454556
-34.281160
-25.516600
-2.668202
21.666847
38.584743
47.404114
51.090731
53.352001
54.209225
52.660739
47.081954
32.825361
17.066270
9.134767
5.481900
2.446762
1.120118
2.569094
1.794976
-3.184525
-6.723873
-5.173068
-3.352105
-5.876539
-8.140426
-9.193275
-10.491085
-10.842041
-10.076515
-6.633561
-0.742034
4.722175
8.790650
11.766282
14.533321
18.510877
23.883648
30.526423
37.633664
46.020002
54.713386
58.214528
55.352136
48.933001
40.907202
31.643868
22.269873
15.635131
13.678289
15.361835
18.244730
21.076191
18.277442
5.477627
-12.889793
-30.974586
-44.404597
-49.475017
-44.330842
-33.580096
-23.285503
-12.147703
2.668150
21.166215
38.412717
49.315167
54.101121
53.732761
48.456865
39.080272
28.845926
18.003203
4.249521
-8.822011
-14.192203
-10.100088
-2.793086
1.280325
2.576038
4.426096
8.439500
17.141197
26.827933
33.245490
39.463285
43.829974
45.221281
46.851056
48.907369
49.032308
46.268367
45.254743
50.591146
57.283018
58.388321
54.366584
47.731582
39.820340
30.287627
19.353726
10.859045
7.844169
11.977587
21.784855
29.422282
32.327257
30.727077
18.936461
0.290310
-12.752647
-14.355165
-11.288614
-11.680873
-16.282932
-24.167157
-31.146092
-33.315164
-29.763367
-21.404824
-12.564931
-9.556569
-16.117796
-27.476678
-36.224892
-35.884866
-23.671367
-5.820384
7.109035
8.823493
3.097939
-0.701696
1.392283
5.213979
7.349262
4.718583
-3.944168
-12.218825
-17.387697
-22.539683
-32.463607
-48.369207
-62.045478
-69.621879
-74.016123
-76.630177
-81.814895
-93.332494
-104.931661
-109.155238
-107.771204
-105.068328
-104.279683
-106.042477
-106.808802
-101.386936
-83.501924
-53.901379
-20.815527
7.349540
24.993747
34.943369
39.041717
36.330770
34.012591
35.271677
35.751199
34.150759
35.186963
43.873853
53.678264
55.664700
50.958734
40.187448
21.120213
-1.657028
-22.694083
-42.296700
-59.799093
-74.194661
-86.633658
-95.770225
-102.261835
-107.379013
-108.028702
-105.407654
