EVENT_NAME: 202302060117
EVENT_ID: 13194
EVENT_DATE_YYYYMMDD: 2023/02/06
EVENT_TIME_HHMMSS: 01:17:32.00000
EVENT_LATITUDE_DEGREE: 37.288
EVENT_LONGITUDE_DEGREE: 37.043
EVENT_DEPTH_KM: 8.6
HYPOCENTER_REFERENCE: AFAD
MAGNITUDE_W: 7.7
MAGNITUDE_W_REFERENCE: AFAD
MAGNITUDE_L: 
MAGNITUDE_L_REFERENCE: 
FOCAL_MECHANISM: 
NETWORK: TK
STATION_CODE: 4624
STATION_NAME: 
STATION_LATITUDE_DEGREE: 37.5361
STATION_LONGITUDE_DEGREE: 36.91765
STATION_ELEVATION_M: 466.0
LOCATION: Kahramanmaras_Pazarck_Turkiye
SENSOR_DEPTH_M: 
VS30_M/S: 280
SITE_CLASSIFICATION_EC8: C
MORPHOLOGIC_CLASSIFICATION: 
EPICENTRAL_DISTANCE_KM: 29.73
EARTHQUAKE_BACKAZIMUTH_DEGREE: 
DATE_TIME_FIRST_SAMPLE_YYYYMMDD_HHMMSS: 2023/02/06 01:17:07.3320300
DATE_TIME_FIRST_SAMPLE_PRECISION: millisecond
SAMPLING_INTERVAL_S: 0.01
NDATA: 10501
DURATION_S: 
STREAM: HNZ
UNITS: cm/s^2
INSTRUMENT: sensor = GMS+/GEOSIG | digitizer = 
INSTRUMENT_ANALOG/DIGITAL: 
INSTRUMENTAL_FREQUENCY_HZ: 
INSTRUMENTAL_DAMPING: 
FULL_SCALE_G: 
N_BIT_DIGITAL_CONVERTER: 
PGA_CM/S^2: 161.716
TIME_PGA_S: 
BASELINE_CORRECTION: BASELINE REMOVED
FILTER_TYPE: BUTTERWORTH
FILTER_ORDER: 
LOW_CUT_FREQUENCY_HZ: 
HIGH_CUT_FREQUENCY_HZ: 
LATE/NORMAL_TRIGGERED: 
DATABASE_VERSION: 
HEADER_FORMAT: DYNA 1.2
DATA_TYPE: Acceleration
PROCESSING: Automatic Paolucci et al., 2011
DATA_TIMESTAMP_YYYYMMDD_HHMMSS: 
DATA_LICENSE: U (unknown license)
DATA_CITATION: Turkish Accelerometric Archive v 1.0 - Disaster And Emergency Management Presidency, Earthquake Department
DATA_CREATOR: AFAD
ORIGINAL_DATA_MEDIATOR_CITATION: : AFAD - Disaster And Emergency Management Presidency
ORIGINAL_DATA_MEDIATOR: AFAD PROCESS SERVICE
ORIGINAL_DATA_CREATOR_CITATION: AFAD PROCESS SERVICE
ORIGINAL_DATA_CREATOR: network: TK
USER1: GuestUser
USER2: 
USER3: 
USER4: 
USER5: 
[...]
8.974790
17.583765
14.740612
-5.117859
-24.658115
-28.180301
-18.265212
-10.224089
-10.061727
-11.494340
-10.223029
-10.914265
-18.494026
-27.158318
-31.309143
-34.986151
-37.952954
-39.163205
-41.135876
-34.219548
-13.801523
7.517378
22.642112
33.788501
37.706068
22.392496
-9.115527
-33.081449
-36.520510
-26.996112
-16.683059
-9.078606
-2.994314
-1.214637
-3.304983
-6.090987
-8.915177
-9.951904
-12.622051
-17.701546
-15.835366
-5.712463
4.906856
9.044187
7.714182
4.296942
-1.355601
-9.379565
-20.162265
-24.677544
-20.392925
-17.939930
-17.937065
-14.933362
-4.624205
12.495807
26.357810
30.147571
25.437206
10.224424
-9.625735
-17.666844
-8.491055
11.291319
25.730785
29.028806
30.924080
37.777544
51.485764
63.423406
68.678777
68.413042
57.978691
43.099191
29.321887
15.014656
6.589610
11.343629
20.235752
13.723117
-3.343888
-11.088082
-11.005729
-9.940673
-7.593663
-6.589134
-11.865273
-21.428363
-27.460946
-33.424431
-41.119530
-42.498631
-40.346966
-38.118929
-32.994740
-26.965260
-18.752950
-10.043184
-7.700590
-8.020098
-8.399352
-12.367820
-19.617416
-28.038306
-32.654635
-28.610041
-16.015966
-0.095822
9.587294
12.623209
15.559892
16.302835
12.137724
1.700515
-15.619764
-28.581397
-20.973827
2.551543
19.434906
22.699936
19.713651
15.009001
8.776916
1.769163
0.255243
3.666782
4.755476
6.127058
9.754204
13.111452
22.124367
35.858564
44.731204
42.422134
30.571268
25.360850
29.212696
28.221169
18.784586
3.843002
-9.391907
-16.300688
-14.291376
-1.357524
15.977056
29.248347
32.985894
29.971814
23.987288
16.906281
10.956044
0.141393
-12.744129
-16.775980
-14.080621
-9.993945
-9.490508
-20.046430
-37.555041
-52.284135
-59.350854
-55.142347
-45.209075
-37.417069
-32.636553
-26.410429
-12.511279
1.127583
8.062094
15.281831
27.052702
45.764052
62.028389
59.829201
40.482472
14.651157
-6.278338
-10.737507
5.112499
25.685087
34.719562
33.253179
31.573007
38.245413
37.441179
39.881445
23.477628
-15.742127
16.692503
26.371983
-30.955414
-11.478008
21.305490
13.207232
13.490126
8.532722
-0.363543
-4.830246
-2.517265
-1.925507
-6.658471
-11.694845
-10.943589
-7.345796
-5.824069
14.105333
25.483954
15.488092
21.865141
29.518431
26.599685
34.535862
45.188952
42.525298
33.064298
13.683020
-13.548704
-21.656574
-13.579343
-3.453842
12.419803
20.761738
12.879347
0.922496
-10.209332
-23.539836
-30.146766
-21.421934
-9.904856
-6.915700
-6.664237
-3.855360
-5.863359
-15.294227
-28.630445
-45.645497
-55.671752
-51.230753
-37.056250
-18.270606
-3.959205
2.953487
10.061523
12.709345
2.164333
-14.562377
-28.388258
-28.526967
-10.259820
6.060626
3.183444
-10.565546
-22.772813
-30.236977
-35.188667
-37.991815
-31.320968
-15.800867
2.961398
20.213891
21.203874
5.786914
-7.396820
-7.100678
-0.040179
2.536986
3.237587
4.593582
5.818915
7.646908
-0.588247
-20.470877
-34.099335
-37.103803
-33.851762
-28.024121
-26.919321
-27.894743
-27.043217
-22.168145
-11.039680
3.419788
19.336036
31.006896
30.076934
14.684652
-1.911654
-3.017479
3.913136
6.680451
3.863535
-6.992679
-21.539676
-27.802674
-22.407027
-14.672690
-6.852630
0.838846
0.942500
-4.856292
-13.480321
-21.177757
-19.319630
-9.836795
-0.426175
3.639979
-1.743964
-14.035656
-23.198443
-21.863229
-13.460769
-4.569425
3.109841
9.263750
12.320706
15.280769
23.506587
34.775586
43.237273
45.127871
45.115929
52.578289
61.075304
54.325761
29.958758
3.435940
-8.813669
-5.914912
5.773872
18.662784
25.940709
28.089517
16.737665
-17.619493
-57.428401
-74.840118
-67.871577
-56.964175
-49.883414
-36.045310
-13.857485
0.898638
-3.580013
-15.458674
-11.382908
6.865795
14.217754
3.935107
-4.699312
-6.008535
-13.384378
-20.676057
-20.818663
-17.558049
-7.044974
1.199807
-0.833909
-4.822639
-4.062551
2.068499
6.621977
10.017671
22.380553
42.414641
53.696889
50.989334
51.125460
65.581811
79.904902
70.741076
48.533004
35.794771
21.963175
-0.627535
-18.887915
-21.376484
-4.579883
21.962171
50.958253
77.821120
87.764784
74.822633
45.324953
7.329226
-27.258866
-44.561741
-36.817273
-11.731218
5.264885
0.216302
-14.740089
-36.364463
-68.885581
-101.470343
-115.974738
-102.639285
-74.240669
-52.816822
-40.779430
-28.092098
-24.162062
-40.000105
-53.256315
-40.329737
-10.134826
17.513061
29.205482
20.862262
4.867579
-2.535021
-0.123588
0.840158
-6.065506
-9.361434
4.381595
33.367806
68.251268
95.970071
112.297790
107.763808
64.920811
9.624280
-23.840835
-34.763290
-18.888086
16.559332
42.599774
54.893038
70.615239
87.899944
87.991649
66.883694
33.391822
-0.023158
-15.619357
-17.312777
-18.320670
-9.214498
17.296124
45.125588
56.331204
57.388726
61.095621
66.281116
62.108471
33.000183
-16.470793
-60.560676
-87.585885
-102.059107
-103.671740
-86.925794
-51.217568
-8.600555
28.410666
52.741056
54.160175
33.038452
-3.813517
-45.130378
-76.746725
-94.964242
-93.415239
-69.352930
-37.778911
-21.529901
-26.131163
-35.297327
-29.361363
-0.432042
28.008396
29.211129
16.541215
21.083524
43.224590
57.815242
58.303093
50.367450
26.486732
-17.485477
-67.641460
-103.097177
-104.606422
-63.769339
-0.650922
52.509292
84.133706
103.576562
120.780739
131.823480
137.646445
141.617524
131.884806
110.575791
78.664607
27.004567
-25.438413
-59.829861
-78.044781
-84.853031
-85.443996
-86.291352
-83.596253
-60.196611
-25.833984
-7.515922
-4.467019
-4.472208
-6.963375
-14.565996
-23.012083
-38.064069
-61.260558
-65.683880
-41.225684
-14.814292
-5.103901
-2.704158
-0.271424
4.974856
8.645124
-6.889251
-21.504307
-5.974334
23.205923
44.491313
48.877502
42.457864
48.464225
56.539897
38.589941
11.720073
-1.295592
-1.563146
6.636695
7.928009
-5.626934
-15.897112
-12.109429
-0.277772
15.009837
15.156353
-13.123795
-50.073177
-65.164907
-46.601105
-19.397942
-2.493797
7.014236
-1.219102
-28.311590
-52.698336
-63.820293
-72.058826
-73.700552
-57.082412
-36.864148
-26.680978
-16.936297
0.599863
12.598031
9.634345
3.084564
2.710505
10.989575
16.434838
4.230168
-17.074951
-33.145227
-41.838613
-41.845620
-32.199391
-20.185897
-11.227533
-3.286161
3.978256
11.302679
22.273205
38.323752
55.266343
66.057629
62.791574
36.115753
-3.496510
-21.065387
1.885115
49.859842
92.177342
103.884570
90.358721
80.449101
84.216522
85.104936
71.304512
45.808817
18.616058
5.497265
16.622093
35.029255
35.420992
24.717521
17.121655
10.433157
4.731778
-0.052361
-7.042449
-17.563303
-31.089412
-37.550872
-19.014865
19.867984
44.812985
36.558087
10.575586
-12.135657
-29.868967
-48.656155
-50.926260
-21.769122
12.547007
29.069812
33.290269
31.813235
23.626396
2.106189
-27.892323
-48.393720
-57.035932
-67.556007
-85.600778
-96.202420
-77.977615
-30.136929
24.388365
58.147811
60.958507
45.466475
29.973923
22.646656
19.055371
8.804417
-8.162578
-18.642389
-20.918208
-28.449133
-47.099424
-65.943762
-65.488122
-42.966755
-19.072256
-12.324517
-20.869057
-26.005960
-13.780496
5.473770
5.989676
-18.961286
-50.498664
-73.221336
-85.693047
-94.014446
-92.440505
-62.189225
-12.032448
20.738841
17.869971
-2.344122
-14.033412
-8.234346
9.279994
24.751518
26.997738
14.905029
-5.801844
-27.623382
-40.742694
-42.847067
-43.888990
-41.981247
-28.695669
-7.760706
15.362283
35.384682
46.466908
50.652816
53.773674
55.418012
53.984360
50.857281
45.421904
30.284454
4.511327
-14.085192
-20.392870
-22.790001
-14.958771
9.056002
36.121748
35.785096
-1.603554
-41.193997
-49.374342
-29.153220
-6.609514
1.420958
6.263819
17.581914
21.428565
16.545974
20.490816
34.946648
40.895341
24.839092
0.325060
-9.770813
-2.745902
6.314031
7.150490
0.790339
-8.291140
-18.963179
-37.330842
-63.216449
-72.462362
-45.984211
-10.511335
5.678448
8.355363
-4.364426
-35.761788
-70.418459
-100.757787
-123.704120
-125.793686
-101.504339
-65.946520
-34.499008
-11.347185
4.109533
16.827518
21.669079
3.879400
-33.242209
-65.235739
-68.661811
-40.726362
-1.068885
25.058580
24.655687
5.700428
-15.207765
-28.379810
-33.534898
-48.269187
-84.844244
-117.692411
-118.382607
-93.177319
-63.400894
-42.363322
-33.581860
-40.788855
-63.512047
-81.851915
-83.159060
-84.608298
-101.601010
-124.056901
-134.498785
-129.975180
-121.033441
-117.968173
-120.824314
-117.293022
-99.027693
-77.809583
-64.291253
-49.441353
-30.222676
-24.633243
-37.783987
-52.392549
-59.259766
-61.873285
-65.903317
-69.403943
-60.963037
-41.336265
-23.258488
-9.449738
0.863315
6.057382
8.309057
15.353451
37.661288
77.324999
123.575906
152.359238
146.654221
116.828714
89.750513
82.333107
89.160074
96.484758
92.476805
84.019808
82.279629
82.210278
81.368118
80.587262
86.831570
107.758481
137.101353
154.453338
145.173396
119.229861
87.369332
51.708398
16.929896
-2.259153
5.843535
29.029387
44.014367
31.266003
-4.987201
-37.419739
-45.163933
-16.993394
32.594751
60.440840
53.760136
32.791936
5.256023
-19.766894
-32.898416
-39.935782
-50.445465
-74.589068
-106.806259
-130.723604
-136.078453
-123.855066
-105.578827
-72.829359
-10.235933
52.846117
74.684293
63.564415
46.454028
28.552648
6.900479
-14.391911
-23.816025
-17.504956
-10.508360
-21.261966
-40.562715
-43.967227
-27.082045
-7.172645
4.274815
14.944789
34.997581
71.993735
115.407197
138.489922
131.706609
117.091293
115.891432
111.072484
82.926377
41.659652
20.803671
38.013563
71.542595
93.620797
92.952941
84.633620
89.018510
105.596646
110.797726
80.447748
19.946766
-39.521378
-63.098167
-50.591893
-26.518154
-5.579554
2.595869
-3.003681
-17.583149
-32.996731
-43.183523
-50.480657
-52.210185
-48.591091
-35.995977
-12.427226
3.662806
7.347881
3.988829
-9.466364
-27.322804
-40.629149
-39.569029
-24.915773
-16.436941
-19.513366
-25.175780
-28.289092
-17.879665
8.438210
33.689478
45.148627
38.739380
16.020604
-3.162991
5.869667
42.250950
81.510983
95.449097
75.557375
45.365596
24.387005
11.288734
7.931500
15.199814
28.848547
45.111844
55.084601
50.103558
38.434531
36.146242
37.260913
33.171913
27.295450
17.311796
11.004898
14.669711
21.449141
29.834197
31.022122
16.701383
4.314877
10.841033
21.117719
15.654287
-2.432827
-13.318135
-1.159691
15.253233
3.171694
-31.679803
-53.649409
-54.135427
-51.076393
-52.865148
-59.714962
-64.322199
-56.930236
-25.355438
32.038733
75.078129
64.412584
14.140744
-31.818948
-50.277530
-54.366011
-63.416318
-74.602957
-77.612621
-78.131371
-79.174852
-69.923210
-48.351296
-28.398774
-17.673729
-9.884581
-5.603599
-15.235527
-45.185722
-87.095893
-121.830234
-128.942413
-112.432336
-100.356238
-99.257413
-97.313043
-74.189015
-17.527130
43.321175
66.950972
58.489558
52.225261
38.367169
-6.757370
-58.402863
-76.036422
-53.902110
-23.847473
-11.492904
-10.529418
-5.364186
5.395149
11.237337
2.563693
-7.625437
-4.270008
11.570647
46.786871
88.268179
110.486656
102.408660
80.475162
81.995851
96.771457
92.063950
70.870011
50.633577
42.494796
51.516543
60.593360
53.756795
44.491400
40.222381
41.357573
59.070895
91.384733
105.045935
83.866544
47.468908
13.028105
-7.813588
-23.312894
-43.347748
-55.258620
-55.936088
-50.704615
-38.141971
-6.213369
47.910843
96.940227
112.931028
91.023767
46.788414
-4.339362
-46.685163
-61.760528
-45.356436
0.238296
53.184721
79.073979
73.401693
54.306420
35.780558
20.708830
-3.468543
-44.251321
-83.645379
-91.888068
-60.817740
-24.081093
-13.260194
-21.870454
-14.152482
22.253479
56.518434
66.257660
39.197123
-17.733349
-79.598371
-127.221098
-143.734798
-127.239008
-76.777783
4.163051
80.090884
111.806476
98.231012
62.596055
26.235566
7.761138
11.027207
28.208784
43.234807
36.949729
20.037285
18.235282
27.915801
29.093595
16.042083
-10.801289
-36.744824
-44.973745
-40.662889
-16.017141
31.177243
70.157505
74.105984
46.636572
8.017142
-37.858646
-88.391293
-128.607517
-141.490181
-122.069664
-87.642614
-47.774206
-9.220223
6.676802
-3.685334
-22.286528
-36.230344
-42.716482
-50.880721
-62.825103
-65.549023
-54.245475
-34.326463
-12.304371
12.151228
26.432236
25.268483
36.603203
68.794690
91.127465
76.709833
37.130040
-6.586297
-55.377719
-101.718492
-111.052725
-66.703840
6.960376
70.990318
85.192357
43.375963
-14.504480
-51.779871
-70.613039
-90.394879
-99.761064
-80.832807
-51.865560
-42.560406
-59.043193
-76.145008
-60.477878
-14.371662
25.508696
33.432144
18.653694
16.230066
31.329344
48.089317
67.929879
88.219319
103.715002
98.037781
70.293535
41.931041
20.066901
7.586878
13.664675
43.499547
79.634571
109.713106
117.122993
72.966609
-3.158893
-61.401972
-81.907785
-70.183673
-46.906901
-35.636863
-28.842885
-22.016437
-16.866791
-6.393201
9.683323
36.213688
61.416638
61.203116
38.057801
28.043495
41.273742
44.169382
16.680487
-17.524966
-13.842489
26.379723
58.759542
44.602457
-7.244356
-57.176160
-86.154824
-84.533865
-60.829256
-33.963531
-13.089872
5.951383
39.823829
83.454716
116.983228
123.024398
93.584387
53.165544
35.310143
45.057681
65.467654
83.251373
92.017508
85.702297
70.581993
53.290288
30.680874
7.256049
-16.258656
-41.183381
-50.458128
-38.976899
-33.854788
-45.945419
-50.620715
-27.027546
22.583198
76.419588
117.480072
147.045045
161.716485
152.325881
121.217900
77.074764
17.415691
-54.864987
-102.345621
-91.970742
-41.039078
13.548301
45.388062
44.844894
23.939298
-0.935292
-5.354197
27.056015
72.930777
96.695653
74.668898
22.557382
-14.280301
-26.873323
-24.167314
-7.385000
11.714184
37.413031
72.856813
89.139593
79.360376
55.626427
17.355346
-16.287711
-22.791773
-1.284800
29.764487
38.779740
18.506939
-11.367145
-32.850984
-39.686770
-36.677871
-29.943121
-15.530930
12.956786
50.272455
79.006691
76.746457
48.007559
34.257531
46.190497
46.425594
30.448055
20.332959
19.744851
29.080398
33.346054
19.904629
-5.173879
-42.805412
-85.435659
-108.559933
-91.507720
-30.509269
37.559025
58.799736
26.587222
-28.805943
-60.349555
-39.110663
5.506563
37.867419
48.691435
33.092898
-11.182719
-58.444628
-76.081824
-62.456730
-29.894294
-5.232440
-5.143073
-13.289648
-21.177234
-31.218297
-45.811532
-69.146737
-92.910040
-95.551613
-67.087536
-20.786754
31.641693
76.275024
93.327757
92.599374
86.762136
66.179172
37.371436
8.681894
-17.425555
-14.438476
31.403815
80.635039
81.701393
40.620662
-1.120660
-34.856973
-72.387456
-107.967082
-130.448950
-142.311505
-135.528698
-107.266980
-86.622177
-77.106092
-46.091873
10.323493
62.497887
76.487955
38.560027
-22.725454
-78.950136
-108.687841
-89.409417
-48.489728
-24.504829
-24.240898
-37.509317
-33.947632
-5.868271
8.708613
-12.015146
-46.787673
-66.976050
-65.640316
-64.795544
-69.333163
-55.232434
-28.314235
-1.000411
22.983189
26.445643
5.907879
-26.938210
-50.207174
-60.287981
-71.444747
-66.498759
-36.574526
-7.698457
-3.108610
-18.618827
-30.044712
-32.401319
-29.787528
-13.930507
13.841028
36.459029
42.491106
40.006173
41.507639
52.145662
54.616062
24.498576
-22.871397
-60.613331
-67.709145
-28.936957
22.606461
40.210161
25.701090
15.279208
22.467513
34.171364
44.265692
42.902437
21.286896
-17.062376
-62.542537
-101.066113
-121.072653
-115.310474
-84.702792
-37.474898
17.016367
56.179245
49.077457
-2.403863
-63.978465
-100.263881
-93.497698
-51.886247
6.424645
49.174139
49.412873
20.608774
-3.639256
9.047297
56.121667
104.288362
132.169001
126.810775
99.799593
78.795545
64.724443
44.360723
15.714303
-7.800142
-10.415219
9.615492
37.629392
52.388113
45.370490
34.511418
37.973093
41.053947
20.256415
-16.021987
-26.894827
-1.895534
8.916014
-21.165624
-65.101205
-94.563816
-99.120398
-88.704997
-75.755299
-65.789815
-71.823957
-93.498466
-105.297378
-87.100888
-42.092971
0.905901
18.376080
24.281910
39.731874
63.283740
59.568546
28.187809
2.232844
-18.584431
-16.064935
-16.635378
-45.656644
-54.781245
-37.052856
-7.779862
16.661969
24.895320
37.634346
56.000464
47.948445
11.205318
-20.397521
-19.197386
13.587671
45.905405
49.694387
26.530888
-14.722849
-70.954544
-101.074888
-81.739315
-46.847541
-30.555929
-49.386758
-73.335016
-70.157787
-53.372616
-37.470396
-12.859197
32.620199
79.485456
103.724148
98.377872
61.258081
13.077633
-33.071171
-68.630276
-68.170479
-42.355515
-15.735271
9.247916
38.137753
69.727358
81.254566
71.896174
58.816346
38.585108
27.077656
43.291337
66.156636
78.066743
88.362911
101.513409
104.886243
83.893365
44.739332
17.100032
25.286885
58.969700
88.862501
98.721479
83.074106
45.660778
-1.977016
-34.875058
-33.661415
-11.639582
11.042061
21.895172
26.835445
34.350798
30.919530
6.417967
-29.264268
-52.432962
-51.148143
-35.789617
-19.440336
-12.898594
-21.856164
-28.035517
-18.366948
-17.683491
-35.827235
-59.266347
-80.601599
-89.767763
-94.020677
-105.284467
-117.127020
-119.374265
-100.068826
-66.162610
-37.208611
-15.996475
-6.245300
-9.336011
-13.307077
-11.063974
-3.748123
-3.780587
-12.405135
-18.911275
-27.383599
-32.808066
-36.442212
-47.309077
-54.224352
-52.544166
-47.337890
-39.388205
-32.229774
-34.556768
-36.000031
-18.928077
6.556982
24.207180
35.966621
54.071673
73.612463
64.468379
17.095549
-33.091088
-55.394755
-54.370223
-40.288976
-14.656629
10.160306
19.556639
13.608480
1.007924
-5.773051
-12.045920
-29.425166
-41.907787
-32.304160
-17.906776
-17.772988
-19.262231
-14.981249
-10.776898
-6.493578
-5.905196
-7.727461
-11.681901
-13.653014
-3.733249
0.969077
-5.931131
-1.743406
22.762328
51.041970
58.607458
40.390460
6.303200
-15.754207
-6.385410
20.191973
47.365523
54.818791
41.518680
24.510642
2.550908
-27.112504
-51.254548
-47.389974
-9.987282
41.191681
78.175887
95.429939
107.833345
115.629247
107.523715
81.359377
56.306327
43.919300
24.093300
-7.713457
-25.453521
-14.948240
7.278810
21.313298
29.724850
33.236400
32.345663
37.812226
42.232704
40.872306
42.101535
33.989509
13.266270
8.513563
28.775468
53.983874
76.131954
94.293635
99.729545
90.502856
71.991281
45.457293
13.228154
-13.952916
-30.734436
-35.034887
-21.916860
-4.835553
-2.051873
-17.462599
-37.316394
-44.012425
-43.400405
-37.216103
-22.025128
-6.025235
11.631717
31.470720
39.766675
28.907864
18.043597
17.652393
6.681622
-21.714902
-42.349820
-39.886434
-33.517697
-37.649298
-44.071534
-54.990352
-70.724748
-74.978960
-68.570479
-58.911261
-37.120102
-7.573053
7.229050
0.904487
-12.589410
-24.032440
-31.323340
-36.988092
-54.738546
-81.913382
-88.909964
-67.846935
-36.336819
-4.571871
14.666289
0.871320
-51.533734
-114.781501
-149.390894
-137.603918
-93.788336
-44.931438
-3.994084
25.393988
44.225610
49.888558
42.235023
24.024519
-9.770502
-46.709493
-69.172138
-74.024596
-55.252720
-19.155103
13.383954
39.917436
70.583825
99.620431
105.844218
76.400310
32.245225
7.705476
2.701313
-4.230846
-22.484472
-37.330202
-31.519186
-11.915793
3.170756
