EVENT_NAME: 202302060117
EVENT_ID: 13194
EVENT_DATE_YYYYMMDD: 2023/02/06
EVENT_TIME_HHMMSS: 01:17:32.00000
EVENT_LATITUDE_DEGREE: 37.288
EVENT_LONGITUDE_DEGREE: 37.043
EVENT_DEPTH_KM: 8.6
HYPOCENTER_REFERENCE: AFAD
MAGNITUDE_W: 7.7
MAGNITUDE_W_REFERENCE: AFAD
MAGNITUDE_L: 
MAGNITUDE_L_REFERENCE: 
FOCAL_MECHANISM: 
NETWORK: TK
STATION_CODE: 4617
STATION_NAME: 
STATION_LATITUDE_DEGREE: 37.58551
STATION_LONGITUDE_DEGREE: 36.8303
STATION_ELEVATION_M: 544.0
LOCATION: Kahramanmaras_Pazarck_Turkiye
SENSOR_DEPTH_M: 
VS30_M/S: 574
SITE_CLASSIFICATION_EC8: B
MORPHOLOGIC_CLASSIFICATION: 
EPICENTRAL_DISTANCE_KM: 38.04
EARTHQUAKE_BACKAZIMUTH_DEGREE: 
DATE_TIME_FIRST_SAMPLE_YYYYMMDD_HHMMSS: 2023/02/06 01:17:08.7199070
DATE_TIME_FIRST_SAMPLE_PRECISION: millisecond
SAMPLING_INTERVAL_S: 0.01
NDATA: 10501
DURATION_S: 
STREAM: HNE
UNITS: cm/s^2
INSTRUMENT: sensor = GMS+/GEOSIG | digitizer = 
INSTRUMENT_ANALOG/DIGITAL: 
INSTRUMENTAL_FREQUENCY_HZ: 
INSTRUMENTAL_DAMPING: 
FULL_SCALE_G: 
N_BIT_DIGITAL_CONVERTER: 
PGA_CM/S^2: 115.156
TIME_PGA_S: 
BASELINE_CORRECTION: BASELINE REMOVED
FILTER_TYPE: BUTTERWORTH
FILTER_ORDER: 
LOW_CUT_FREQUENCY_HZ: 
HIGH_CUT_FREQUENCY_HZ: 
LATE/NORMAL_TRIGGERED: 
DATABASE_VERSION: 
HEADER_FORMAT: DYNA 1.2
DATA_TYPE: Acceleration
PROCESSING: Automatic Paolucci et al., 2011
DATA_TIMESTAMP_YYYYMMDD_HHMMSS: 
DATA_LICENSE: U (unknown license)
DATA_CITATION: Turkish Accelerometric Archive v 1.0 - Disaster And Emergency Management Presidency, Earthquake Department
DATA_CREATOR: AFAD
ORIGINAL_DATA_MEDIATOR_CITATION: : AFAD - Disaster And Emergency Management Presidency
ORIGINAL_DATA_MEDIATOR: AFAD PROCESS SERVICE
ORIGINAL_DATA_CREATOR_CITATION: AFAD PROCESS SERVICE
ORIGINAL_DATA_CREATOR: network: TK
USER1: GuestUser
USER2: 
USER3: 
USER4: 
USER5: 
[...]
-1.376143
-1.731261
-3.234813
2.058204
4.115031
5.524776
9.071373
11.393683
17.753046
19.473474
14.448508
4.899424
-4.720836
-10.552901
-13.498424
-11.577456
-9.886381
-11.833617
-15.019945
-17.230066
-16.725352
-13.796484
-12.716124
-17.241037
-25.665325
-33.459677
-38.995087
-37.327392
-26.780310
-19.791529
-23.911203
-25.964424
-19.790794
-12.973980
-8.720295
-6.180559
1.258919
4.390926
-5.123609
-16.302996
-17.318964
-14.887291
-21.979490
-19.043089
-5.185524
0.128274
1.732845
-0.254655
-4.193271
-8.167475
-11.879314
-14.696513
-22.565677
-29.071061
-31.962552
-31.442512
-29.700264
-27.435882
-19.390105
-11.662804
-5.140046
-0.792326
3.363167
5.427787
2.856589
0.033416
-6.792001
-11.984777
-14.303740
-15.518430
-18.213018
-24.901018
-26.248969
-25.282387
-22.363650
-15.492284
-16.613198
-19.763938
-18.962309
-21.729632
-20.390024
-14.667611
-10.244039
-11.921895
-20.832469
-22.586437
-22.614767
-26.724570
-19.854243
-10.907591
-14.001442
-19.564907
-24.977966
-26.879483
-21.910137
-14.589892
-5.302425
4.483797
8.244182
0.451389
1.401346
8.625996
1.629911
-3.290108
-2.426915
-4.649764
-9.308976
-10.918513
-4.118064
2.868119
3.525057
0.874890
-0.000283
-1.551113
-8.170015
-12.799094
-14.339273
-16.587320
-18.044114
-20.384638
-19.705100
-13.240271
-10.159958
-15.398193
-15.344436
-7.122537
-4.523833
-0.488873
5.822173
8.883263
15.821650
18.847671
17.985486
19.675781
18.380823
13.337154
3.680266
-5.013402
-7.059090
-9.939931
-13.373039
-14.482783
-14.455003
-12.689895
-14.795588
-17.290415
-16.291622
-15.989787
-15.616775
-16.838998
-13.830901
-5.731092
-4.432528
-0.095457
13.422590
16.688897
12.601953
11.337128
6.167732
-0.298686
-8.313841
-11.385352
0.466285
8.265542
6.739910
7.642328
7.159405
6.791818
6.231224
1.868147
-1.333248
-4.130704
-7.672395
-11.747909
-14.894233
-15.496650
-21.789543
-27.256374
-23.530278
-18.895774
-10.401638
1.771852
5.852011
1.622715
1.303704
4.732106
10.588040
19.190499
20.041484
20.875064
21.244439
14.548905
10.397279
8.295482
8.556274
12.894903
17.320034
21.307457
21.369007
15.984522
9.339903
6.840141
12.959479
19.988784
22.337071
20.983406
22.740461
31.592557
38.906827
45.196313
49.065801
44.784031
30.275978
17.484730
17.338726
19.049282
22.627571
22.493255
18.262660
15.750689
7.288214
10.807275
22.240945
27.574485
32.564872
27.579910
20.254440
20.995802
18.844129
6.792961
-2.350625
-6.484847
-13.146351
-15.739109
-17.631534
-13.127173
-0.920953
0.325138
0.615804
8.844977
12.208437
12.590540
11.995916
9.618245
10.130752
12.330972
12.080021
13.112843
12.426781
8.884310
6.114650
-4.410382
-5.850551
-0.630270
-5.898118
-8.877412
-13.120476
-20.015252
-22.459163
-16.963268
-7.492664
-1.034849
0.731038
-2.590629
-6.850059
-10.975448
-15.482957
-19.553535
-14.812786
-11.764684
-19.881407
-21.371711
-20.728801
-22.579922
-21.355391
-23.397182
-25.360003
-30.133254
-37.089075
-33.079312
-27.242602
-26.049243
-22.559536
-19.266473
-18.033110
-19.341836
-21.203608
-18.079394
-12.083706
-9.750485
-5.763842
-1.110115
-1.799034
2.724809
5.911367
0.562211
-1.033039
2.511479
-0.039977
-1.873434
-2.352461
-9.782618
-4.125927
-2.262107
-13.648010
-16.696661
-20.397070
-29.432853
-39.195726
-37.390354
-27.145901
-19.443018
-15.112182
-17.053443
-19.911685
-21.505896
-19.464654
-16.074438
-16.809337
-24.276641
-35.451092
-39.619084
-40.789353
-38.610695
-35.813269
-38.771781
-37.738699
-40.353798
-46.979714
-46.948037
-44.135025
-40.586091
-38.908785
-41.035520
-40.199602
-32.230456
-25.690294
-19.537187
-13.196786
-9.390682
-0.918366
7.724098
12.541739
14.729489
16.374844
13.451660
5.611590
6.662076
11.416593
11.021731
6.013910
-0.523425
0.311454
4.713986
5.373262
11.133860
17.357625
10.434794
5.767789
6.232239
2.849266
3.177598
3.872721
-3.116350
-11.791834
-12.807022
-12.683907
-8.907936
0.921927
6.131038
8.019016
6.354408
2.708031
1.735705
0.416588
-1.617410
1.710462
6.222356
6.318195
2.884568
5.166094
15.681485
17.866637
20.919415
25.790308
14.188018
-2.090873
-6.973746
-9.328817
-17.596466
-14.256385
-7.090182
-10.589791
-8.349308
-4.983250
-6.369646
-7.915800
-8.837991
-7.479160
-9.852935
-17.097877
-16.667457
-3.812597
5.633070
7.749644
6.077502
6.021897
10.035296
10.089053
9.449749
10.238130
10.280197
5.022479
0.476006
0.771347
-0.501011
-4.411833
-15.401589
-17.866023
-8.079022
-4.107445
-1.396262
3.235385
7.942624
9.067924
6.332033
9.821480
14.799138
12.883594
14.203200
21.829712
22.153627
23.747029
31.137151
32.240111
30.828257
28.430324
25.589487
23.653681
25.590236
28.233360
26.850600
28.422960
28.501135
28.313048
26.084224
15.984173
4.065486
-0.909345
2.970534
-5.010072
-22.502859
-34.359981
-40.007350
-38.964917
-31.620253
-21.672196
-15.634166
-8.948274
-14.726567
-18.325147
-2.858060
3.472209
1.570173
-2.618340
-6.614884
-6.403708
-0.073439
11.748844
23.904669
28.332918
19.640808
21.463325
31.523082
37.512536
36.176015
26.858385
26.175959
23.804523
19.130763
29.302221
49.356289
65.401360
64.483585
44.693150
26.969689
27.730275
25.783299
17.503441
22.383166
31.486458
27.091949
14.268491
10.578992
13.237182
12.474748
2.830069
2.144527
11.803462
2.702738
-0.204600
6.334004
3.346398
0.925605
-6.282190
-11.922806
-20.113823
-36.302576
-44.952862
-47.623292
-54.807968
-63.366557
-70.387320
-75.031725
-66.090529
-57.796673
-61.551374
-59.899005
-50.429960
-37.450411
-22.450647
-8.347602
5.027314
13.844861
16.869064
20.434624
25.000809
20.888928
8.646050
-0.217246
-10.155463
-16.943993
-12.767719
-11.998302
-11.936232
-12.239916
-21.079574
-26.616022
-26.147156
-25.464501
-22.623175
-20.857548
-21.996125
-19.385213
-14.535361
-8.603835
-3.102485
-5.536526
-6.344419
1.002582
2.285820
0.493407
-1.534357
-16.336468
-39.081762
-64.232248
-77.480947
-71.757235
-63.265697
-57.337548
-49.037199
-32.636506
-21.419742
-9.311195
10.468299
21.030188
29.646155
31.931059
21.565004
3.805696
-12.760759
-17.474003
-8.734646
5.195913
12.213009
17.131440
17.715383
17.365201
19.116541
30.570213
51.834021
61.942355
66.086677
56.741771
46.525343
50.325473
48.290176
48.693841
52.309535
47.881516
47.153112
48.098912
44.419284
48.356571
46.454016
43.252881
48.373151
43.234147
38.648449
39.276813
37.266713
27.901805
14.890794
6.658993
-2.687472
0.154634
18.342530
31.246226
42.493903
50.944138
49.124449
52.816775
68.559475
78.796654
76.890722
84.203174
97.299618
94.268891
83.167694
79.814075
83.256244
83.462225
82.110378
81.385610
70.231940
46.781895
25.936803
12.313779
1.416239
-4.608313
-5.595966
-5.220876
-8.474225
-15.948283
-21.344976
-22.000646
-18.689659
-6.979336
0.905125
-3.637971
0.898081
10.855490
16.626999
27.625557
31.984188
27.008319
17.803427
12.225675
17.013183
10.441299
3.084137
4.670525
-3.041740
-7.725371
-0.161724
9.714638
16.235577
23.041222
17.439571
3.299609
2.904227
9.468547
22.611230
30.861704
32.254045
29.589591
15.429626
4.733407
-1.124635
-7.727171
-22.556038
-32.207471
-42.039442
-60.060077
-64.821898
-72.511823
-71.395356
-54.855168
-51.955134
-47.125024
-25.274920
-17.547099
-18.046128
1.108883
10.218410
14.250253
25.776140
14.252560
7.279075
25.124337
29.965098
27.768225
21.969151
-5.274545
-22.376381
-20.452035
-25.416995
-26.511152
-20.122955
-19.715913
-10.276482
-0.344270
7.662801
32.490885
50.052740
52.296340
52.652987
47.388515
46.393589
57.563334
57.983104
49.327622
49.839350
41.012161
19.291391
-1.112615
-20.991111
-41.458500
-55.341033
-53.437988
-51.337520
-52.286467
-47.860556
-52.653549
-52.132470
-44.354774
-40.455412
-22.739255
-4.682802
-10.519283
-25.370490
-28.686702
-35.674214
-46.151709
-46.005475
-44.342715
-49.673168
-57.030590
-47.880540
-29.174927
-11.968694
8.541527
33.880834
55.576896
62.851941
56.657500
45.991674
40.606150
23.657577
-1.499143
-8.805131
0.673266
10.616388
11.947683
17.338632
26.274114
25.444660
13.793793
-0.436828
-11.331510
-29.727770
-53.305880
-62.899644
-62.431298
-64.291511
-65.949625
-65.269567
-65.377646
-72.227741
-77.053725
-68.596476
-62.251659
-70.184727
-77.153796
-69.685743
-52.093495
-25.120508
-0.125653
22.703516
47.276508
54.181643
56.650982
66.138991
65.442018
50.558340
39.296087
25.788140
-5.511313
-26.053255
-36.303973
-47.978737
-52.880833
-59.390892
-61.882861
-54.595866
-48.882545
-53.123532
-58.166941
-56.763950
-48.941313
-36.135289
-42.478318
-65.833028
-66.733398
-52.967792
-53.921155
-53.066014
-49.116258
-55.280826
-55.453327
-52.317683
-48.550284
-35.994416
-16.636526
-1.798857
2.936957
11.146128
20.453857
25.103428
26.420436
32.348066
39.510372
37.823683
36.898895
36.877319
37.394242
39.704862
38.444453
41.721670
56.524530
61.443481
56.321362
57.561998
53.829638
39.376135
10.908673
-16.373988
-29.609179
-47.821003
-63.305005
-61.740698
-51.411301
-45.731490
-43.654141
-39.273430
-44.301773
-54.572752
-63.801023
-63.640501
-54.420573
-46.165423
-28.240153
-13.992157
-9.332975
0.496628
11.519086
10.667551
5.264623
7.271835
10.250059
12.478073
6.283632
2.132526
6.854832
5.543768
1.624115
-2.386197
-4.436301
0.790215
6.159343
6.092567
8.248886
8.787370
8.031690
12.111849
10.558682
10.019908
22.166121
37.061978
40.138914
34.168913
35.261741
42.312347
42.529238
39.586832
34.594597
21.196012
13.042661
14.899727
18.360600
24.290567
31.938899
38.338526
38.788170
32.769851
23.079713
10.022204
-2.487455
-11.837297
-14.433173
-13.091487
-14.487235
-6.479904
-1.411327
-12.487327
-23.750360
-26.418451
-19.491495
-17.769508
-6.950449
6.861656
5.255496
8.759750
1.541044
-5.823911
-1.197459
4.548072
18.379141
22.235640
20.420107
18.385330
15.611513
18.681175
22.532480
25.810476
10.275819
-4.834376
-8.649863
-18.480275
-25.902379
-35.826568
-29.607220
-23.268638
-28.362702
-10.881634
-0.936175
6.119367
16.240170
11.476011
20.119514
43.040381
66.965771
75.069996
75.499896
78.519164
70.913923
58.759627
40.877707
25.854534
10.895783
-13.225242
-28.323229
-38.608235
-46.939787
-42.662983
-27.668674
-2.963721
21.761235
28.602208
22.747544
33.283975
44.764144
46.026601
57.000742
61.000633
59.656838
60.915399
59.689279
61.365547
58.055309
45.828018
34.136887
22.987113
10.047798
7.353211
11.579100
8.369652
6.595422
15.665724
29.725128
44.250556
48.284996
42.398640
40.889633
27.065549
8.363282
0.238246
-1.248161
-1.446899
-19.817961
-21.353205
-5.411003
5.855637
25.891262
32.695867
34.811402
48.315682
56.846706
58.732346
59.352137
53.051191
37.707205
9.300788
-20.844256
-37.170945
-33.863075
-24.170629
-31.275297
-25.673936
-8.281450
1.895203
9.883831
7.908541
3.045670
-1.429107
-4.174090
-8.205444
-2.115459
14.655662
14.377955
8.170786
4.115533
7.269101
11.867238
4.686458
13.311777
19.706469
12.296054
15.558465
24.609024
34.054430
33.785295
32.552941
42.223047
47.083290
29.756494
14.402896
28.422036
39.305518
36.890700
36.375306
33.189237
29.086967
21.262482
24.493201
43.761471
48.227646
38.902742
23.115331
11.519536
0.630049
-16.540106
-16.099295
-18.731798
-26.997109
-28.593658
-27.914380
-31.517116
-32.999107
-14.176338
-7.151450
-7.018464
-9.628886
-20.449275
-26.253284
-39.424313
-47.272176
-52.620034
-59.972520
-57.343684
-53.420943
-60.417548
-66.349104
-62.809781
-63.687811
-59.845339
-45.965954
-33.313713
-27.919128
-28.857944
-29.457244
-31.540857
-24.549219
-12.700180
-12.358080
-8.068288
-8.575110
-15.850186
-18.604001
-27.590427
-32.141576
-39.764481
-52.643011
-48.373480
-40.752424
-39.956510
-31.677462
-22.626123
-26.594353
-24.545059
-12.031014
-1.710969
12.716526
20.227701
29.992102
42.393927
36.300796
38.508548
52.728229
53.809888
54.482671
62.596767
56.657938
44.373238
19.082997
-19.138491
-27.023761
-26.425791
-42.501284
-48.097479
-38.018239
-31.517562
-29.812720
-23.926654
-13.416719
-4.573714
4.642577
23.321434
42.426571
55.150768
55.336227
46.904145
31.557820
19.923319
23.569407
11.336661
-7.749543
-18.700594
-27.783655
-27.629108
-26.154420
-15.992314
-2.045390
3.667411
13.034887
32.008322
50.979937
59.847620
60.224008
49.556623
36.601203
37.595060
43.843502
40.569112
33.722394
25.599696
15.733176
5.105795
-8.093548
-19.282027
-24.915110
-21.613474
-23.704621
-18.775280
-6.526718
-8.942055
3.507307
25.344423
31.806135
26.828707
16.662414
13.781832
15.815021
15.044015
29.960913
62.282002
79.897369
90.702921
98.415155
89.268971
82.623573
68.991977
46.848565
28.324759
-2.890269
-21.085988
-24.761459
-35.696405
-40.633570
-46.075982
-41.691634
-28.234632
-25.794907
-20.259787
-10.712032
-14.883141
-24.808369
-28.172119
-30.464845
-27.179316
-13.846742
8.896704
37.390372
52.104911
46.356752
28.064919
8.556073
-2.676827
-4.963579
19.719294
59.101655
80.088290
89.097027
93.927136
98.385518
87.495512
71.966830
70.866179
58.169747
38.819359
20.257367
6.541606
-1.489135
-9.342713
-13.821387
-19.846719
-14.031310
-7.740006
-16.425621
-27.665015
-29.042579
-20.651311
-17.340064
-21.695348
-23.539196
-21.656154
-20.387982
-19.410490
-24.574951
-4.879882
31.349156
45.843152
63.022369
84.475288
106.356564
115.156187
104.170327
92.424126
83.199492
76.989465
69.184982
58.081707
41.196257
28.294868
16.510222
4.991837
-7.962285
-12.053645
2.959367
-10.124379
-37.946318
-33.844857
-12.211919
3.890300
15.233311
31.953259
54.063910
55.063482
35.826613
28.513092
25.067775
32.817676
31.573892
8.453752
6.417936
-2.908527
-24.097552
-20.723961
-3.211981
13.361457
22.187837
24.384419
15.137965
16.324570
23.469471
4.726681
3.670969
15.800817
3.826540
-6.444439
-9.901446
-15.074999
-28.588921
-48.523526
-56.755327
-61.138406
-58.129270
-40.448181
-25.354381
-4.389306
13.808201
10.351454
-1.386175
-15.553413
-27.823046
-31.017168
-20.597112
-14.071237
-30.835895
-43.713385
-40.881930
-43.504822
-55.088408
-62.860160
-60.303799
-59.361895
-61.933353
-62.508754
-56.418770
-40.438122
-25.838141
-14.938294
-11.354551
-12.255181
-8.865485
-5.130816
1.544165
1.485442
4.049596
10.974215
-1.555186
-15.004946
-20.188889
-15.097193
-17.958552
-33.423591
-28.352676
-24.845565
-28.126968
-30.372417
-38.134817
-44.558373
-51.563810
-63.562505
-72.291762
-68.576836
-74.276419
-89.728209
-100.968642
-97.566477
-70.152404
-35.042186
-18.421990
-25.469768
-13.866989
7.259661
15.545723
28.279532
28.567599
22.585908
21.912055
27.733959
34.602727
33.943681
32.902516
19.856436
1.763065
-5.538766
3.327358
17.868631
21.866704
11.742754
-1.606735
-1.796640
-1.154509
4.608687
5.055473
-6.526035
-12.340176
-15.783155
-10.837708
2.257957
23.576576
30.457813
24.330132
23.990600
8.193578
-2.005185
5.152965
12.236821
19.934249
15.617930
-5.778390
-29.696017
-52.304154
-68.711890
-72.194874
-67.769482
-53.932180
-33.235445
-13.886387
-11.238847
-18.992675
-13.079333
-11.991700
-9.967603
2.109252
5.679228
7.172099
-3.926501
-23.872796
-37.712726
-45.875429
-38.254373
-21.074896
-10.927077
-15.988930
-20.927653
-18.511047
-24.091656
-38.473722
-45.032878
-28.295266
-19.003642
-18.090054
-3.893752
1.892304
9.041362
17.028431
17.506389
22.714981
31.153526
27.793413
18.356289
22.858052
16.222006
10.382927
21.142759
27.524723
38.163243
36.600724
22.181771
24.330556
26.721705
7.797856
1.558216
10.385894
-6.702694
-15.583395
-8.732291
-9.878922
-4.936073
-14.698946
-28.643303
-23.744615
-20.992908
-17.181868
0.605725
10.960319
-0.586899
-9.551246
-8.060453
-8.754828
-1.947364
16.080255
30.618151
38.637432
44.570516
54.177238
64.179068
63.664452
60.720487
55.424324
33.556266
-0.182667
-26.834611
-38.420795
-43.354063
-52.005649
-60.871024
-57.327544
-66.235261
-92.857852
-93.328047
-85.049258
-83.413775
-60.092605
-46.948882
-51.590950
-33.503065
-24.720587
-25.181170
4.101414
18.690745
-1.166970
-22.604073
-25.235018
-9.479589
8.858973
25.141990
35.233440
41.240817
37.843298
29.956988
27.571005
21.708287
27.635137
45.368959
57.188384
62.156950
69.451738
71.969134
61.103026
55.029378
57.767576
61.614984
51.555975
36.581119
46.050164
62.229534
60.432705
56.863738
54.243963
46.989409
48.543586
53.518906
64.025984
76.722386
81.389361
74.676164
46.506136
22.126901
17.027901
17.147120
13.704140
12.343201
21.801856
23.360448
17.175878
23.058827
42.925344
62.785885
68.753259
78.647284
84.701420
68.286670
60.877554
60.646865
52.854592
48.876751
41.864041
26.490181
10.285583
8.802553
9.913045
4.057342
13.109459
19.042284
19.163061
25.840380
11.792895
2.917130
26.627432
43.116186
49.377617
56.902819
48.794927
42.312663
39.987206
26.009338
10.593915
-1.335162
-13.300867
-43.401750
-73.277155
-76.235147
-64.388186
-43.513511
-22.070203
2.545910
17.513203
6.964012
-8.645457
-15.120448
-12.065852
-4.253087
0.064241
-6.584014
-12.097344
-7.923148
-8.249951
-12.662384
-13.253112
-9.969401
-10.169177
-18.232908
-22.956024
-16.376377
-5.239622
1.623432
10.714515
10.462785
-10.743125
-22.241508
-20.432499
-26.836832
-30.090960
-22.966061
-28.358598
-43.723366
-50.424615
-52.380682
-48.118945
-44.226857
-50.280763
-52.820789
-54.185625
-58.501424
-54.282289
-47.440536
-39.368523
-30.357708
-18.719861
-13.878062
-19.706490
-12.182067
-12.301056
-22.261093
-24.367306
-27.717548
-25.899967
-20.367185
-16.946057
-17.836296
-13.966289
-11.393043
-16.916503
-24.766445
-35.923493
-36.312121
-37.485248
-45.694708
-54.090163
-63.396104
-63.908641
-58.315593
-48.967860
-30.646443
-10.213113
-8.730633
-10.906724
-13.748340
-28.177424
-31.282705
-40.082099
-48.040364
-45.642462
-53.330049
-57.628184
-60.811655
-61.046760
-60.083815
-56.236927
-43.733792
-36.741115
-24.689976
-18.064611
-15.846987
-2.324263
2.379339
1.823681
7.210993
9.086762
3.457836
-3.215098
-12.273221
-21.596826
-24.933300
-34.314574
-50.940775
-61.604523
-69.383549
-80.760620
-83.547945
-76.627223
-68.308170
-58.931602
-54.616612
-46.107929
-40.098213
-47.341077
-46.874809
-40.813399
-41.290868
-47.789757
-52.940450
-52.349494
-45.799980
-40.618924
-44.090477
-35.191623
-21.300029
-17.990600
-11.645784
-4.782990
-3.237906
-6.623996
-11.008634
-10.547820
-8.736993
-11.847729
-17.256632
-23.828776
-25.088405
-19.996450
-27.529994
-36.216129
-33.288300
-27.786430
-28.595103
-35.165688
-35.308316
-36.753160
-37.288297
-34.934295
-30.987396
-20.732553
-9.476305
4.615571
13.236474
21.793214
32.163654
33.749782
36.412907
37.250644
33.963266
32.351650
30.053728
27.504351
26.486305
32.536805
40.713764
41.749704
46.451488
50.451120
44.321361
44.026249
44.929188
36.532434
29.071884
24.585937
22.284638
20.982926
20.564165
22.094442
27.433697
30.968085
25.755307
26.863461
25.973222
18.267451
23.204325
29.523944
31.038896
36.881840
38.806706
32.032982
25.677485
16.317512
5.243590
-0.768493
-9.480345
