EVENT_NAME: 202302060117
EVENT_ID: 13194
EVENT_DATE_YYYYMMDD: 2023/02/06
EVENT_TIME_HHMMSS: 01:17:32.00000
EVENT_LATITUDE_DEGREE: 37.288
EVENT_LONGITUDE_DEGREE: 37.043
EVENT_DEPTH_KM: 8.6
HYPOCENTER_REFERENCE: AFAD
MAGNITUDE_W: 7.7
MAGNITUDE_W_REFERENCE: AFAD
MAGNITUDE_L: 
MAGNITUDE_L_REFERENCE: 
FOCAL_MECHANISM: 
NETWORK: TK
STATION_CODE: 2710
STATION_NAME: 
STATION_LATITUDE_DEGREE: 37.43291
STATION_LONGITUDE_DEGREE: 37.68658
STATION_ELEVATION_M: 534.0
LOCATION: Kahramanmaras_Pazarck_Turkiye
SENSOR_DEPTH_M: 
VS30_M/S: None
SITE_CLASSIFICATION_EC8: unknown
MORPHOLOGIC_CLASSIFICATION: 
EPICENTRAL_DISTANCE_KM: 59.12
EARTHQUAKE_BACKAZIMUTH_DEGREE: 
DATE_TIME_FIRST_SAMPLE_YYYYMMDD_HHMMSS: 2023/02/06 01:17:17.2933160
DATE_TIME_FIRST_SAMPLE_PRECISION: millisecond
SAMPLING_INTERVAL_S: 0.01
NDATA: 2989
DURATION_S: 
STREAM: HNZ
UNITS: cm/s^2
INSTRUMENT: sensor = ACEBOX/SARA | digitizer = 
INSTRUMENT_ANALOG/DIGITAL: 
INSTRUMENTAL_FREQUENCY_HZ: 
INSTRUMENTAL_DAMPING: 
FULL_SCALE_G: 
N_BIT_DIGITAL_CONVERTER: 
PGA_CM/S^2: 3.959
TIME_PGA_S: 
BASELINE_CORRECTION: BASELINE REMOVED
FILTER_TYPE: BUTTERWORTH
FILTER_ORDER: 
LOW_CUT_FREQUENCY_HZ: 
HIGH_CUT_FREQUENCY_HZ: 
LATE/NORMAL_TRIGGERED: 
DATABASE_VERSION: 
HEADER_FORMAT: DYNA 1.2
DATA_TYPE: Acceleration
PROCESSING: Automatic Paolucci et al., 2011
DATA_TIMESTAMP_YYYYMMDD_HHMMSS: 
DATA_LICENSE: U (unknown license)
DATA_CITATION: Turkish Accelerometric Archive v 1.0 - Disaster And Emergency Management Presidency, Earthquake Department
DATA_CREATOR: AFAD
ORIGINAL_DATA_MEDIATOR_CITATION: : AFAD - Disaster And Emergency Management Presidency
ORIGINAL_DATA_MEDIATOR: AFAD PROCESS SERVICE
ORIGINAL_DATA_CREATOR_CITATION: AFAD PROCESS SERVICE
ORIGINAL_DATA_CREATOR: network: TK
USER1: GuestUser
USER2: 
USER3: 
USER4: 
USER5: 
[...]
-0.001446
-0.000983
-0.000753
-0.000524
-0.000763
-0.001469
-0.001239
-0.000309
-0.000781
-0.000084
0.000145
-0.001262
-0.001033
-0.001739
-0.002211
-0.000579
-0.000116
-0.001056
0.000108
-0.000130
-0.001070
-0.000139
-0.000611
-0.000148
0.000081
-0.001326
-0.000863
-0.000868
-0.001340
-0.000877
-0.000648
-0.000185
-0.000657
-0.001363
-0.001835
-0.001606
-0.001377
-0.001615
-0.000217
-0.000923
-0.001863
-0.000465
-0.001638
-0.001643
-0.000244
-0.000950
-0.001423
-0.000258
-0.000964
-0.002605
-0.001441
-0.000277
-0.000749
-0.001221
-0.001693
-0.002399
-0.002170
-0.001005
-0.001244
-0.001716
-0.001019
-0.001491
-0.001262
-0.000799
-0.001037
-0.001510
-0.001047
-0.000350
-0.001290
-0.001294
-0.001533
-0.002239
-0.001074
-0.001313
-0.001785
-0.001322
-0.000859
-0.000162
-0.000400
-0.000171
-0.000176
-0.001349
-0.001588
-0.000891
-0.000428
-0.001368
-0.001372
-0.000909
-0.001381
-0.001386
-0.001157
-0.001629
-0.001400
-0.001404
-0.000474
-0.000712
-0.001886
-0.001189
-0.001661
-0.001665
-0.001436
-0.000973
-0.001445
-0.002385
-0.001455
-0.001459
-0.001931
-0.002871
-0.002408
-0.001477
-0.002183
-0.001954
-0.000556
-0.001262
-0.002903
-0.001739
-0.001510
-0.001748
-0.001285
-0.001290
-0.001995
-0.001532
-0.000836
-0.001074
-0.001312
-0.001317
-0.002023
-0.001326
-0.000629
-0.002037
-0.002509
-0.001578
-0.002050
-0.001587
-0.000657
-0.002766
-0.003472
-0.000904
-0.000909
-0.001147
-0.000217
-0.002092
-0.002798
-0.001399
-0.001872
-0.002344
-0.001881
-0.002353
-0.001890
-0.001427
-0.002367
-0.002138
-0.001441
-0.001445
-0.000982
-0.000987
-0.001459
-0.001931
-0.002637
-0.002174
-0.001010
-0.001716
-0.001954
-0.002193
-0.002898
-0.002435
-0.002206
-0.001276
-0.002215
-0.001986
-0.001056
-0.002229
-0.002468
-0.002005
-0.002711
-0.002949
-0.001784
-0.001789
-0.002963
-0.002032
-0.001803
-0.002041
-0.001111
-0.001583
-0.001587
-0.001124
-0.001363
-0.001601
-0.002073
-0.001844
-0.001849
-0.001853
-0.001156
-0.002096
-0.002335
-0.001638
-0.001876
-0.002115
-0.001418
-0.001890
-0.002830
-0.002133
-0.001436
-0.001674
-0.001211
-0.000748
-0.001221
-0.001927
-0.001464
-0.001468
-0.002174
-0.001477
-0.001248
-0.002188
-0.001491
-0.001262
-0.001968
-0.001972
-0.001977
-0.002215
-0.001519
-0.001289
-0.001995
-0.001065
-0.000835
-0.002009
-0.001312
-0.000849
-0.001789
-0.001560
-0.001097
-0.001101
-0.001106
-0.002279
-0.001583
-0.001120
-0.002293
-0.002064
-0.002069
-0.000670
-0.000675
-0.001381
-0.001619
-0.001156
-0.002330
-0.002802
-0.001404
-0.002344
-0.002816
-0.002353
-0.001890
-0.001427
-0.001665
-0.002839
-0.002142
-0.001211
-0.002151
-0.001454
-0.001459
-0.001931
-0.001000
-0.001239
-0.001945
-0.002651
-0.001954
-0.001257
-0.002197
-0.002435
-0.001505
-0.001977
-0.002215
-0.002454
-0.002926
-0.001995
-0.001532
-0.002238
-0.002243
-0.001078
-0.002018
-0.002023
-0.001560
-0.002967
-0.002270
-0.002041
-0.002513
-0.001816
-0.001821
-0.002527
-0.002999
-0.001835
-0.001138
-0.002078
-0.001615
-0.002321
-0.003494
-0.002797
-0.003036
-0.002339
-0.002110
-0.001413
-0.001184
-0.002357
-0.002128
-0.002133
-0.002605
-0.002843
-0.003082
-0.002385
-0.001454
-0.002394
-0.002866
-0.002871
-0.003343
-0.002178
-0.001482
-0.002889
-0.002426
-0.001963
-0.002435
-0.002440
-0.002678
-0.002215
-0.001986
-0.001990
-0.002463
-0.002233
-0.002472
-0.003412
-0.001780
-0.002018
-0.003192
-0.002962
-0.003201
-0.002270
-0.001339
-0.001578
-0.001349
-0.002288
-0.003228
-0.002765
-0.003004
-0.003476
-0.002311
-0.001615
-0.001853
-0.002091
-0.001862
-0.002100
-0.003508
-0.003045
-0.001647
-0.001885
-0.002591
-0.002829
-0.002600
-0.002137
-0.001440
-0.001679
-0.002618
-0.002623
-0.002628
-0.002398
-0.002637
-0.003343
-0.003114
-0.002884
-0.002421
-0.002660
-0.003132
-0.002669
-0.003842
-0.003613
-0.001514
-0.001752
-0.002224
-0.002229
-0.002701
-0.002004
-0.001775
-0.002247
-0.002252
-0.002022
-0.002261
-0.003434
-0.003205
-0.001573
-0.001812
-0.001816
-0.001353
-0.003228
-0.003466
-0.001834
-0.002540
-0.003246
-0.002082
-0.001853
-0.002793
-0.002096
-0.001867
-0.003508
-0.003045
-0.002348
-0.003521
-0.003526
-0.002362
-0.002366
-0.003072
-0.002142
-0.002614
-0.003554
-0.002623
-0.002861
-0.002866
-0.002169
-0.002641
-0.002646
-0.001949
-0.001720
-0.002893
-0.003366
-0.002435
-0.003141
-0.003145
-0.002682
-0.002921
-0.002925
-0.002930
-0.002701
-0.003173
-0.003879
-0.002481
-0.002252
-0.002957
-0.002962
-0.003200
-0.003439
-0.002742
-0.002513
-0.002751
-0.002288
-0.002994
-0.003934
-0.002770
-0.002073
-0.002779
-0.003017
-0.002554
-0.002792
-0.002329
-0.003269
-0.003975
-0.003278
-0.003517
-0.003288
-0.003058
-0.003530
-0.002366
-0.002604
-0.003077
-0.002614
-0.003320
-0.003324
-0.002861
-0.002632
-0.003338
-0.003576
-0.002412
-0.002183
-0.002655
-0.002659
-0.002430
-0.003838
-0.002907
-0.002210
-0.003618
-0.002453
-0.002925
-0.003631
-0.002701
-0.002705
-0.003411
-0.003182
-0.002251
-0.002957
-0.003196
-0.002967
-0.003673
-0.003210
-0.003214
-0.003920
-0.003925
-0.004397
-0.003232
-0.002302
-0.003008
-0.003246
-0.003017
-0.003489
-0.002792
-0.002329
-0.003503
-0.003975
-0.003746
-0.003750
-0.003989
-0.003058
-0.003530
-0.004236
-0.002604
-0.002843
-0.003315
-0.003553
-0.003090
-0.003562
-0.004502
-0.003805
-0.004044
-0.003815
-0.002416
-0.002655
-0.004296
-0.004067
-0.002668
-0.003842
-0.004548
-0.004085
-0.003388
-0.002925
-0.003164
-0.002701
-0.003173
-0.003411
-0.003416
-0.003186
-0.003425
-0.003429
-0.003434
-0.003439
-0.003209
-0.003915
-0.003219
-0.003223
-0.004163
-0.003466
-0.003003
-0.003709
-0.003246
-0.003484
-0.003489
-0.003026
-0.003264
-0.003269
-0.003274
-0.003278
-0.003517
-0.004222
-0.003292
-0.003063
-0.003535
-0.003306
-0.003778
-0.004016
-0.002852
-0.002856
-0.004264
-0.003801
-0.004039
-0.003576
-0.002645
-0.004053
-0.004057
-0.003594
-0.002664
-0.002668
-0.003842
-0.003379
-0.003150
-0.003154
-0.003393
-0.003631
-0.002934
-0.003406
-0.004346
-0.003649
-0.002953
-0.003425
-0.003897
-0.003200
-0.003672
-0.003911
-0.003915
-0.004387
-0.003924
-0.003929
-0.003232
-0.003471
-0.003943
-0.003012
-0.003952
-0.004190
-0.003260
-0.003732
-0.004204
-0.003741
-0.002810
-0.002114
-0.003521
-0.004461
-0.003764
-0.003769
-0.003773
-0.003778
-0.003782
-0.004021
-0.003791
-0.003562
-0.004268
-0.004740
-0.003342
-0.003581
-0.004754
-0.003356
-0.003127
-0.003833
-0.003370
-0.003842
-0.004548
-0.004085
-0.004089
-0.004094
-0.002930
-0.003402
-0.004108
-0.003645
-0.003883
-0.004589
-0.003658
-0.002728
-0.002732
-0.003438
-0.004612
-0.004149
-0.003452
-0.003457
-0.003929
-0.004167
-0.003704
-0.004176
-0.004181
-0.003017
-0.003255
-0.003727
-0.003030
-0.003970
-0.004209
-0.003278
-0.004218
-0.004222
-0.003292
-0.003764
-0.004704
-0.004241
-0.003778
-0.003315
-0.003319
-0.003558
-0.002861
-0.003333
-0.003337
-0.003108
-0.004048
-0.003117
-0.002654
-0.003360
-0.003833
-0.004305
-0.004543
-0.004314
-0.003150
-0.003154
-0.004795
-0.004098
-0.003402
-0.004341
-0.003645
-0.003649
-0.004823
-0.004126
-0.003195
-0.003901
-0.002737
-0.002508
-0.004616
-0.003452
-0.002288
-0.003929
-0.003700
-0.003470
-0.003007
-0.003480
-0.004185
-0.003722
-0.003727
-0.003732
-0.003736
-0.002806
-0.003044
-0.003516
-0.003053
-0.004461
-0.004465
-0.004236
-0.004942
-0.004245
-0.004250
-0.004020
-0.003557
-0.004030
-0.004502
-0.004740
-0.003342
-0.003347
-0.004754
-0.003823
-0.003594
-0.004768
-0.004538
-0.003842
-0.003612
-0.003617
-0.003154
-0.003626
-0.004332
-0.003869
-0.003874
-0.003177
-0.003649
-0.003887
-0.003892
-0.004598
-0.004369
-0.003204
-0.004612
-0.005785
-0.003686
-0.004392
-0.004864
-0.002764
-0.004172
-0.004644
-0.003246
-0.004185
-0.005827
-0.004662
-0.004433
-0.005840
-0.004208
-0.003745
-0.003984
-0.003521
-0.004460
-0.003997
-0.003067
-0.003539
-0.002842
-0.003081
-0.004020
-0.003791
-0.004029
-0.004502
-0.003571
-0.004745
-0.005217
-0.003351
-0.004291
-0.004529
-0.003832
-0.004772
-0.004075
-0.002911
-0.003617
-0.003388
-0.003392
-0.003864
-0.004103
-0.004575
-0.003644
-0.002480
-0.003887
-0.004593
-0.004130
-0.004602
-0.003906
-0.003910
-0.004382
-0.004387
-0.004158
-0.004630
-0.004401
-0.003704
-0.003942
-0.003947
-0.003951
-0.003956
-0.003727
-0.003731
-0.004437
-0.004910
-0.005148
-0.004685
-0.004923
-0.005629
-0.004699
-0.004236
-0.004240
-0.004245
-0.004249
-0.004254
-0.003791
-0.004263
-0.005671
-0.005441
-0.004277
-0.004048
-0.004520
-0.004992
-0.006166
-0.005703
-0.004071
-0.003374
-0.003145
-0.004084
-0.004557
-0.003860
-0.004799
-0.005505
-0.004809
-0.004813
-0.005285
-0.004355
-0.003658
-0.004832
-0.004602
-0.003906
-0.003910
-0.004382
-0.004621
-0.003690
-0.004864
-0.005570
-0.004171
-0.004644
-0.005583
-0.005120
-0.004891
-0.004896
-0.004667
-0.004437
-0.003974
-0.003979
-0.004685
-0.004222
-0.003291
-0.004699
-0.004703
-0.004474
-0.004479
-0.004483
-0.005890
-0.004492
-0.003094
-0.004268
-0.005207
-0.004511
-0.004048
-0.004987
-0.004291
-0.004061
-0.005001
-0.004538
-0.003841
-0.004313
-0.004786
-0.005258
-0.004561
-0.003630
-0.004336
-0.004809
-0.004579
-0.005285
-0.005056
-0.004125
-0.004130
-0.005304
-0.004607
-0.004144
-0.004616
-0.003919
-0.004391
-0.003928
-0.003699
-0.005106
-0.004176
-0.003947
-0.004886
-0.004423
-0.004662
-0.005134
-0.004203
-0.003507
-0.004446
-0.004217
-0.003520
-0.004226
-0.004465
-0.004937
-0.005409
-0.005180
-0.004249
-0.004020
-0.004726
-0.005900
-0.005904
-0.005441
-0.005679
-0.005450
-0.005221
-0.004524
-0.005464
-0.005702
-0.004772
-0.004776
-0.004313
-0.005019
-0.004790
-0.004093
-0.004565
-0.004102
-0.004808
-0.005281
-0.004116
-0.004588
-0.004359
-0.004831
-0.006239
-0.004841
-0.004845
-0.004382
-0.004387
-0.005560
-0.005097
-0.005569
-0.004873
-0.005111
-0.006285
-0.005588
-0.005592
-0.006064
-0.006069
-0.005372
-0.004208
-0.005148
-0.005152
-0.005157
-0.006097
-0.004698
-0.004469
-0.005877
-0.005881
-0.004950
-0.004955
-0.005661
-0.004964
-0.004735
-0.005909
-0.004978
-0.003814
-0.004987
-0.005693
-0.005698
-0.005235
-0.005005
-0.005244
-0.005015
-0.005019
-0.005024
-0.005730
-0.004565
-0.004102
-0.005977
-0.005514
-0.004584
-0.005523
-0.006463
-0.005065
-0.004836
-0.005308
-0.005079
-0.005785
-0.004620
-0.004625
-0.004863
-0.004634
-0.006041
-0.006046
-0.005349
-0.005120
-0.004891
-0.005363
-0.005601
-0.004905
-0.005143
-0.005381
-0.004918
-0.004689
-0.005395
-0.005867
-0.005170
-0.005876
-0.005413
-0.004483
-0.005189
-0.004492
-0.005432
-0.006839
-0.006142
-0.005445
-0.004982
-0.005221
-0.005693
-0.005698
-0.006170
-0.005941
-0.005711
-0.005482
-0.004785
-0.005725
-0.005496
-0.005267
-0.005271
-0.005510
-0.004813
-0.004817
-0.005757
-0.005060
-0.005766
-0.006005
-0.005775
-0.005780
-0.005317
-0.005322
-0.006028
-0.006032
-0.005102
-0.006041
-0.005812
-0.004882
-0.005588
-0.005592
-0.004895
-0.004666
-0.004904
-0.005143
-0.005147
-0.005152
-0.006326
-0.006564
-0.004932
-0.004937
-0.006344
-0.006582
-0.006353
-0.006124
-0.005427
-0.004730
-0.004735
-0.005675
-0.005913
-0.005216
-0.004987
-0.005693
-0.005230
-0.004767
-0.006174
-0.006179
-0.005482
-0.005720
-0.004556
-0.004794
-0.005734
-0.005271
-0.005276
-0.006683
-0.006921
-0.005523
-0.004826
-0.006000
-0.006706
-0.006477
-0.006949
-0.006486
-0.005789
-0.005794
-0.005331
-0.004400
-0.005106
-0.005812
-0.005583
-0.006289
-0.006761
-0.005830
-0.005601
-0.005840
-0.006078
-0.005849
-0.005619
-0.006325
-0.006330
-0.006101
-0.005638
-0.005876
-0.006816
-0.006119
-0.006124
-0.006128
-0.004964
-0.005670
-0.006142
-0.005679
-0.005216
-0.005221
-0.006160
-0.005230
-0.005702
-0.006408
-0.005477
-0.006651
-0.007591
-0.006660
-0.005729
-0.005968
-0.005972
-0.005977
-0.005514
-0.005752
-0.006458
-0.005762
-0.005766
-0.006238
-0.006009
-0.006014
-0.006252
-0.006958
-0.005560
-0.006266
-0.006738
-0.005340
-0.006280
-0.005817
-0.004652
-0.006293
-0.006298
-0.005367
-0.006073
-0.006779
-0.006550
-0.006555
-0.006092
-0.006096
-0.006101
-0.005638
-0.005876
-0.006582
-0.006353
-0.006124
-0.006128
-0.005431
-0.004735
-0.005908
-0.006848
-0.005684
-0.005922
-0.005926
-0.005931
-0.005702
-0.004771
-0.006646
-0.006183
-0.005954
-0.006192
-0.005729
-0.006669
-0.006907
-0.006444
-0.005981
-0.006921
-0.006458
-0.005995
-0.007169
-0.006238
-0.006243
-0.006715
-0.005551
-0.006256
-0.006962
-0.005564
-0.005335
-0.005807
-0.005344
-0.005583
-0.006289
-0.006995
-0.006999
-0.006770
-0.005606
-0.005610
-0.005848
-0.005619
-0.006559
-0.006564
-0.005867
-0.006573
-0.006344
-0.006348
-0.007054
-0.006825
-0.006596
-0.006600
-0.005436
-0.005908
-0.006614
-0.006852
-0.007792
-0.006862
-0.005931
-0.006871
-0.005473
-0.005945
-0.007352
-0.005486
-0.005958
-0.006898
-0.005734
-0.006206
-0.006211
-0.005981
-0.006687
-0.006458
-0.005527
-0.006000
-0.007641
-0.006710
-0.005546
-0.007187
-0.006958
-0.006495
-0.006733
-0.006504
-0.005807
-0.006045
-0.006518
-0.005587
-0.005124
-0.006531
-0.007004
-0.005839
-0.005610
-0.006082
-0.006087
-0.006793
-0.007499
-0.007036
-0.006806
-0.005642
-0.005179
-0.006353
-0.006123
-0.006128
-0.006834
-0.005903
-0.006609
-0.007081
-0.004982
-0.006623
-0.008030
-0.006632
-0.006403
-0.007343
-0.007581
-0.007352
-0.007590
-0.007361
-0.006664
-0.005967
-0.006440
-0.006678
-0.006215
-0.006687
-0.006692
-0.006229
-0.006701
-0.006472
-0.006243
-0.006948
-0.006953
-0.006022
-0.006261
-0.006499
-0.006036
-0.005807
-0.005812
-0.006518
-0.006990
-0.007228
-0.007233
-0.005834
-0.005605
-0.006545
-0.006550
-0.007256
-0.006793
-0.006563
-0.007503
-0.007274
-0.006577
-0.006816
-0.007521
-0.007760
-0.007764
-0.007301
-0.006838
-0.006375
-0.006614
-0.007787
-0.007558
-0.006628
-0.006866
-0.005702
-0.007109
-0.008750
-0.006650
-0.006187
-0.007361
-0.007366
-0.006903
-0.005972
-0.005743
-0.007384
-0.007856
-0.007159
-0.006462
-0.007168
-0.006705
-0.005073
-0.006481
-0.006719
-0.006490
-0.007430
-0.006967
-0.006971
-0.006274
-0.006279
-0.007453
-0.006756
-0.007228
-0.008402
-0.006770
-0.006774
-0.007480
-0.007485
-0.007957
-0.006792
-0.007031
-0.006568
-0.005871
-0.006577
-0.006582
-0.007755
-0.007058
-0.006595
-0.008470
-0.006605
-0.005674
-0.007549
-0.007086
-0.006623
-0.007329
-0.007567
-0.007806
-0.007109
-0.007113
-0.006417
-0.006187
-0.006659
-0.005963
-0.005967
-0.007842
-0.008314
-0.007618
-0.006453
-0.006224
-0.007398
-0.006701
-0.006705
-0.008113
-0.007416
-0.006719
-0.007191
-0.006728
-0.007668
-0.008842
-0.007443
-0.007214
-0.007453
-0.006522
-0.006760
-0.007934
-0.007237
-0.006306
-0.007012
-0.007017
-0.006086
-0.007026
-0.007498
-0.006802
-0.007274
-0.007045
-0.007283
-0.007755
-0.007292
-0.007297
-0.008003
-0.007072
-0.006843
-0.008484
-0.008489
-0.007558
-0.008030
-0.008502
-0.008507
-0.007342
-0.007113
-0.007118
-0.008058
-0.008296
-0.006196
-0.006669
-0.008310
-0.007613
-0.006682
-0.006921
-0.007393
-0.007164
-0.006934
-0.008108
-0.007177
-0.006714
-0.008356
-0.007893
-0.006962
-0.007200
-0.007906
-0.007677
-0.007915
-0.007219
-0.006288
-0.006526
-0.006297
-0.007003
-0.007943
-0.007012
-0.006549
-0.006554
-0.006792
-0.007498
-0.007269
-0.006806
-0.007512
-0.007517
-0.006586
-0.007058
-0.008232
-0.007535
-0.007306
-0.007544
-0.007081
-0.006852
-0.007090
-0.007095
-0.007333
-0.007572
-0.008044
-0.007347
-0.006884
-0.008057
-0.007828
-0.007131
-0.007604
-0.007374
-0.007379
-0.007851
-0.007856
-0.007627
-0.008099
-0.008337
-0.006939
-0.006943
-0.008117
-0.008122
-0.007659
-0.008598
-0.008135
-0.007439
-0.008145
-0.008383
-0.007920
-0.007457
-0.007695
-0.007466
-0.007003
-0.007475
-0.007246
-0.006315
-0.007021
-0.008429
-0.007732
-0.006568
-0.006806
-0.007746
-0.007750
-0.007989
-0.008227
-0.007998
-0.008002
-0.006838
-0.007544
-0.007782
-0.007086
-0.006623
-0.006393
-0.006865
-0.007338
-0.008277
-0.006645
-0.005481
-0.005953
-0.006192
-0.007131
-0.006668
-0.005504
-0.006444
-0.005279
-0.005050
-0.006457
-0.005761
-0.005999
-0.006471
-0.006476
-0.006013
-0.004381
-0.003918
-0.003922
-0.003693
-0.002996
-0.001832
-0.001369
-0.001140
-0.001612
-0.000214
0.001886
0.001881
0.003747
0.005379
0.006310
0.009111
0.011210
0.013076
0.015643
0.018444
0.021479
0.024981
0.029653
0.034324
0.038996
0.044135
0.051144
0.058621
0.066098
0.072172
0.079649
0.089697
0.097876
0.107457
0.118908
0.127554
0.137603
0.148821
0.159103
0.172893
0.186916
0.199303
0.212858
0.224544
0.230851
0.235289
0.235051
0.229201
0.216805
0.197629
0.181259
0.168863
0.162780
0.166984
0.177032
0.190588
0.203676
0.212556
0.218396
0.227510
0.244806
0.278702
0.336212
0.410555
0.489573
0.563215
0.625400
0.677065
0.726626
0.788811
0.866193
0.942874
1.003657
1.050178
1.092725
1.133868
1.177584
1.225741
1.266418
1.284415
1.272487
1.233906
1.162359
1.043352
0.878520
0.681659
0.472172
0.266659
0.067927
-0.128234
-0.321822
-0.504656
-0.690296
-0.925734
-1.256328
-1.692365
-2.199242
-2.714068
-3.147533
-3.402376
-3.416642
-3.187760
-2.786334
-2.327862
-1.939530
-1.689605
-1.507248
-1.251244
-0.895409
-0.561785
-0.341085
-0.228166
-0.237756
-0.403523
-0.661172
-0.893805
-1.032217
-0.940340
-0.453812
0.329404
1.057210
1.437126
1.406728
1.098813
0.744605
0.539327
0.579535
0.842319
1.126845
1.219658
1.112107
0.816349
0.222265
-0.597432
-1.303739
-1.658414
-1.623349
-1.228937
-0.663620
-0.244426
-0.092229
-0.047812
0.048041
0.196030
0.361554
0.547418
0.717618
0.789389
0.716673
0.527994
0.333470
0.270107
0.322940
0.311947
0.177275
0.100585
0.195970
0.300940
0.228459
-0.024047
-0.375449
-0.729656
-0.927453
-0.879296
-0.784846
-0.874863
-1.051618
-0.998784
-0.506178
0.226304
0.733406
0.874381
0.941476
1.154695
1.449509
1.748063
2.026745
2.225000
2.276665
2.020652
1.395941
0.736395
0.289837
-0.131236
-0.649803
-1.121143
-1.432332
-1.517205
-1.421118
-1.447542
-1.809465
-2.290390
-2.485382
-2.269124
-1.947190
-1.891784
-1.987412
-1.721355
-0.947257
-0.033582
0.621279
0.754072
0.365496
-0.108182
-0.205212
0.002863
0.139396
0.094268
0.037217
0.260489
0.973332
1.965797
2.797409
3.257985
3.428419
3.533623
3.754557
3.959359
3.848301
3.373220
2.647275
1.806302
1.017465
0.303444
-0.438400
-1.215079
-1.854051
-2.169215
-2.091598
-1.726646
-1.469707
-1.605314
-1.896864
-1.959760
-1.683182
-1.226814
-0.893658
-0.888987
-1.010098
-0.912375
-0.592078
-0.275755
-0.215673
-0.492260
-0.752481
-0.459070
0.413691
1.294400
1.752638
1.805940
1.492647
0.872144
0.000000
0.000000
0.000000
0.000000
0.000000
0.000000
0.000000
0.000000
0.000000
0.000000
0.000000
0.000000
0.000000
0.000000
0.000000
0.000000
0.000000
0.000000
0.000000
0.000000
0.000000
0.000000
0.000000
0.000000
0.000000
0.000000
0.000000
0.000000
