EVENT_NAME: 202302060117
EVENT_ID: 13194
EVENT_DATE_YYYYMMDD: 2023/02/06
EVENT_TIME_HHMMSS: 01:17:32.00000
EVENT_LATITUDE_DEGREE: 37.288
EVENT_LONGITUDE_DEGREE: 37.043
EVENT_DEPTH_KM: 8.6
HYPOCENTER_REFERENCE: AFAD
MAGNITUDE_W: 7.7
MAGNITUDE_W_REFERENCE: AFAD
MAGNITUDE_L: 
MAGNITUDE_L_REFERENCE: 
FOCAL_MECHANISM: 
NETWORK: TK
STATION_CODE: 0208
STATION_NAME: 
STATION_LATITUDE_DEGREE: 37.78694
STATION_LONGITUDE_DEGREE: 37.65275
STATION_ELEVATION_M: 1763.0
LOCATION: Kahramanmaras_Pazarck_Turkiye
SENSOR_DEPTH_M: 
VS30_M/S: 469
SITE_CLASSIFICATION_EC8: B
MORPHOLOGIC_CLASSIFICATION: 
EPICENTRAL_DISTANCE_KM: 77.26
EARTHQUAKE_BACKAZIMUTH_DEGREE: 
DATE_TIME_FIRST_SAMPLE_YYYYMMDD_HHMMSS: 2023/02/06 01:17:22.8932120
DATE_TIME_FIRST_SAMPLE_PRECISION: millisecond
SAMPLING_INTERVAL_S: 0.01
NDATA: 3311
DURATION_S: 
STREAM: HNN
UNITS: cm/s^2
INSTRUMENT: sensor = CMG-5T/GURALP | digitizer = 
INSTRUMENT_ANALOG/DIGITAL: 
INSTRUMENTAL_FREQUENCY_HZ: 
INSTRUMENTAL_DAMPING: 
FULL_SCALE_G: 
N_BIT_DIGITAL_CONVERTER: 
PGA_CM/S^2: 30.199
TIME_PGA_S: 
BASELINE_CORRECTION: BASELINE REMOVED
FILTER_TYPE: BUTTERWORTH
FILTER_ORDER: 
LOW_CUT_FREQUENCY_HZ: 
HIGH_CUT_FREQUENCY_HZ: 
LATE/NORMAL_TRIGGERED: 
DATABASE_VERSION: 
HEADER_FORMAT: DYNA 1.2
DATA_TYPE: Acceleration
PROCESSING: Automatic Paolucci et al., 2011
DATA_TIMESTAMP_YYYYMMDD_HHMMSS: 
DATA_LICENSE: U (unknown license)
DATA_CITATION: Turkish Accelerometric Archive v 1.0 - Disaster And Emergency Management Presidency, Earthquake Department
DATA_CREATOR: AFAD
ORIGINAL_DATA_MEDIATOR_CITATION: : AFAD - Disaster And Emergency Management Presidency
ORIGINAL_DATA_MEDIATOR: AFAD PROCESS SERVICE
ORIGINAL_DATA_CREATOR_CITATION: AFAD PROCESS SERVICE
ORIGINAL_DATA_CREATOR: network: TK
USER1: GuestUser
USER2: 
USER3: 
USER4: 
USER5: 
[...]
-0.001697
-0.001722
-0.001115
-0.000824
-0.001479
-0.000873
-0.001212
-0.000921
-0.001576
-0.002546
-0.001624
-0.001648
-0.001988
-0.001697
-0.002667
-0.002376
-0.002715
-0.003370
-0.001818
-0.001527
-0.002497
-0.003151
-0.002545
-0.003200
-0.003854
-0.003248
-0.002957
-0.003612
-0.003005
-0.003030
-0.002108
-0.002132
-0.000581
-0.000920
-0.004096
-0.003490
-0.005090
-0.003854
-0.004193
-0.004848
-0.004241
-0.003950
-0.003029
-0.002108
-0.002132
-0.002471
-0.002495
-0.003150
-0.003489
-0.002883
-0.002592
-0.004192
-0.005162
-0.005186
-0.005526
-0.005865
-0.005574
-0.006859
-0.004677
-0.004071
-0.003780
-0.004119
-0.004774
-0.004798
-0.005768
-0.003901
-0.004240
-0.003949
-0.003658
-0.004943
-0.003076
-0.003100
-0.004070
-0.003779
-0.004119
-0.003197
-0.004797
-0.006082
-0.004531
-0.004555
-0.003003
-0.003658
-0.003997
-0.002760
-0.003730
-0.004700
-0.005985
-0.005379
-0.003512
-0.003851
-0.005136
-0.005160
-0.005185
-0.005209
-0.005233
-0.005572
-0.006227
-0.006566
-0.006906
-0.007560
-0.006324
-0.006348
-0.006372
-0.006396
-0.006421
-0.007075
-0.006784
-0.005232
-0.004626
-0.005911
-0.005620
-0.005960
-0.006299
-0.006008
-0.006663
-0.005111
-0.004820
-0.005474
-0.005498
-0.005838
-0.005547
-0.005571
-0.005280
-0.004359
-0.005644
-0.005353
-0.006007
-0.005086
-0.005110
-0.005765
-0.005789
-0.007074
-0.006468
-0.007437
-0.008407
-0.009062
-0.007825
-0.008165
-0.008189
-0.007267
-0.006976
-0.004479
-0.005134
-0.005158
-0.006758
-0.007413
-0.006176
-0.005255
-0.004964
-0.006564
-0.006273
-0.005982
-0.006006
-0.005715
-0.005424
-0.005763
-0.007048
-0.006757
-0.006782
-0.006491
-0.006515
-0.006224
-0.005618
-0.006903
-0.005666
-0.004745
-0.004769
-0.004478
-0.005763
-0.005157
-0.004550
-0.005520
-0.004914
-0.006199
-0.005593
-0.005302
-0.006587
-0.005981
-0.006950
-0.008235
-0.008260
-0.007338
-0.005786
-0.004550
-0.004889
-0.005859
-0.005883
-0.006223
-0.005932
-0.005325
-0.006926
-0.006004
-0.006344
-0.006053
-0.006707
-0.006416
-0.005495
-0.008671
-0.008065
-0.008404
-0.007483
-0.005931
-0.006901
-0.006295
-0.005688
-0.006343
-0.006367
-0.006707
-0.007992
-0.007070
-0.006779
-0.007119
-0.008088
-0.007482
-0.008767
-0.009737
-0.009446
-0.007894
-0.006973
-0.008888
-0.007336
-0.006100
-0.006439
-0.006148
-0.005857
-0.006512
-0.006851
-0.006875
-0.007215
-0.007554
-0.007894
-0.008863
-0.008257
-0.007021
-0.007990
-0.008645
-0.008669
-0.008693
-0.008718
-0.008111
-0.007820
-0.008160
-0.007869
-0.007578
-0.009178
-0.008887
-0.007650
-0.007044
-0.007699
-0.007408
-0.007117
-0.008717
-0.008426
-0.008135
-0.007214
-0.008814
-0.009468
-0.010123
-0.009832
-0.008595
-0.008620
-0.008329
-0.008353
-0.007747
-0.008716
-0.008741
-0.009395
-0.008474
-0.007552
-0.008522
-0.008546
-0.008571
-0.007649
-0.009249
-0.010534
-0.009928
-0.009007
-0.008401
-0.008425
-0.008134
-0.010049
-0.009758
-0.009467
-0.009807
-0.008570
-0.009855
-0.007988
-0.009273
-0.009612
-0.009321
-0.010606
-0.008109
-0.008764
-0.008157
-0.009442
-0.009151
-0.009491
-0.009830
-0.009224
-0.010509
-0.010533
-0.012133
-0.009321
-0.007454
-0.009684
-0.009078
-0.009733
-0.008811
-0.008205
-0.010436
-0.010460
-0.012060
-0.010193
-0.010533
-0.010242
-0.010896
-0.011236
-0.010314
-0.010969
-0.011308
-0.011332
-0.009150
-0.010435
-0.011090
-0.010799
-0.010193
-0.011793
-0.011187
-0.012156
-0.011235
-0.010944
-0.011599
-0.010677
-0.011647
-0.011356
-0.012641
-0.012350
-0.012689
-0.011138
-0.011792
-0.012132
-0.010265
-0.010604
-0.011259
-0.011283
-0.012883
-0.012907
-0.011671
-0.012325
-0.011719
-0.013319
-0.011452
-0.011161
-0.012761
-0.011840
-0.013755
-0.014095
-0.013804
-0.013828
-0.011961
-0.011355
-0.012640
-0.011403
-0.011112
-0.012397
-0.012106
-0.010870
-0.013100
-0.014070
-0.014409
-0.013488
-0.012882
-0.013536
-0.012930
-0.013900
-0.013294
-0.013948
-0.014288
-0.013997
-0.014021
-0.013100
-0.013124
-0.013778
-0.012227
-0.013512
-0.013536
-0.011984
-0.014215
-0.013924
-0.015839
-0.014602
-0.013996
-0.014336
-0.014045
-0.015645
-0.014093
-0.013802
-0.014457
-0.014481
-0.013559
-0.014529
-0.015184
-0.014578
-0.016178
-0.016517
-0.015281
-0.014990
-0.014699
-0.014723
-0.015377
-0.014456
-0.015426
-0.014504
-0.012322
-0.014238
-0.015207
-0.014286
-0.013365
-0.013074
-0.014043
-0.014068
-0.014407
-0.014116
-0.013195
-0.013534
-0.013873
-0.013582
-0.013607
-0.013000
-0.012079
-0.013679
-0.013703
-0.014358
-0.014382
-0.015352
-0.015691
-0.013824
-0.013849
-0.013242
-0.013267
-0.013921
-0.014891
-0.014915
-0.013363
-0.012757
-0.013412
-0.013436
-0.014721
-0.014430
-0.015715
-0.015424
-0.014187
-0.013896
-0.013921
-0.013945
-0.013339
-0.013363
-0.013702
-0.015618
-0.015011
-0.014090
-0.015060
-0.016345
-0.014478
-0.013241
-0.013581
-0.012029
-0.014575
-0.014284
-0.014623
-0.013071
-0.014041
-0.014696
-0.014405
-0.016005
-0.014453
-0.015423
-0.014501
-0.013580
-0.014235
-0.014574
-0.015229
-0.015568
-0.013071
-0.013725
-0.013749
-0.013774
-0.014743
-0.014137
-0.013846
-0.014816
-0.015471
-0.014234
-0.015834
-0.014913
-0.016513
-0.015592
-0.013094
-0.014064
-0.015664
-0.014112
-0.013506
-0.015737
-0.015761
-0.016416
-0.016440
-0.015518
-0.014282
-0.014621
-0.015276
-0.014354
-0.014694
-0.015348
-0.014742
-0.015712
-0.014790
-0.014815
-0.017045
-0.014863
-0.014572
-0.014911
-0.014305
-0.015275
-0.015614
-0.016269
-0.016293
-0.016002
-0.016972
-0.014790
-0.016705
-0.018621
-0.017069
-0.016463
-0.015856
-0.016826
-0.016850
-0.018135
-0.017844
-0.016293
-0.016002
-0.016026
-0.017626
-0.018911
-0.018620
-0.017383
-0.017092
-0.017432
-0.018086
-0.018426
-0.019080
-0.017844
-0.016607
-0.016631
-0.016025
-0.016049
-0.016389
-0.015152
-0.015492
-0.016146
-0.018062
-0.016825
-0.016534
-0.017189
-0.015952
-0.016291
-0.014740
-0.015394
-0.014788
-0.016073
-0.016412
-0.015806
-0.015515
-0.013963
-0.015564
-0.016218
-0.015612
-0.015951
-0.016291
-0.015054
-0.015078
-0.014787
-0.014812
-0.014836
-0.015490
-0.017091
-0.017430
-0.017769
-0.017794
-0.018133
-0.017527
-0.017236
-0.016945
-0.016654
-0.016993
-0.016702
-0.017042
-0.017066
-0.017720
-0.017114
-0.015878
-0.016532
-0.016872
-0.017526
-0.017550
-0.018205
-0.020120
-0.018884
-0.018908
-0.019247
-0.017065
-0.017720
-0.017744
-0.017138
-0.017477
-0.019077
-0.019102
-0.018495
-0.019465
-0.018544
-0.019198
-0.018592
-0.018932
-0.018641
-0.018665
-0.017428
-0.016192
-0.016531
-0.015925
-0.017525
-0.017549
-0.017889
-0.019174
-0.019513
-0.018907
-0.019561
-0.019901
-0.018664
-0.018688
-0.018713
-0.018422
-0.018131
-0.017209
-0.017233
-0.018203
-0.018227
-0.017936
-0.017961
-0.020822
-0.020846
-0.018979
-0.019318
-0.019027
-0.019367
-0.019706
-0.020045
-0.021015
-0.019779
-0.019488
-0.019512
-0.019221
-0.020821
-0.021160
-0.021815
-0.021209
-0.021233
-0.022203
-0.022857
-0.020990
-0.020069
-0.019463
-0.019487
-0.020142
-0.018905
-0.019244
-0.019584
-0.020238
-0.020893
-0.019972
-0.020626
-0.020020
-0.019414
-0.020384
-0.019462
-0.019802
-0.020456
-0.021741
-0.020820
-0.021474
-0.020238
-0.020262
-0.021862
-0.019995
-0.020335
-0.021935
-0.020698
-0.019777
-0.021377
-0.021401
-0.021425
-0.021450
-0.021474
-0.019922
-0.021522
-0.023438
-0.021571
-0.021280
-0.022880
-0.021958
-0.021037
-0.022007
-0.020770
-0.021425
-0.021449
-0.019582
-0.019921
-0.021522
-0.020285
-0.019994
-0.018757
-0.018466
-0.019436
-0.020406
-0.020430
-0.019509
-0.020794
-0.022079
-0.023364
-0.022127
-0.022467
-0.022806
-0.021885
-0.022224
-0.021303
-0.021957
-0.021351
-0.021375
-0.022345
-0.021739
-0.021448
-0.022418
-0.023072
-0.021205
-0.021860
-0.022514
-0.022223
-0.021302
-0.022272
-0.022926
-0.022635
-0.022344
-0.021738
-0.021447
-0.021787
-0.021180
-0.021205
-0.022174
-0.021568
-0.022538
-0.022562
-0.022271
-0.022611
-0.021374
-0.021713
-0.022368
-0.021447
-0.021786
-0.021180
-0.021519
-0.020598
-0.020622
-0.021277
-0.021616
-0.021640
-0.022295
-0.021373
-0.020452
-0.022683
-0.022392
-0.022416
-0.022125
-0.022464
-0.022804
-0.022828
-0.022537
-0.022246
-0.021955
-0.021979
-0.021058
-0.022343
-0.022682
-0.022391
-0.023361
-0.022755
-0.023094
-0.021542
-0.022512
-0.022221
-0.022876
-0.022900
-0.021663
-0.022948
-0.023288
-0.023312
-0.022706
-0.023360
-0.023384
-0.022778
-0.023433
-0.022827
-0.023481
-0.022245
-0.022269
-0.023554
-0.022002
-0.023287
-0.023942
-0.022705
-0.022729
-0.022123
-0.022778
-0.023117
-0.023772
-0.023165
-0.022874
-0.023844
-0.022292
-0.021371
-0.022341
-0.021735
-0.021444
-0.021468
-0.022438
-0.022777
-0.021856
-0.022825
-0.022534
-0.022559
-0.023213
-0.022922
-0.023577
-0.023286
-0.022995
-0.023019
-0.022728
-0.023067
-0.023092
-0.022801
-0.023140
-0.022534
-0.023819
-0.022897
-0.022291
-0.023576
-0.022340
-0.023940
-0.022703
-0.023988
-0.023382
-0.022461
-0.022170
-0.022509
-0.024109
-0.025079
-0.023842
-0.022921
-0.023891
-0.023285
-0.024254
-0.021757
-0.023042
-0.023066
-0.021514
-0.023430
-0.024084
-0.023163
-0.022872
-0.024157
-0.023866
-0.023260
-0.023284
-0.022993
-0.022702
-0.024302
-0.023381
-0.024351
-0.025951
-0.024714
-0.024738
-0.024763
-0.025417
-0.024811
-0.025150
-0.025805
-0.025829
-0.025853
-0.026823
-0.025587
-0.026241
-0.026896
-0.026290
-0.026629
-0.026968
-0.026047
-0.025441
-0.026095
-0.025174
-0.026459
-0.027114
-0.026823
-0.025901
-0.025295
-0.025634
-0.026919
-0.026313
-0.026337
-0.026677
-0.025440
-0.026410
-0.026434
-0.026458
-0.026798
-0.027137
-0.026216
-0.027816
-0.027840
-0.027864
-0.027888
-0.027597
-0.028882
-0.027961
-0.027985
-0.028640
-0.028034
-0.027743
-0.028082
-0.027791
-0.027815
-0.027209
-0.027864
-0.029149
-0.027597
-0.027936
-0.027645
-0.027354
-0.028324
-0.027718
-0.028688
-0.027766
-0.027475
-0.029075
-0.028784
-0.027233
-0.028518
-0.027911
-0.027936
-0.027014
-0.027354
-0.028323
-0.027402
-0.027741
-0.026820
-0.028105
-0.027184
-0.028153
-0.029123
-0.029463
-0.028856
-0.027935
-0.027959
-0.027353
-0.028323
-0.028032
-0.027741
-0.027135
-0.028104
-0.027813
-0.029414
-0.028177
-0.027571
-0.027910
-0.027934
-0.028274
-0.028298
-0.028322
-0.028662
-0.029947
-0.028080
-0.028104
-0.028128
-0.028783
-0.029752
-0.029777
-0.029170
-0.030140
-0.029534
-0.031134
-0.029267
-0.026770
-0.028370
-0.028079
-0.028418
-0.028758
-0.028467
-0.027861
-0.028200
-0.027909
-0.028248
-0.028273
-0.028297
-0.029582
-0.027400
-0.027424
-0.027763
-0.027787
-0.029703
-0.028466
-0.027860
-0.028199
-0.030745
-0.029193
-0.028902
-0.029872
-0.030527
-0.031181
-0.030575
-0.029654
-0.028732
-0.030648
-0.029096
-0.029120
-0.028514
-0.029799
-0.030138
-0.030163
-0.030502
-0.029265
-0.029290
-0.029314
-0.030284
-0.029677
-0.030332
-0.031302
-0.032272
-0.031665
-0.030744
-0.029823
-0.030162
-0.029871
-0.030841
-0.032441
-0.032780
-0.032805
-0.033774
-0.035059
-0.036660
-0.037945
-0.038284
-0.040199
-0.040854
-0.043400
-0.045000
-0.045970
-0.046940
-0.047279
-0.046988
-0.047327
-0.048297
-0.049267
-0.049922
-0.050891
-0.052807
-0.055353
-0.059159
-0.061390
-0.066142
-0.069634
-0.075647
-0.083236
-0.088618
-0.095262
-0.103481
-0.111700
-0.118659
-0.128454
-0.135413
-0.143633
-0.153428
-0.162908
-0.170497
-0.180608
-0.191034
-0.195471
-0.198647
-0.202453
-0.203738
-0.202187
-0.196537
-0.186160
-0.173261
-0.155634
-0.139583
-0.124477
-0.112209
-0.104668
-0.099649
-0.098412
-0.105371
-0.116742
-0.135048
-0.154930
-0.174497
-0.191857
-0.201337
-0.202307
-0.191930
-0.170205
-0.139339
-0.099018
-0.053968
-0.006713
0.044641
0.087169
0.114882
0.124314
0.119877
0.101571
0.071918
0.029342
-0.020484
-0.066527
-0.098387
-0.110074
-0.093707
-0.051179
-0.006760
0.036083
0.076720
0.118617
0.157363
0.175305
0.166455
0.118835
0.021414
-0.096810
-0.203688
-0.293229
-0.363543
-0.397609
-0.380612
-0.321694
-0.230940
-0.121905
-0.008457
0.084503
0.148780
0.214633
0.263150
0.274157
0.260895
0.217688
0.149896
0.084625
0.025028
-0.011245
-0.013160
0.002576
0.045104
0.098349
0.139616
0.173633
0.224356
0.284220
0.328324
0.360135
0.361687
0.345588
0.361008
0.419927
0.516039
0.615933
0.671700
0.665687
0.572678
0.385425
0.192182
0.068284
-0.005182
-0.062573
-0.136984
-0.241025
-0.386357
-0.533895
-0.586242
-0.500532
-0.307338
-0.104688
0.081572
0.236941
0.287034
0.246034
0.172568
0.093113
0.013343
-0.092589
-0.256517
-0.436521
-0.543399
-0.570845
-0.548490
-0.483583
-0.397242
-0.259839
-0.126848
-0.051539
0.071680
0.253211
0.356258
0.295085
0.096484
-0.132691
-0.299772
-0.329740
-0.165230
0.115905
0.332424
0.305608
0.068553
-0.203490
-0.394526
-0.509283
-0.632551
-0.778513
-0.883499
-0.837819
-0.655972
-0.481060
-0.350906
-0.244708
-0.175703
-0.148620
-0.173230
-0.238186
-0.340650
-0.444060
-0.429270
-0.316137
-0.207417
-0.107522
0.018219
0.244509
0.485613
0.550835
0.447110
0.250716
0.015867
-0.267523
-0.548076
-0.711689
-0.799339
-0.817015
-0.809159
-0.812965
-0.827174
-0.880782
-0.830059
-0.630876
-0.327047
-0.003675
0.234908
0.551030
0.905292
1.126539
1.178838
0.972672
0.648622
0.346635
-0.060314
-0.659535
-1.214628
-1.507158
-1.396232
-0.941421
-0.510566
-0.001540
0.578720
0.888538
0.883156
0.468327
-0.088342
-0.297659
-0.164353
0.239079
0.683173
0.976286
0.887375
0.573096
0.577799
0.726865
0.698473
0.326197
-0.142531
-0.669571
-1.452555
-2.130891
-2.412390
-2.201545
-1.534919
-0.684846
-0.064870
0.127378
0.290943
0.687126
1.066919
0.875568
-0.091177
-0.513571
0.014997
0.572248
1.096403
1.191569
0.586044
-0.232241
-0.870232
-0.752371
0.240172
1.237443
1.857419
2.759815
3.586563
3.434612
2.503484
1.193170
0.301127
0.475725
0.809498
0.352748
-1.197750
-3.298903
-4.432389
-3.934396
-2.371970
-0.908201
0.000184
0.493764
0.435113
-0.092558
-0.642608
-0.523801
0.316500
1.498479
2.494805
2.473978
1.275875
-0.896514
-3.338084
-4.454234
-3.497624
-1.413540
0.385918
0.730093
-0.936083
-3.286245
-4.135420
-3.177864
-1.898803
-1.660536
-2.720581
-3.979832
-4.545957
-3.846551
-1.425517
1.707871
4.108416
4.449755
2.852608
1.040179
-0.141219
-0.721843
-1.026981
-1.422268
-2.177828
-3.315097
-4.016128
-3.614271
-2.066659
0.464065
2.912836
4.160692
3.447999
0.547181
-2.191309
-2.556335
-1.251428
0.211080
0.403959
-1.040631
-2.798216
-3.957864
-4.723826
-4.819356
-3.752425
-1.736110
-0.235462
-0.928613
-2.951597
-4.373492
-4.183450
-2.864989
-1.822014
-1.836537
-2.670583
-3.495803
-3.518522
-2.162552
-0.655600
0.553801
1.780224
2.104226
1.443856
-0.290088
-2.599905
-3.882166
-3.705993
-2.956154
-1.681821
-0.328373
0.325645
1.037659
1.919567
3.054266
4.502275
4.817767
3.113136
0.295216
-2.103802
-2.828473
-1.626006
0.412689
2.576834
3.777725
1.929048
-2.471811
-6.149599
-7.035022
-4.289016
1.371652
6.291283
8.278600
7.567483
4.940259
2.007606
0.095258
-0.985590
-1.610972
-1.345282
-0.309872
0.768406
1.325342
1.267006
0.914902
1.166408
1.659358
1.567926
0.788725
-1.030323
-2.866077
-3.236778
-3.002293
-3.227370
-2.462402
-0.400697
1.940591
3.664085
3.079048
0.123700
-2.691698
-3.955678
-3.459261
-1.060921
1.747809
3.437577
4.384732
5.071530
4.942904
4.312163
3.172057
1.672307
1.247077
2.459946
2.266703
0.196124
-0.004052
1.262716
2.287410
1.249429
-3.205644
-6.710072
-6.198210
-4.357146
-2.738298
-2.203427
-2.976954
-3.080049
-0.799279
2.510621
5.021172
6.831031
6.738653
5.797754
4.995228
1.491116
-3.502320
-6.975228
-8.623122
-7.711901
-5.380069
-4.567190
-4.809288
-4.180487
-3.067537
-0.931760
1.375802
1.841959
0.348829
-2.483591
-2.946330
1.289000
7.082999
11.156000
10.689794
6.585854
1.586429
-4.169163
-8.460017
-10.639655
-11.039039
-9.014843
-6.960073
-6.529533
-6.458637
-7.163135
-7.318553
-4.385948
0.330378
3.967772
4.462929
1.647845
-0.869058
-0.886418
-0.896214
-1.017905
-0.433547
1.614289
2.708327
-0.548668
-6.193940
-10.590071
-12.555057
-11.392305
-6.859741
-3.274670
-1.823825
-1.660575
0.395456
4.694772
7.001072
7.638700
5.544481
3.328279
3.972210
3.237138
1.458435
-0.143125
-3.716897
-4.751095
-2.790570
0.409956
3.843415
5.475816
6.706336
6.391741
4.954716
2.448530
-1.733579
-4.869222
-4.113710
0.033049
3.836554
3.632910
2.383429
1.087929
1.005007
5.215436
8.390746
5.978489
-0.163854
-3.356233
-3.640568
-4.933547
-6.843058
-8.308766
-7.192664
-2.601157
2.945724
7.808304
8.330252
4.341991
0.187304
-3.457388
-5.729695
-7.435271
-7.110323
-3.763545
-1.301535
0.339377
1.345474
1.029618
2.797871
4.003175
2.349607
1.385699
2.683987
5.128976
5.962028
3.138119
-1.214199
-2.870919
-1.789174
1.493934
5.792304
7.706810
8.839933
9.653442
8.832635
8.648534
7.568946
5.574962
2.540183
-1.121214
-3.862541
-5.881426
-5.152391
-1.105551
3.117486
4.725302
3.016889
3.015288
5.167456
4.901717
2.402465
-3.445166
-8.583910
-10.764178
-8.853770
-1.785099
6.785188
12.422217
15.921868
17.971595
14.848245
6.535428
-2.527882
-10.011405
-16.410953
-22.392544
-29.311543
-30.199488
-23.306069
-12.422207
-0.847740
2.933386
0.650046
1.085945
2.282739
1.925907
0.679263
-0.561392
-1.968788
-4.556611
-4.651511
-1.891636
-0.964339
-2.091522
-1.550346
0.678415
3.293613
1.802373
-3.013921
-8.686300
-14.068694
-16.821368
-17.276227
-12.701741
-5.812104
-2.431284
1.073726
9.741726
19.436966
25.595021
26.310503
20.803604
13.403924
9.600371
7.843732
5.522253
2.565330
0.373083
1.573029
0.874520
-2.104783
-1.185051
2.287177
5.623239
7.995417
7.202347
2.005606
-5.746153
-9.696905
-6.387951
1.129566
7.595573
11.325951
13.138332
12.889614
9.549406
2.354922
-4.012475
-7.213049
-5.812005
-3.940682
-5.976273
-10.542613
-14.341438
-16.283415
-17.000836
-12.952105
-6.040404
0.962074
6.189026
8.094391
9.841525
10.960464
9.984263
12.182450
11.372675
2.389110
-4.018002
-4.510686
-6.016109
-8.549403
-9.381557
-5.469308
4.835215
15.454308
20.091204
18.519588
13.263274
3.223787
-5.850240
-8.938287
-8.619328
-6.102474
-2.090306
0.777052
0.906576
0.211849
0.169903
1.231790
7.053842
14.192802
16.212270
15.042535
12.037386
6.085739
0.617295
-0.778439
-0.289902
1.563140
1.946085
-2.883763
-7.337575
-8.248215
-6.646703
-1.483422
1.962330
2.018727
0.963410
-0.945156
-4.152349
-8.415780
-11.001082
-7.812219
-0.090452
8.089932
12.993173
12.785116
11.163068
4.209713
-8.088189
-17.470167
-20.949063
-15.986565
-6.411417
-0.799290
6.144246
14.317066
16.324871
14.439315
9.495050
1.450154
-2.911620
-5.150831
-11.907817
-17.117481
-12.560646
-0.932280
9.766875
16.775342
17.873793
15.554206
12.258126
6.366997
-3.748138
-16.104983
-24.609126
-27.403406
-21.819962
-11.178805
-2.364552
4.276076
9.465204
14.309187
17.154166
17.001584
14.013456
9.934732
8.170214
5.455995
1.066483
0.106042
1.705662
2.803167
0.407301
-3.790568
-4.486556
-4.276656
-6.231241
-8.603467
-6.100796
1.010742
8.637633
