EVENT_NAME: 202302060117
EVENT_ID: 13194
EVENT_DATE_YYYYMMDD: 2023/02/06
EVENT_TIME_HHMMSS: 01:17:32.00000
EVENT_LATITUDE_DEGREE: 37.288
EVENT_LONGITUDE_DEGREE: 37.043
EVENT_DEPTH_KM: 8.6
HYPOCENTER_REFERENCE: AFAD
MAGNITUDE_W: 7.7
MAGNITUDE_W_REFERENCE: AFAD
MAGNITUDE_L: 
MAGNITUDE_L_REFERENCE: 
FOCAL_MECHANISM: 
NETWORK: TK
STATION_CODE: 5103
STATION_NAME: 
STATION_LATITUDE_DEGREE: 37.83234
STATION_LONGITUDE_DEGREE: 34.9909
STATION_ELEVATION_M: 1536.0
LOCATION: Kahramanmaras_Pazarck_Turkiye
SENSOR_DEPTH_M: 
VS30_M/S: None
SITE_CLASSIFICATION_EC8: unknown
MORPHOLOGIC_CLASSIFICATION: 
EPICENTRAL_DISTANCE_KM: 190.74
EARTHQUAKE_BACKAZIMUTH_DEGREE: 
DATE_TIME_FIRST_SAMPLE_YYYYMMDD_HHMMSS: 2023/02/06 01:17:44.8957470
DATE_TIME_FIRST_SAMPLE_PRECISION: millisecond
SAMPLING_INTERVAL_S: 0.01
NDATA: 13501
DURATION_S: 
STREAM: HNZ
UNITS: cm/s^2
INSTRUMENT: sensor = GMS+/GEOSIG | digitizer = 
INSTRUMENT_ANALOG/DIGITAL: 
INSTRUMENTAL_FREQUENCY_HZ: 
INSTRUMENTAL_DAMPING: 
FULL_SCALE_G: 
N_BIT_DIGITAL_CONVERTER: 
PGA_CM/S^2: 6.372
TIME_PGA_S: 
BASELINE_CORRECTION: BASELINE REMOVED
FILTER_TYPE: BUTTERWORTH
FILTER_ORDER: 
LOW_CUT_FREQUENCY_HZ: 
HIGH_CUT_FREQUENCY_HZ: 
LATE/NORMAL_TRIGGERED: 
DATABASE_VERSION: 
HEADER_FORMAT: DYNA 1.2
DATA_TYPE: Acceleration
PROCESSING: Automatic Paolucci et al., 2011
DATA_TIMESTAMP_YYYYMMDD_HHMMSS: 
DATA_LICENSE: U (unknown license)
DATA_CITATION: Turkish Accelerometric Archive v 1.0 - Disaster And Emergency Management Presidency, Earthquake Department
DATA_CREATOR: AFAD
ORIGINAL_DATA_MEDIATOR_CITATION: : AFAD - Disaster And Emergency Management Presidency
ORIGINAL_DATA_MEDIATOR: AFAD PROCESS SERVICE
ORIGINAL_DATA_CREATOR_CITATION: AFAD PROCESS SERVICE
ORIGINAL_DATA_CREATOR: network: TK
USER1: GuestUser
USER2: 
USER3: 
USER4: 
USER5: 
[...]
0.034477
-0.563508
-1.105642
-1.498930
-1.714537
-1.825457
-1.881306
-1.866239
-1.752979
-1.574778
-1.371378
-1.143042
-0.936525
-0.844567
-0.863529
-0.922236
-0.847941
-0.493877
-0.042919
0.249840
0.321018
0.188797
-0.045513
-0.204750
-0.351778
-0.563748
-0.641677
-0.584787
-0.486854
-0.388921
-0.389439
-0.453601
-0.571795
-0.804546
-1.016256
-0.976771
-0.739861
-0.505030
-0.387874
-0.495937
-0.719077
-0.840907
-0.760378
-0.463722
-0.124205
0.092442
0.160762
0.123616
0.054778
-0.004967
-0.051205
-0.101599
-0.048866
0.205448
0.558214
0.864481
1.044501
1.135940
1.149968
1.031255
0.781879
0.470418
0.156619
-0.189391
-0.549169
-0.860890
-1.071561
-1.164557
-1.265086
-1.449261
-1.656814
-1.749291
-1.595508
-1.271576
-0.868675
-0.377453
0.129874
0.563168
0.848394
1.000099
1.092058
1.214929
1.468983
1.755248
1.963063
2.166462
2.423633
2.647294
2.693014
2.418440
1.827469
1.106874
0.467326
0.084169
-0.160532
-0.400297
-0.583432
-0.736694
-0.746825
-0.487575
-0.061815
0.351996
0.702424
1.048695
1.436010
1.853458
2.171675
2.283895
2.230643
2.127776
2.003608
1.886453
1.785405
1.575773
1.230802
0.795431
0.320836
-0.182074
-0.746549
-1.322193
-1.831598
-2.172672
-2.283592
-2.169034
-1.909005
-1.669238
-1.468697
-1.214123
-0.869411
-0.480018
-0.147254
0.031467
0.045495
-0.035811
-0.272199
-0.660032
-1.036695
-1.353870
-1.608962
-1.868209
-2.148758
-2.346181
-2.502041
-2.643873
-2.690890
-2.668030
-2.709332
-2.856620
-2.955850
-2.876620
-2.706991
-2.656595
-2.758683
-2.875838
-2.961560
-2.983899
-2.925451
-2.774525
-2.533979
-2.363311
-2.352919
-2.396819
-2.424354
-2.471890
-2.543585
-2.613202
-2.623592
-2.499163
-2.264332
-1.916502
-1.389172
-0.747285
-0.119425
0.460118
0.995501
1.428275
1.726489
1.936383
2.015093
1.893782
1.670383
1.527251
1.529850
1.571154
1.572194
1.542581
1.533230
1.597653
1.690911
1.768323
1.792222
1.695589
1.511155
1.294249
0.963046
0.527936
0.216215
0.153872
0.279340
0.495988
0.754457
1.049814
1.428037
1.949652
2.555951
3.148483
3.695555
4.146772
4.520320
4.892568
5.179612
5.356775
5.496271
5.550823
5.485622
5.340153
5.151302
4.884781
4.578775
4.326801
3.996897
3.510093
3.019132
2.664550
2.505573
2.452321
2.376989
2.307112
2.323479
2.334649
2.160865
1.772253
1.247783
0.703050
0.228455
-0.126387
-0.380699
-0.571887
-0.742294
-0.982579
-1.260010
-1.525752
-1.741099
-1.758243
-1.565754
-1.374044
-1.250394
-1.056346
-0.782290
-0.588503
-0.599412
-0.774495
-1.048809
-1.367803
-1.668094
-1.961631
-2.217502
-2.356217
-2.389466
-2.335694
-2.133074
-1.854342
-1.600548
-1.342338
-1.066204
-0.695254
-0.232087
0.220949
0.725159
1.330419
1.995426
2.682773
3.244911
3.569362
3.727562
3.700806
3.469354
3.148801
2.725640
2.206625
1.717742
1.244186
0.734003
0.291619
-0.011789
-0.205835
-0.364553
-0.544831
-0.679390
-0.852135
-1.173207
-1.511943
-1.721056
-1.713782
-1.588832
-1.520253
-1.507523
-1.537136
-1.599999
-1.641561
-1.631170
-1.507779
-1.363607
-1.301781
-1.168260
-0.945898
-0.754448
-0.570012
-0.347390
-0.149966
-0.051513
-0.063461
-0.189448
-0.355699
-0.593126
-0.989271
-1.437110
-1.901055
-2.363960
-2.701398
-2.911290
-3.019093
-2.965060
-2.754387
-2.427598
-2.092757
-1.914036
-1.835585
-1.748302
-1.721545
-1.804670
-1.915071
-2.016639
-2.151718
-2.327320
-2.485518
-2.486036
-2.301860
-1.991437
-1.532946
-0.943272
-0.343726
0.141261
0.543123
0.888096
1.161372
1.401139
1.602460
1.770011
1.855475
1.852619
1.773131
1.575448
1.356205
1.180083
0.999805
0.798485
0.643145
0.585997
0.595349
0.616391
0.576128
0.479236
0.368575
0.312206
0.364161
0.461834
0.563404
0.650947
0.706019
0.797198
1.053590
1.439606
1.784578
2.070843
2.356849
2.670649
2.939250
3.061082
3.079786
3.046537
2.970945
2.797940
2.468296
2.077086
1.743805
1.427148
1.029185
0.542640
0.065188
-0.291733
-0.520847
-0.631248
-0.572799
-0.360828
-0.185743
-0.154051
-0.186261
-0.245747
-0.370695
-0.578768
-0.721640
-0.727354
-0.661112
-0.585779
-0.644485
-0.874379
-1.262991
-1.757589
-2.211142
-2.509355
-2.611443
-2.595077
-2.520263
-2.385702
-2.146196
-1.858372
-1.663545
-1.501709
-1.292595
-0.990224
-0.598493
-0.235337
0.020016
0.156914
0.272771
0.366289
0.320311
0.162373
-0.069080
-0.302091
-0.418206
-0.428336
-0.318714
-0.129082
-0.023875
-0.039980
-0.062839
0.009377
0.109908
0.116923
0.010938
-0.116087
-0.189341
-0.279739
-0.447029
-0.695366
-0.918766
-0.966563
-0.871227
-0.726535
-0.594572
-0.490664
-0.377145
-0.222063
-0.057889
0.070697
0.131744
0.073037
-0.066198
-0.241540
-0.456108
-0.676390
-0.901349
-1.152284
-1.356460
-1.458548
-1.481147
-1.369706
-1.194362
-1.094610
-0.970440
-0.695865
-0.321538
0.026811
0.356198
0.773386
1.214992
1.602567
1.971178
2.287576
2.462401
2.388368
2.079245
1.715571
1.475026
1.372419
1.232664
0.979651
0.678581
0.484276
0.531035
0.662998
0.713393
0.660401
0.544806
0.464019
0.450771
0.497270
0.557018
0.599621
0.670278
0.775485
0.836531
0.802243
0.674698
0.414411
0.045541
-0.281765
-0.472694
-0.591147
-0.734538
-0.961315
-1.303429
-1.660868
-1.938300
-2.134164
-2.197546
-2.164555
-2.140915
-2.091818
-2.000120
-1.934138
-1.881924
-1.856985
-1.941669
-2.153119
-2.433667
-2.668497
-2.802796
-2.811887
-2.732137
-2.660441
-2.504839
-2.223250
-1.904514
-1.646823
-1.480571
-1.256910
-1.033508
-0.941030
-0.934535
-0.978955
-0.982071
-0.932195
-0.854004
-0.726197
-0.591896
-0.341999
0.131559
0.635509
1.005420
1.248304
1.371434
1.388320
1.296363
1.116605
0.838913
0.451600
0.057014
-0.210287
-0.291853
-0.241717
-0.133393
-0.075724
-0.106376
-0.120662
-0.062473
0.071048
0.303022
0.640981
1.031153
1.445224
1.897221
2.343763
2.780434
3.206973
3.568571
3.855096
4.037973
4.103695
4.093046
4.062394
4.018754
3.926797
3.826267
3.713269
3.550136
3.418434
3.361546
3.277901
3.072686
2.705634
2.231299
1.735662
1.225739
0.728284
0.330320
0.157316
0.224597
0.470598
0.904930
1.498761
2.149740
2.742531
3.222843
3.564698
3.817193
4.038517
4.094367
3.903958
3.534569
3.136865
2.873981
2.724356
2.562261
2.359643
2.136763
1.848681
1.524492
1.336420
1.431236
1.711787
1.982985
2.127677
2.090791
2.040916
2.100404
2.227171
2.336794
2.302505
2.191845
2.086380
1.957536
1.766348
1.540350
1.365787
1.249672
1.205252
1.111217
0.937433
0.757155
0.438161
0.076565
-0.257236
-0.731572
-1.303320
-1.853767
-2.285241
-2.494094
-2.477987
-2.259262
-1.897404
-1.518402
-1.117839
-0.674155
-0.240342
0.107748
0.294262
0.425966
0.583646
0.775355
1.081363
1.438025
1.697014
1.822743
1.873658
1.977306
2.131349
2.152132
1.953930
1.607660
1.221386
0.773806
0.244400
-0.250197
-0.666604
-1.033656
-1.379146
-1.667488
-1.825426
-1.845947
-1.734505
-1.543056
-1.376024
-1.284065
-1.202238
-1.102226
-1.058325
-1.063000
-1.149761
-1.350561
-1.577078
-1.838923
-2.148046
-2.468859
-2.784216
-2.999043
-3.050217
-2.895914
-2.552240
-2.055563
-1.379646
-0.647619
0.062067
0.758506
1.422993
2.057347
2.566753
2.929909
3.188639
3.318264
3.305536
3.132012
2.796653
2.359464
1.850060
1.258829
0.620840
-0.013513
-0.600068
-1.132332
-1.568481
-1.866174
-2.082560
-2.216600
-2.232445
-2.119185
-1.939165
-1.836816
-1.823047
-1.843828
-1.764078
-1.444823
-1.068418
-0.835405
-0.741109
-0.713573
-0.712273
-0.593039
-0.202347
0.321606
0.853611
1.320675
1.640970
1.862552
2.077641
2.337150
2.598477
2.765769
2.762652
2.683164
2.647577
2.600560
2.474573
2.231431
1.909060
1.653189
1.531878
1.520969
1.555779
1.536037
1.525647
1.597084
1.662547
1.664885
1.578643
1.457332
1.337061
1.170031
0.955723
0.708684
0.373065
-0.139716
-0.770172
-1.386341
-1.926917
-2.394238
-2.753237
-2.930917
-2.897666
-2.636339
-2.262272
-1.857293
-1.389450
-0.915893
-0.464935
-0.053462
0.314630
0.725584
1.233171
1.726472
2.123138
2.493048
2.774638
2.929460
2.973362
2.826074
2.477207
1.905458
1.144339
0.268402
-0.649617
-1.516461
-2.319923
-3.028829
-3.627853
-4.132581
-4.558080
-4.934743
-5.253997
-5.485969
-5.672481
-5.859513
-5.927052
-5.776646
-5.436089
-5.018381
-4.622754
-4.209462
-3.788638
-3.363656
-2.891917
-2.394201
-1.881678
-1.449683
-1.202124
-1.151728
-1.311224
-1.618789
-1.891544
-2.011816
-2.052339
-2.124034
-2.297039
-2.537323
-2.756307
-2.927753
-3.050622
-3.175570
-3.272462
-3.274020
-3.172710
-2.979442
-2.770328
-2.525106
-2.204552
-1.828926
-1.349654
-0.797127
-0.189269
0.449761
1.046709
1.656904
2.281907
2.876776
3.354230
3.679980
3.960271
4.194842
4.427595
4.664244
4.800363
4.810235
4.731526
4.652558
4.620607
4.579045
4.393572
4.041847
3.649338
3.325408
3.079928
2.944330
2.927966
2.852374
2.634170
2.287900
1.848633
1.388585
0.996077
0.769820
0.631624
0.512391
0.385625
0.204308
0.095986
0.179112
0.412125
0.756318
1.124150
1.376646
1.517960
1.633558
1.854881
2.176734
2.476767
2.705623
2.810311
2.850056
2.815767
2.624839
2.324028
1.946067
1.497968
1.029607
0.686455
0.523841
0.451626
0.389023
0.353176
0.447732
0.663340
1.005975
1.415110
1.723715
1.920360
1.996993
2.027906
2.114409
2.221954
2.337552
2.453149
2.491336
2.343269
2.000116
1.510195
0.899481
0.143298
-0.701467
-1.512721
-2.307091
-3.039376
-3.655284
-4.104682
-4.343148
-4.492514
-4.573041
-4.537712
-4.356393
-4.041554
-3.687229
-3.350310
-3.091580
-2.899351
-2.664000
-2.327860
-1.926777
-1.478157
-1.029278
-0.737038
-0.600659
-0.465579
-0.282182
-0.051507
0.235797
0.581030
0.960292
1.261363
1.394625
1.351245
1.215906
1.043162
0.782615
0.507002
0.288538
0.168786
0.131120
0.079947
0.065661
0.123330
0.268021
0.439209
0.541818
0.608320
0.638973
0.603905
0.437395
0.155548
-0.198515
-0.604012
-1.023796
-1.479948
-1.905187
-2.228078
-2.416149
-2.472778
-2.451476
-2.406795
-2.395624
-2.347566
-2.211447
-2.043636
-1.873747
-1.750357
-1.669568
-1.584623
-1.524356
-1.485910
-1.525393
-1.646964
-1.723855
-1.766975
-1.757103
-1.702032
-1.609294
-1.409271
-1.218861
-1.091314
-1.008187
-0.932334
-0.785824
-0.592037
-0.367337
-0.146533
0.052710
0.145967
0.036866
-0.244462
-0.647881
-1.069743
-1.495242
-1.888270
-2.215837
-2.491710
-2.614839
-2.610682
-2.531452
-2.390657
-2.216871
-1.995548
-1.736559
-1.431331
-1.048692
-0.579030
-0.090666
0.389126
0.836707
1.093619
1.137001
1.026860
0.809954
0.616948
0.442384
0.282108
0.236390
0.209115
0.127549
0.101313
0.093781
0.069623
0.131189
0.278218
0.488112
0.724242
0.945305
1.263002
1.706686
2.159982
2.590938
3.030986
3.491295
3.851594
4.009534
4.055773
4.073958
4.100975
4.078895
3.931348
3.699636
3.459351
3.256733
3.098016
3.049959
3.103992
3.188417
3.241671
3.180626
2.999568
2.721877
2.345474
1.836850
1.240943
0.624514
0.087055
-0.247525
-0.425725
-0.546516
-0.662112
-0.747315
-0.760822
-0.686528
-0.594309
-0.592490
-0.635611
-0.665483
-0.655611
-0.619763
-0.675872
-0.844460
-0.961615
-0.892775
-0.723666
-0.572740
-0.460259
-0.365963
-0.202048
0.030185
0.233584
0.453349
0.767409
1.080170
1.328769
1.445925
1.349292
1.098617
0.703511
0.213849
-0.249057
-0.608834
-0.848340
-0.936400
-0.883147
-0.815866
-0.760535
-0.811189
-1.000039
-1.229673
-1.541394
-1.901951
-2.288745
-2.698658
-3.107791
-3.544460
-3.959569
-4.271029
-4.419616
-4.476504
-4.421692
-4.233879
-4.053080
-3.836693
-3.592250
-3.388851
-3.225456
-3.143629
-3.136094
-3.081023
-2.846452
-2.486153
-2.031298
-1.508385
-0.991965
-0.436580
0.089970
0.539369
0.986950
1.336079
1.519736
1.581821
1.531947
1.451679
1.430379
1.446226
1.423367
1.397651
1.439994
1.618975
1.960051
2.332818
2.694936
3.053676
3.439432
3.897664
4.362649
4.771005
5.056491
5.229757
5.298596
5.199885
5.024802
4.825301
4.556183
4.318756
4.098733
3.812989
3.510620
3.172663
2.818600
2.494670
2.231007
2.086057
2.035663
1.987866
1.814602
1.502621
1.080239
0.624348
0.253400
-0.073647
-0.279383
-0.334193
-0.336530
-0.283796
-0.232102
-0.081176
0.279643
0.757357
1.255852
1.629140
1.822148
1.873323
1.774872
1.614336
1.434058
1.177668
0.921278
0.719699
0.564099
0.506691
0.489027
0.380185
0.159383
-0.102981
-0.379114
-0.728501
-1.199200
-1.736659
-2.306069
-2.868466
-3.314486
-3.650106
-3.907795
-4.132493
-4.353295
-4.545263
-4.726060
-4.878543
-5.045833
-5.168183
-5.108955
-4.954652
-4.763202
-4.488627
-4.142096
-3.757898
-3.380454
-3.046132
-2.744281
-2.442170
-2.156425
-1.843663
-1.415045
-0.850829
-0.172834
0.506720
1.093796
1.500334
1.714384
1.849723
1.859595
1.717243
1.476959
1.139781
0.777406
0.467503
0.190591
-0.036705
-0.145806
-0.232308
-0.341410
-0.416482
-0.446355
-0.348162
-0.197755
-0.122941
-0.072026
-0.034618
0.020713
0.174237
0.379714
0.651432
1.030954
1.365276
1.601406
1.806104
1.967680
2.071588
2.121984
2.132116
2.107698
2.147184
2.300967
2.474493
2.625939
2.729327
2.802063
2.891424
2.965459
2.961303
2.828562
2.609319
2.409818
2.246425
2.056016
1.833915
1.574668
1.290742
1.126050
1.161119
1.341659
1.571554
1.717025
1.716766
1.675464
1.690012
1.795219
1.986668
2.146427
2.198381
2.140713
2.026936
1.912379
1.822500
1.811591
1.831594
1.895757
2.047203
2.221767
2.386721
2.489590
2.527776
2.587784
2.713772
2.859243
3.086800
3.455412
3.887147
4.414217
4.984668
5.509920
5.969190
6.287666
6.372092
6.190775
5.880353
5.471479
4.984934
4.470335
3.803771
2.983944
2.018907
0.906842
-0.212497
-1.236502
-2.061524
-2.641325
-2.999025
-3.208397
-3.358282
-3.381660
-3.264764
-3.070717
-2.834067
-2.617680
-2.434542
-2.292189
-2.174253
-2.009040
-1.776807
-1.469501
-1.093875
-0.718250
-0.383928
-0.080518
0.224970
0.433824
0.490194
0.549422
0.680606
0.804776
0.791269
0.615407
0.355899
0.145748
0.003396
-0.184416
-0.360797
-0.561597
-0.851237
-1.151009
-1.446364
-1.682752
-1.857055
-2.060193
-2.341521
-2.693506
-2.997953
-3.185505
-3.237198
-3.168358
-3.053800
-2.861571
-2.620245
-2.443602
-2.313458
-2.211888
-2.119929
-1.969523
-1.819116
-1.651305
-1.454660
-1.269185
-0.999805
-0.739517
-0.561575
-0.435587
-0.382333
-0.328041
-0.250629
-0.191661
-0.196856
-0.220494
-0.234521
-0.311671
-0.440775
-0.581049
-0.682097
-0.715087
-0.703657
-0.674302
-0.614555
-0.540780
-0.491683
-0.418168
-0.291919
-0.133720
-0.034228
-0.063841
-0.140472
-0.194762
-0.182033
-0.141768
-0.159431
-0.146702
-0.077603
-0.000970
0.069947
0.134630
0.211262
0.279842
0.384529
0.616503
1.039666
1.501534
1.814555
2.014837
2.128096
2.201871
2.219796
2.109915
1.950159
1.737410
1.392179
0.957848
0.529231
0.238552
0.111266
0.013854
-0.106158
-0.253186
-0.377873
-0.398134
-0.391639
-0.412420
-0.408263
-0.397092
-0.383064
-0.242269
0.014383
0.299609
0.611071
0.894739
1.194512
1.553512
1.974596
2.436465
2.820662
3.088224
3.212134
3.211875
3.112125
2.832875
2.360099
1.783934
1.181533
0.569001
-0.042492
-0.671649
-1.348863
-2.043482
-2.623543
-2.937861
-3.000204
-2.823302
-2.390008
-1.797217
-1.133769
-0.446422
0.210532
0.743836
1.138425
1.449627
1.746803
2.089178
2.388951
2.600662
2.732366
2.740679
2.635734
2.393111
2.091521
1.835651
1.610952
1.497694
1.462107
1.488604
1.573029
1.586538
1.572252
1.539262
1.549394
1.661614
1.839037
2.136212
2.540672
3.038647
3.595331
4.146819
4.640379
5.041981
5.323830
5.463586
5.507487
5.446183
5.348251
5.220966
5.041207
4.865345
4.539078
4.117215
3.732500
3.413765
3.216343
2.986968
2.767465
2.609008
2.463798
2.413664
2.434706
2.461463
2.433668
2.365090
2.285862
2.222220
2.196244
2.213129
2.287684
2.370291
2.452898
2.566937
2.796832
3.137389
3.497947
3.856168
4.126328
4.244523
4.247381
4.222444
4.220627
4.191274
4.116721
4.004502
3.807339
3.553806
3.249099
2.832952
2.391347
1.915713
1.372279
0.874045
0.428025
0.053440
-0.303220
-0.733655
-1.253190
-1.812470
-2.244723
-2.530986
-2.666065
-2.678013
-2.577482
-2.323168
-1.984430
-1.525420
-1.041211
-0.589994
-0.174104
0.127487
0.380762
0.525453
0.491165
0.383102
0.238932
0.028780
-0.222415
-0.547643
-0.900667
-1.213167
-1.568269
-1.875833
-2.136120
-2.433034
-2.662928
-2.857753
-2.956204
-2.871519
-2.714878
-2.549405
-2.427054
-2.325743
-2.308338
-2.444975
-2.600316
-2.781373
-3.067636
-3.418842
-3.725627
-3.918634
-3.998641
-3.963312
-3.833427
-3.624313
-3.432864
-3.355712
-3.274663
-3.139583
-2.975149
-2.824483
-2.798505
-2.831755
-2.935142
-3.138799
-3.332585
-3.471820
-3.606119
-3.781202
-3.991873
-4.320478
-4.625965
-4.790137
-4.811697
-4.554786
-4.135779
-3.639362
-3.081639
-2.460014
-1.736819
-0.994661
-0.229904
0.452507
1.011009
1.496516
1.823825
2.003325
2.035537
1.924097
1.701997
1.297019
0.723712
0.165212
-0.289381
-0.683968
-0.978803
-1.170771
-1.298836
-1.338579
-1.325850
-1.238827
-1.009191
-0.702924
-0.370680
-0.039215
0.250686
0.491232
0.714114
0.894394
0.874133
0.714636
0.510719
0.248354
-0.001542
-0.219746
-0.337420
-0.365734
-0.410933
-0.538738
-0.671219
-0.668101
-0.594845
-0.454829
-0.250911
-0.081801
0.046006
0.091466
0.147317
0.331493
0.540867
0.711795
0.819080
0.883763
0.950784
0.958318
0.948707
1.021703
1.058331
1.008716
0.968193
0.975208
1.077297
1.217833
1.357588
1.527218
1.723343
1.918690
2.065200
2.212749
2.342633
2.325749
2.165993
1.933761
1.618663
1.294734
1.041201
0.800137
0.558034
0.245534
-0.163080
-0.576630
-0.996414
-1.390481
-1.729477
-2.036782
-2.329280
-2.609309
-2.826214
-2.970644
-3.115854
-3.278987
-3.404714
-3.487839
-3.504723
-3.454327
-3.366265
-3.185985
-2.884394
-2.524355
-2.129247
-1.747647
-1.488398
-1.325523
-1.193560
-1.017176
-0.836377
-0.666488
-0.409317
-0.191371
-0.003038
0.269459
0.565595
0.840171
0.998370
0.977070
0.864332
0.678858
0.507412
0.463252
0.387401
0.182445
-0.101221
-0.437879
-0.799475
-1.202894
-1.676450
-2.173386
-2.600183
-2.924113
-3.213494
-3.432997
-3.529370
-3.599766
-3.622365
-3.595608
-3.624702
-3.748350
-3.930187
-4.093840
-4.131765
-3.959798
-3.651453
-3.262060
-2.836559
-2.526655
-2.367676
-2.265847
-2.251818
-2.319357
-2.420926
-2.638351
-2.869803
-3.054237
-3.266727
-3.464669
-3.714305
-4.025766
-4.330993
-4.667911
-4.985087
-5.214721
-5.363307
-5.429547
-5.421493
-5.315248
-5.106913
-4.855197
-4.576205
-4.318775
-4.051732
-3.740270
-3.478942
-3.184365
-2.844847
-2.561440
-2.274655
-1.995923
-1.757455
-1.549381
-1.494049
-1.671210
-1.962409
-2.294651
-2.573382
-2.745867
-2.918612
-3.027973
-3.087459
-3.142269
-3.074729
-2.947701
-2.736769
-2.439594
-2.245806
-2.096699
-1.970450
-1.897455
-1.816926
-1.731202
-1.601577
-1.434805
-1.250109
-1.121263
-1.021771
-0.939944
-0.924617
-0.782263
-0.579124
-0.432094
-0.320133
-0.354162
-0.395724
-0.389489
-0.425076
-0.454429
-0.494433
-0.529241
-0.676009
-1.010589
-1.390889
-1.793268
-2.150448
-2.390733
-2.600625
-2.749211
-2.793890
-2.738559
-2.507105
-2.242141
-2.118750
-2.090694
-2.135114
-2.264478
-2.378515
-2.430727
-2.489954
-2.488654
-2.473846
-2.579311
-2.809985
-3.205350
-3.650852
-4.065440
-4.509383
