EVENT_NAME: 202302060117
EVENT_ID: 13194
EVENT_DATE_YYYYMMDD: 2023/02/06
EVENT_TIME_HHMMSS: 01:17:32.00000
EVENT_LATITUDE_DEGREE: 37.288
EVENT_LONGITUDE_DEGREE: 37.043
EVENT_DEPTH_KM: 8.6
HYPOCENTER_REFERENCE: AFAD
MAGNITUDE_W: 7.7
MAGNITUDE_W_REFERENCE: AFAD
MAGNITUDE_L: 
MAGNITUDE_L_REFERENCE: 
FOCAL_MECHANISM: 
NETWORK: TK
STATION_CODE: 6009
STATION_NAME: 
STATION_LATITUDE_DEGREE: 40.00402
STATION_LONGITUDE_DEGREE: 36.22301
STATION_ELEVATION_M: 1099.0
LOCATION: Kahramanmaras_Pazarck_Turkiye
SENSOR_DEPTH_M: 
VS30_M/S: None
SITE_CLASSIFICATION_EC8: unknown
MORPHOLOGIC_CLASSIFICATION: 
EPICENTRAL_DISTANCE_KM: 310.29
EARTHQUAKE_BACKAZIMUTH_DEGREE: 
DATE_TIME_FIRST_SAMPLE_YYYYMMDD_HHMMSS: 2023/02/06 01:18:02.9766360
DATE_TIME_FIRST_SAMPLE_PRECISION: millisecond
SAMPLING_INTERVAL_S: 0.01
NDATA: 18251
DURATION_S: 
STREAM: HNE
UNITS: cm/s^2
INSTRUMENT: sensor = ACEBOX/SARA | digitizer = 
INSTRUMENT_ANALOG/DIGITAL: 
INSTRUMENTAL_FREQUENCY_HZ: 
INSTRUMENTAL_DAMPING: 
FULL_SCALE_G: 
N_BIT_DIGITAL_CONVERTER: 
PGA_CM/S^2: 4.074
TIME_PGA_S: 
BASELINE_CORRECTION: BASELINE REMOVED
FILTER_TYPE: BUTTERWORTH
FILTER_ORDER: 
LOW_CUT_FREQUENCY_HZ: 
HIGH_CUT_FREQUENCY_HZ: 
LATE/NORMAL_TRIGGERED: 
DATABASE_VERSION: 
HEADER_FORMAT: DYNA 1.2
DATA_TYPE: Acceleration
PROCESSING: Automatic Paolucci et al., 2011
DATA_TIMESTAMP_YYYYMMDD_HHMMSS: 
DATA_LICENSE: U (unknown license)
DATA_CITATION: Turkish Accelerometric Archive v 1.0 - Disaster And Emergency Management Presidency, Earthquake Department
DATA_CREATOR: AFAD
ORIGINAL_DATA_MEDIATOR_CITATION: : AFAD - Disaster And Emergency Management Presidency
ORIGINAL_DATA_MEDIATOR: AFAD PROCESS SERVICE
ORIGINAL_DATA_CREATOR_CITATION: AFAD PROCESS SERVICE
ORIGINAL_DATA_CREATOR: network: TK
USER1: GuestUser
USER2: 
USER3: 
USER4: 
USER5: 
[...]
-0.311464
-0.252313
-0.185914
-0.102215
-0.015476
0.074770
0.161275
0.229544
0.288462
0.330312
0.362108
0.408634
0.458901
0.503790
0.542601
0.565747
0.569721
0.536055
0.458434
0.357434
0.242874
0.119663
-0.003081
-0.121849
-0.232669
-0.335773
-0.422746
-0.478155
-0.512991
-0.537072
-0.540813
-0.543384
-0.558113
-0.563023
-0.573309
-0.595754
-0.609080
-0.624978
-0.644149
-0.657008
-0.671269
-0.680153
-0.690440
-0.702597
-0.720600
-0.764553
-0.814352
-0.862046
-0.906468
-0.935458
-0.967021
-0.989465
-0.996479
-1.011675
-1.021494
-1.023598
-1.019857
-1.005128
-0.991334
-0.970993
-0.952991
-0.951821
-0.959770
-0.977305
-1.000684
-1.032714
-1.073629
-1.110802
-1.150781
-1.187020
-1.214140
-1.252249
-1.291059
-1.324725
-1.369147
-1.406086
-1.424790
-1.424556
-1.389954
-1.333842
-1.262534
-1.166910
-1.055857
-0.932879
-0.811538
-0.693470
-0.560907
-0.439098
-0.334591
-0.217692
-0.100793
0.000441
0.083440
0.144929
0.198702
0.240318
0.266738
0.288247
0.298534
0.297132
0.281935
0.249905
0.213433
0.167609
0.100743
0.017745
-0.077176
-0.175371
-0.275436
-0.378774
-0.475332
-0.561603
-0.638756
-0.703517
-0.757290
-0.806855
-0.851744
-0.890554
-0.920714
-0.924454
-0.899204
-0.855718
-0.785344
-0.692760
-0.588720
-0.468548
-0.338089
-0.191498
-0.024333
0.143767
0.312569
0.489554
0.660226
0.824586
0.993388
1.157046
1.307144
1.451397
1.579986
1.690806
1.792976
1.867791
1.925539
1.991470
2.042205
2.084288
2.134321
2.178275
2.218021
2.248181
2.266184
2.270158
2.247714
2.194876
2.098786
1.964119
1.799993
1.609682
1.420073
1.233035
1.051375
0.887016
0.729671
0.582379
0.438126
0.306966
0.196614
0.084157
-0.018947
-0.111297
-0.204815
-0.287346
-0.372448
-0.460355
-0.540781
-0.620740
-0.697659
-0.763355
-0.819934
-0.880955
-0.946652
-1.019129
-1.117090
-1.232118
-1.362576
-1.513142
-1.667915
-1.827598
-1.978865
-2.109090
-2.236977
-2.352005
-2.441783
-2.516364
-2.568033
-2.596322
-2.610584
-2.611285
-2.604972
-2.605673
-2.616194
-2.628819
-2.643548
-2.665291
-2.691242
-2.714855
-2.734026
-2.757406
-2.785461
-2.815387
-2.845781
-2.866588
-2.877343
-2.877109
-2.866821
-2.861911
-2.846013
-2.821464
-2.815385
-2.797616
-2.768391
-2.746414
-2.701993
-2.644011
-2.584158
-2.517760
-2.463051
-2.415590
-2.385196
-2.375844
-2.365557
-2.372804
-2.398522
-2.430084
-2.471466
-2.508873
-2.541838
-2.568257
-2.587428
-2.607769
-2.617120
-2.621328
-2.618289
-2.603326
-2.589531
-2.558436
-2.516352
-2.488764
-2.468657
-2.465384
-2.476606
-2.512143
-2.579710
-2.640497
-2.702219
-2.760435
-2.800881
-2.859097
-2.893465
-2.899777
-2.934846
-2.954953
-2.963135
-2.976695
-2.971785
-2.989086
-2.984878
-2.960563
-2.960329
-2.923388
-2.914738
-2.914971
-2.869614
-2.884110
-2.879667
-2.840857
-2.823088
-2.773055
-2.708761
-2.609630
-2.532009
-2.419553
-2.287457
-2.250984
-2.065349
-1.986325
-1.988196
-1.673504
-1.663217
-1.682388
-1.353435
-1.412352
-1.368865
-1.101167
-1.165461
-1.057213
-0.901036
-0.903140
-0.780630
-0.745327
-0.689215
-0.581200
-0.578395
-0.475290
-0.378498
-0.333141
-0.196837
-0.099811
-0.004421
0.157133
0.290398
0.438392
0.628469
0.815507
1.011897
1.217639
1.419172
1.620940
1.808679
1.973506
2.131086
2.278846
2.413981
2.553324
2.694304
2.832479
2.967614
3.076797
3.165173
3.250275
3.307556
3.329767
3.338885
3.326728
3.295867
3.260330
3.207726
3.158629
3.134314
3.112805
3.112337
3.139926
3.163306
3.182243
3.186452
3.167982
3.138290
3.082647
3.007364
2.921093
2.811910
2.697583
2.581386
2.466124
2.378217
2.310182
2.255240
2.219703
2.197025
2.184166
2.181595
2.186037
2.197961
2.219237
2.236772
2.244721
2.248228
2.226485
2.179492
2.120809
2.033136
1.924888
1.803781
1.663269
1.518549
1.371490
1.237291
1.128576
1.021730
0.929615
0.861580
0.801728
0.760346
0.737668
0.725744
0.731122
0.745150
0.763620
0.790040
0.811082
0.824408
0.843346
0.858309
0.864388
0.876780
0.900627
0.937100
0.988769
1.055168
1.137932
1.226775
1.310475
1.384823
1.439765
1.468289
1.476004
1.468056
1.443975
1.413581
1.391137
1.379213
1.381084
1.397450
1.424571
1.461043
1.496113
1.529546
1.558070
1.573501
1.586126
1.594777
1.604596
1.624469
1.637328
1.656968
1.680114
1.681049
1.681049
1.674737
1.644110
1.615587
1.581920
1.531888
1.480686
1.417328
1.331524
1.235668
1.130225
1.015665
0.898299
0.776958
0.656553
0.538252
0.422055
0.319184
0.226601
0.146642
0.078841
0.009404
-0.050215
-0.092532
-0.122925
-0.136485
-0.133212
-0.114040
-0.090660
-0.064475
-0.034548
-0.007661
0.025538
0.060842
0.092171
0.125370
0.146646
0.158803
0.159037
0.135658
0.104329
0.055232
-0.009529
-0.058159
-0.099541
-0.136481
-0.159159
-0.181603
-0.203580
-0.222751
-0.246832
-0.267640
-0.284005
-0.304112
-0.314165
-0.309489
-0.294759
-0.254546
-0.194226
-0.113332
-0.005317
0.113218
0.249288
0.403361
0.565850
0.736990
0.887790
1.023626
1.155020
1.253215
1.325927
1.379700
1.399339
1.395131
1.378532
1.350243
1.310731
1.264673
1.209965
1.156426
1.116213
1.090729
1.086521
1.096574
1.122058
1.169286
1.223059
1.299044
1.400979
1.508760
1.633842
1.766639
1.897800
2.035974
2.163394
2.278188
2.375214
2.441379
2.492815
2.518299
2.511519
2.498894
2.466864
2.421274
2.387607
2.353473
2.332665
2.340381
2.354643
2.378257
2.406546
2.422679
2.438811
2.445357
2.421978
2.387142
2.349267
2.300404
2.254346
2.226291
2.199872
2.163867
2.131136
2.100275
2.066608
2.050476
2.057958
2.078766
2.113602
2.166207
2.229332
2.290120
2.338984
2.379665
2.401174
2.397200
2.392290
2.379432
2.344596
2.304617
2.250844
2.179536
2.102149
2.015177
1.928438
1.847778
1.776938
1.714281
1.646480
1.591070
1.556001
1.527244
1.504098
1.480485
1.459209
1.437233
1.405670
1.370367
1.323140
1.267029
1.206710
1.134700
1.068068
1.004476
0.938545
0.881265
0.820712
0.766471
0.732571
0.688851
0.628765
0.569381
0.491760
0.385383
0.262406
0.116750
-0.036621
-0.185783
-0.349675
-0.506085
-0.640284
-0.767704
-0.870574
-0.953338
-1.029790
-1.095720
-1.170068
-1.250494
-1.327647
-1.409475
-1.482420
-1.555598
-1.641635
-1.725335
-1.805761
-1.884550
-1.958664
-2.016178
-2.043532
-2.059430
-2.058962
-2.028568
-1.992797
-1.946505
-1.880807
-1.803888
-1.696575
-1.578507
-1.464180
-1.332786
-1.203495
-1.074205
-0.943045
-0.830588
-0.718131
-0.621573
-0.547927
-0.479190
-0.439912
-0.411388
-0.380293
-0.367668
-0.354809
-0.336572
-0.314595
-0.282097
-0.240481
-0.184603
-0.126154
-0.066769
-0.001072
0.052234
0.096656
0.145052
0.181525
0.212152
0.257042
0.305672
0.353367
0.401295
0.443613
0.489905
0.545783
0.610077
0.676476
0.740770
0.818391
0.898116
0.960306
1.022029
1.081648
1.122562
1.144540
1.140331
1.116017
1.083519
1.035825
0.975973
0.920329
0.865387
0.804133
0.741943
0.682091
0.624577
0.564959
0.499262
0.436371
0.381896
0.333033
0.286274
0.232033
0.170778
0.117239
0.065102
0.004315
-0.034963
-0.050627
-0.069097
-0.077981
-0.084761
-0.096684
-0.097385
-0.098554
-0.082889
-0.042442
0.006889
0.079834
0.153714
0.229231
0.322984
0.391019
0.455314
0.533870
0.599100
0.658017
0.685371
0.690281
0.697529
0.671812
0.628092
0.582735
0.524754
0.476825
0.432872
0.384476
0.354784
0.350576
0.358291
0.369280
0.388919
0.414403
0.434510
0.450876
0.470282
0.493895
0.520548
0.553748
0.590688
0.626459
0.666205
0.704080
0.732370
0.764167
0.797834
0.809758
0.812330
0.823318
0.822851
0.816539
0.811395
0.792458
0.768845
0.729801
0.673923
0.617812
0.548608
0.476599
0.398745
0.300316
0.208668
0.112578
-0.000580
-0.106724
-0.208192
-0.309659
-0.410660
-0.511426
-0.612660
-0.708517
-0.784968
-0.855107
-0.914959
-0.942079
-0.954470
-0.950729
-0.923141
-0.892513
-0.847390
-0.790110
-0.754338
-0.728854
-0.706877
-0.709215
-0.713891
-0.712020
-0.728853
-0.741011
-0.734932
-0.734464
-0.730021
-0.720202
-0.720435
-0.726981
-0.741944
-0.762752
-0.771870
-0.769765
-0.764855
-0.747087
-0.709913
-0.671102
-0.637435
-0.604703
-0.581089
-0.565191
-0.546721
-0.525913
-0.498558
-0.458579
-0.415092
-0.367397
-0.319936
-0.284633
-0.238574
-0.178722
-0.124013
-0.053874
0.032865
0.123813
0.232295
0.340777
0.452298
0.569665
0.670198
0.772134
0.857002
0.920128
0.986760
1.027441
1.067655
1.105764
1.136625
1.174501
1.172397
1.179644
1.153927
1.098050
1.066955
0.944445
0.902362
0.852096
0.676748
0.751797
0.704337
0.510753
0.634432
0.556811
0.434068
0.561488
0.471710
0.432900
0.482231
0.388245
0.366969
0.296363
0.207520
0.165203
0.025860
-0.062281
-0.141071
-0.267087
-0.314782
-0.361541
-0.410638
-0.425601
-0.470022
-0.525432
-0.579205
-0.643265
-0.710365
-0.781205
-0.835680
-0.861631
-0.873087
-0.866774
-0.836147
-0.790088
-0.735613
-0.672488
-0.604920
-0.540626
-0.482410
-0.437287
-0.410400
-0.383279
-0.351015
-0.322725
-0.280408
-0.218919
-0.161405
-0.103189
-0.039830
0.023062
0.094604
0.164977
0.230207
0.299177
0.350847
0.379838
0.394100
0.390827
0.390126
0.390827
0.392932
0.423793
0.464708
0.501882
0.548875
0.599610
0.664138
0.742928
0.828965
0.934408
1.045930
1.145995
1.241151
1.318772
1.380027
1.434268
1.459285
1.469104
1.489211
1.492251
1.478691
1.468871
1.450869
1.440115
1.441751
1.441518
1.465365
1.493188
1.503475
1.521244
1.516568
1.498332
1.476121
1.425855
1.386811
1.329765
1.283473
1.253314
1.169381
1.172187
1.135013
0.967614
0.943533
0.830610
0.606398
0.562678
0.389201
0.138103
0.042948
-0.104344
-0.256780
-0.378822
-0.482160
-0.495253
-0.541310
-0.568197
-0.522372
-0.492446
-0.410851
-0.305642
-0.234333
-0.133566
-0.036307
0.026585
0.087840
0.139977
0.174346
0.188140
0.169904
0.148395
0.125717
0.071944
0.023080
-0.005209
-0.039343
-0.055475
-0.054773
-0.049162
-0.009416
0.043188
0.098832
0.175986
0.250567
0.324447
0.400432
0.455374
0.500965
0.540009
0.567597
0.589808
0.598459
0.594251
0.582795
0.551467
0.500499
0.444154
0.377054
0.299668
0.222047
0.139517
0.062130
-0.005437
-0.075810
-0.131219
-0.159742
-0.171198
-0.167691
-0.150624
-0.117658
-0.083757
-0.061546
-0.039803
-0.030217
-0.040270
-0.051492
-0.066455
-0.087964
-0.109473
-0.135191
-0.164649
-0.200186
-0.245776
-0.291834
-0.343503
-0.400315
-0.447308
-0.502718
-0.571688
-0.631540
-0.697003
-0.764103
-0.810394
-0.859959
-0.911628
-0.951373
-0.998600
-1.051672
-1.112927
-1.189612
-1.277286
-1.384365
-1.495418
-1.601328
-1.721500
-1.829981
-1.912512
-1.988729
-2.049282
-2.085521
-2.095106
-2.065414
-2.000886
-1.908535
-1.781116
-1.629147
-1.470633
-1.304169
-1.136536
-0.973345
-0.808985
-0.651873
-0.508322
-0.374589
-0.259093
-0.167912
-0.093564
-0.029738
0.019594
0.052326
0.078511
0.099319
0.111009
0.116153
0.116855
0.118258
0.121531
0.125740
0.136728
0.150523
0.158472
0.165954
0.169695
0.176475
0.196348
0.222767
0.265786
0.320963
0.376840
0.449785
0.529744
0.612275
0.708366
0.796274
0.877168
0.962037
1.031942
1.085248
1.126163
1.154686
1.167779
1.162636
1.156791
1.142530
1.113072
1.096472
1.083847
1.066079
1.067482
1.081510
1.099513
1.129439
1.164742
1.201916
1.231609
1.232778
1.209165
1.169653
1.111906
1.045741
0.979811
0.918088
0.871797
0.836026
0.807737
0.785526
0.771966
0.779214
0.789969
0.801191
0.837196
0.870396
0.881151
0.892139
0.901725
0.903830
0.903129
0.897518
0.896349
0.894479
0.876243
0.858708
0.847019
0.830419
0.814287
0.800260
0.792077
0.786232
0.769867
0.751865
0.730122
0.691312
0.646890
0.602937
0.554307
0.513626
0.484636
0.462425
0.454944
0.459386
0.469674
0.493054
0.524616
0.556413
0.587742
0.617201
0.645257
0.661155
0.671676
0.689445
0.697628
0.701135
0.711656
0.722645
0.741115
0.763326
0.786706
0.822010
0.856846
0.889110
0.919036
0.935402
0.943819
0.936338
0.902905
0.859653
0.804243
0.726857
0.631000
0.526493
0.418712
0.307425
0.205724
0.117816
0.042767
-0.007499
-0.035554
-0.034619
-0.003290
0.040898
0.105660
0.189827
0.282879
0.390192
0.500311
0.600610
0.691323
0.764035
0.809859
0.834642
0.847267
0.842825
0.826460
0.805652
0.779467
0.755152
0.731539
0.710965
0.701379
0.692963
0.685248
0.673324
0.653686
0.641061
0.630306
0.617915
0.620721
0.634048
0.646907
0.667949
0.700213
0.731542
0.755857
0.770119
0.768950
0.753286
0.722893
0.674497
0.616282
0.562041
0.499851
0.424802
0.365886
0.321464
0.280784
0.261613
0.263483
0.278914
0.308840
0.342274
0.382487
0.443508
0.523701
0.614414
0.718454
0.841900
0.970255
1.095570
1.219015
1.338486
1.458190
1.577895
1.696430
1.821044
1.945191
2.057414
2.156778
2.248894
2.336568
2.410916
2.471236
2.526646
2.575978
2.607073
2.619231
2.628583
2.636298
2.639805
2.642845
2.641209
2.632091
2.606373
2.562887
2.511920
2.451600
2.388007
2.326519
2.270408
2.223181
2.175019
2.131299
2.099269
2.076123
2.073318
2.086411
2.115402
2.161694
2.206817
2.257551
2.314832
2.367670
2.427523
2.487141
2.538577
2.592117
2.644020
2.689377
2.729824
2.764894
2.799963
2.832929
2.863557
2.904705
2.956609
3.016695
3.075846
3.116293
3.154636
3.193680
3.204201
3.199058
3.186667
3.148324
3.097824
3.051065
3.002435
2.950299
2.906345
2.881563
2.871510
2.885070
2.928089
2.989578
3.076785
3.181526
3.288372
3.401764
3.506271
3.600024
3.684893
3.751525
3.817222
3.876841
3.913080
3.948149
3.986960
4.019458
4.047280
4.067855
4.074401
4.059204
4.020628
3.965218
3.891806
3.797352
3.688169
3.569167
3.444787
3.326953
3.224316
3.135707
3.058788
2.991455
2.933240
2.881571
2.825226
2.755554
2.680038
2.584415
2.464711
2.348047
2.211275
2.049722
1.893312
1.713288
1.532563
1.376620
1.219041
1.104247
1.028497
0.953916
0.910430
0.873490
0.835615
0.814106
0.777867
0.742798
0.710768
0.654891
0.597611
0.531212
0.435823
0.332251
0.224004
0.110378
0.006339
-0.091155
-0.182569
-0.251071
-0.303208
-0.341784
-0.353708
-0.343187
-0.309753
-0.259721
-0.208051
-0.154044
-0.118506
-0.114765
-0.138145
-0.205245
-0.313726
-0.448159
-0.602465
-0.760045
-0.907570
-1.033353
-1.130379
-1.203323
-1.249147
-1.276969
-1.296140
-1.294737
-1.279774
-1.259433
-1.215245
-1.156796
-1.101152
-1.046443
-0.990565
-0.938195
-0.907567
-0.893773
-0.872731
-0.855430
-0.856832
-0.863378
-0.871093
-0.883952
-0.894005
-0.900317
-0.913410
-0.924164
-0.920189
-0.906395
-0.888626
-0.862207
-0.829943
-0.804692
-0.784819
-0.769155
-0.772662
-0.786923
-0.799080
-0.820122
-0.852853
-0.897742
-0.958062
-1.032175
-1.120083
-1.221083
-1.337747
-1.463998
-1.592118
-1.723746
-1.846957
-1.952633
-2.034696
-2.080520
-2.100860
-2.099691
-2.077714
-2.060179
-2.043111
-2.025109
-2.032356
-2.060411
-2.109275
-2.188766
-2.277141
-2.373699
-2.481012
-2.575699
-2.654956
-2.716445
-2.748942
-2.759229
-2.744734
-2.703585
-2.656358
-2.600246
-2.519586
-2.436120
-2.355460
-2.260538
-2.162577
-2.067655
-1.976240
-1.897918
-1.829415
-1.777745
-1.756703
-1.755300
-1.770263
-1.810944
-1.875939
-1.956599
-2.047312
-2.139896
-2.238090
-2.345871
-2.450144
-2.550443
-2.654015
-2.751508
-2.847598
-2.942520
-3.026687
-3.111555
-3.193384
-3.258613
-3.312854
-3.349326
-3.360548
-3.360314
-3.346520
-3.307475
-3.261885
-3.215826
-3.160182
-3.112020
-3.066429
-3.024579
-3.006577
-2.994887
-2.977118
-2.961453
-2.944853
-2.927084
-2.906978
-2.890845
-2.874947
-2.847592
-2.815094
-2.771140
-2.711054
-2.647461
-2.574984
-2.494324
-2.427691
-2.376723
-2.336510
-2.325755
-2.348901
-2.391451
-2.450134
-2.521910
-2.602570
-2.686503
-2.761084
-2.829820
-2.895984
-2.947186
-2.986463
-3.019896
-3.049588
-3.084424
-3.126507
-3.173968
-3.235690
-3.310505
-3.383917
-3.449146
-3.506193
-3.559498
-3.606491
-3.641327
-3.671253
-3.692528
-3.707725
-3.722220
-3.708659
-3.671953
-3.628466
-3.559496
-3.476965
-3.393266
-3.288758
-3.173730
-3.057065
-2.924501
-2.782820
-2.650724
-2.529851
-2.417862
-2.316627
-2.226148
-2.150631
-2.087739
-2.030692
-1.988375
-1.962423
-1.950733
-1.959150
-1.980659
-2.015728
-2.070670
-2.129353
-2.188270
-2.251395
-2.306103
-2.349122
-2.373436
-2.376008
-2.370630
-2.350524
-2.311713
-2.269863
-2.220999
-2.164420
-2.102931
-2.038169
-1.985798
-1.948858
-1.923608
-1.917061
-1.928985
-1.954001
-1.981822
-2.005670
-2.027413
-2.040973
-2.045882
-2.040505
-2.020164
-1.997953
-1.988367
-1.990471
-2.003563
-2.028112
-2.062246
-2.101290
-2.145010
-2.192237
-2.231982
-2.263311
-2.283651
-2.276169
-2.243671
-2.192235
-2.120693
-2.041436
-1.956100
-1.871231
-1.800156
-1.737966
-1.676945
-1.614053
-1.546252
-1.471904
-1.385165
-1.290009
-1.194620
-1.099464
-0.998931
-0.891150
-0.785006
-0.685642
-0.593058
-0.502812
-0.409761
-0.328399
-0.258259
-0.185548
-0.122189
-0.067948
-0.017681
0.026273
0.075137
0.113714
0.137093
0.163045
0.175904
0.172631
0.166553
0.158136
0.147849
0.127509
0.098285
0.062982
0.006871
-0.059995
-0.118678
-0.172217
-0.211261
-0.232771
-0.246331
-0.250071
-0.243291
-0.226925
-0.206818
-0.193024
-0.177827
-0.168475
-0.173384
-0.176189
-0.185775
-0.209856
-0.230196
-0.256849
-0.288411
-0.312024
-0.337040
-0.370941
-0.411621
-0.450431
-0.492047
-0.541144
-0.577850
-0.605204
-0.637702
-0.669498
-0.695216
-0.712049
-0.723505
-0.720465
-0.697319
-0.668795
-0.632323
-0.581355
-0.521503
-0.443648
-0.344985
-0.237906
-0.126150
0.001035
0.139677
0.269903
0.382593
0.483828
0.569865
0.624106
0.644447
0.634160
0.590674
0.521003
0.430523
0.336303
0.255176
0.188076
0.141317
0.112093
0.097130
0.095727
0.095026
0.095728
0.095260
0.079362
0.052710
0.021147
-0.020001
-0.070968
-0.118663
-0.159343
-0.199089
-0.227846
-0.243510
-0.249121
-0.238132
-0.217558
-0.188567
-0.157471
-0.135494
-0.116556
-0.104165
-0.097151
-0.090370
-0.092708
-0.101358
-0.110009
-0.120062
-0.120763
-0.100422
-0.061378
-0.011111
0.038454
0.078200
0.104151
0.110464
0.100177
0.086150
0.065108
0.035650
0.006893
-0.036827
-0.097146
-0.151855
-0.211940
-0.283015
-0.352452
-0.428670
-0.511200
-0.599809
-0.701043
-0.797601
-0.892756
-0.993055
-1.090081
-1.184535
-1.263558
-1.322475
-1.367597
-1.393081
-1.404771
-1.409680
-1.414356
-1.414356
-1.397522
-1.376480
-1.343982
-1.293014
-1.240877
-1.172140
-1.084700
-0.987440
-0.863527
-0.719742
-0.568241
-0.403881
-0.234144
-0.069083
0.098550
0.266650
0.420021
0.559832
0.688421
0.803450
0.907723
0.986747
1.045898
1.105984
1.151107
1.178462
1.199270
1.200907
1.186645
1.160226
1.124689
1.090789
1.044030
0.983009
0.915676
0.834081
0.743601
0.634652
0.509571
0.396881
0.279748
0.162850
0.073306
0.002232
-0.032136
-0.022784
0.011584
0.085231
0.182724
0.279750
0.394077
0.514249
0.621796
0.717420
0.790365
0.847411
0.890664
0.912641
0.931813
0.944672
0.944438
0.945841
0.936490
0.927839
0.917085
0.879444
0.838529
0.789432
0.716722
0.641673
0.549323
0.442946
0.343582
0.238841
0.139477
0.050167
-0.035169
-0.104139
-0.154405
-0.178252
-0.176615
-0.157911
-0.116061
-0.057612
0.008787
0.082667
0.153274
0.208684
0.254041
0.302204
0.344989
0.389177
0.452302
0.516363
0.573409
0.632794
