EVENT_NAME: 202302060117
EVENT_ID: 13194
EVENT_DATE_YYYYMMDD: 2023/02/06
EVENT_TIME_HHMMSS: 01:17:32.00000
EVENT_LATITUDE_DEGREE: 37.288
EVENT_LONGITUDE_DEGREE: 37.043
EVENT_DEPTH_KM: 8.6
HYPOCENTER_REFERENCE: AFAD
MAGNITUDE_W: 7.7
MAGNITUDE_W_REFERENCE: AFAD
MAGNITUDE_L: 
MAGNITUDE_L_REFERENCE: 
FOCAL_MECHANISM: 
NETWORK: TK
STATION_CODE: 5601
STATION_NAME: 
STATION_LATITUDE_DEGREE: 37.912
STATION_LONGITUDE_DEGREE: 41.931
STATION_ELEVATION_M: 890.0
LOCATION: Kahramanmaras_Pazarck_Turkiye
SENSOR_DEPTH_M: 
VS30_M/S: None
SITE_CLASSIFICATION_EC8: unknown
MORPHOLOGIC_CLASSIFICATION: 
EPICENTRAL_DISTANCE_KM: 436.13
EARTHQUAKE_BACKAZIMUTH_DEGREE: 
DATE_TIME_FIRST_SAMPLE_YYYYMMDD_HHMMSS: 2023/02/06 01:18:07.4259060
DATE_TIME_FIRST_SAMPLE_PRECISION: millisecond
SAMPLING_INTERVAL_S: 0.01
NDATA: 21001
DURATION_S: 
STREAM: HNZ
UNITS: cm/s^2
INSTRUMENT: sensor = CMG-5T/GURALP | digitizer = 
INSTRUMENT_ANALOG/DIGITAL: 
INSTRUMENTAL_FREQUENCY_HZ: 
INSTRUMENTAL_DAMPING: 
FULL_SCALE_G: 
N_BIT_DIGITAL_CONVERTER: 
PGA_CM/S^2: 12.436
TIME_PGA_S: 
BASELINE_CORRECTION: BASELINE REMOVED
FILTER_TYPE: BUTTERWORTH
FILTER_ORDER: 
LOW_CUT_FREQUENCY_HZ: 
HIGH_CUT_FREQUENCY_HZ: 
LATE/NORMAL_TRIGGERED: 
DATABASE_VERSION: 
HEADER_FORMAT: DYNA 1.2
DATA_TYPE: Acceleration
PROCESSING: Automatic Paolucci et al., 2011
DATA_TIMESTAMP_YYYYMMDD_HHMMSS: 
DATA_LICENSE: U (unknown license)
DATA_CITATION: Turkish Accelerometric Archive v 1.0 - Disaster And Emergency Management Presidency, Earthquake Department
DATA_CREATOR: AFAD
ORIGINAL_DATA_MEDIATOR_CITATION: : AFAD - Disaster And Emergency Management Presidency
ORIGINAL_DATA_MEDIATOR: AFAD PROCESS SERVICE
ORIGINAL_DATA_CREATOR_CITATION: AFAD PROCESS SERVICE
ORIGINAL_DATA_CREATOR: network: TK
USER1: GuestUser
USER2: 
USER3: 
USER4: 
USER5: 
[...]
2.496676
3.190854
3.559067
3.712642
3.856350
4.016710
4.025960
3.719422
3.144280
2.510544
1.980117
1.578288
1.259723
1.035525
0.982481
1.050942
1.126804
1.227028
1.409901
1.618986
1.774103
1.725685
1.340817
0.747480
0.227539
-0.103053
-0.307823
-0.416068
-0.392940
-0.253242
0.037874
0.534067
1.115067
1.585973
1.890041
2.170055
2.529325
2.866391
3.012256
2.982033
2.928990
2.920354
2.793914
2.500329
2.247142
2.213218
2.322386
2.337187
2.260398
2.264406
2.421990
2.568473
2.416746
1.894645
1.201699
0.695943
0.551000
0.645057
0.819603
1.024371
1.271696
1.511003
1.721322
1.882916
1.917454
1.780837
1.576376
1.368213
1.173312
1.059516
1.089737
1.250097
1.436978
1.492178
1.363580
1.158810
1.028669
1.069992
1.185019
1.314232
1.432343
1.563098
1.740728
1.837869
1.694159
1.294797
0.761903
0.169799
-0.508036
-1.210234
-1.839345
-2.267695
-2.264304
-1.903801
-1.529112
-1.308616
-1.077327
-0.748896
-0.557389
-0.686605
-1.005169
-1.093677
-0.808112
-0.523472
-0.502812
-0.612290
-0.691238
-0.721770
-0.690007
-0.632956
-0.537974
-0.312236
-0.014644
0.273080
0.595651
1.130085
1.853868
2.431167
2.672324
2.645185
2.475879
2.235337
1.940826
1.550099
1.148269
0.898166
0.822611
0.852831
0.939795
1.007948
0.982659
0.963538
1.143018
1.522641
1.886536
2.138796
2.170867
1.973190
1.713218
1.488403
1.296894
1.135606
1.093048
1.155958
1.200056
1.098287
0.907086
0.706633
0.490145
0.246518
0.003200
-0.110596
-0.080376
0.005355
0.121924
0.331318
0.631685
0.884561
1.034128
1.098271
0.947161
0.509250
0.097861
-0.034747
-0.064970
-0.300887
-0.734480
-0.984274
-0.895768
-0.752678
-0.846737
-1.095607
-1.212178
-1.103627
-0.929698
-0.804185
-0.669421
-0.461261
-0.187415
0.080264
0.357194
0.699811
1.069257
1.370550
1.561132
1.679243
1.742153
1.734750
1.691883
1.642540
1.529670
1.330142
1.157753
1.119820
1.309169
1.724873
2.158772
2.419358
2.474558
2.401778
2.195774
1.764957
1.068001
0.180154
-0.651875
-1.200805
-1.406191
-1.355309
-1.088555
-0.560290
0.161026
0.876483
1.370209
1.532728
1.382851
0.978246
0.326315
-0.572634
-1.603881
-2.474767
-2.994708
-3.178816
-3.151988
-2.958013
-2.464596
-1.625476
-0.658067
0.050296
0.389521
0.620810
0.829587
0.701605
0.046590
-0.821520
-1.418558
-1.571828
-1.477463
-1.335914
-1.085813
-0.584994
0.164693
0.965264
1.577720
1.883638
1.951482
1.895972
1.785568
1.646793
1.488589
1.289370
1.007812
0.733963
0.523334
0.375307
0.330898
0.467204
0.819072
1.251738
1.589420
1.750706
1.785552
1.699203
1.377246
0.821223
0.207840
-0.247648
-0.464445
-0.494977
-0.476783
-0.447179
-0.448722
-0.561284
-0.750327
-0.928884
-0.958182
-0.740462
-0.387052
-0.199862
-0.278810
-0.533230
-0.901445
-1.370811
-1.873483
-2.191431
-2.172621
-1.954592
-1.789606
-1.656076
-1.469811
-1.380997
-1.584534
-2.124212
-2.823943
-3.478958
-3.922111
-4.136749
-4.247769
-4.275217
-4.094503
-3.639017
-3.055550
-2.481027
-1.947827
-1.373303
-0.768249
-0.326640
-0.168131
-0.174608
-0.144695
-0.043546
-0.032136
-0.293341
-0.848130
-1.563281
-2.150450
-2.558756
-2.891815
-3.084249
-3.079625
-2.896752
-2.561845
-2.021861
-1.306405
-0.587247
-0.034619
0.330510
0.586161
0.758548
0.803880
0.676207
0.504743
0.515535
0.808810
1.358663
2.025086
2.612870
2.931432
2.821645
2.218131
1.266448
0.294720
-0.495060
-1.145449
-1.659840
-1.869544
-1.711342
-1.354848
-1.052939
-0.940687
-0.942538
-0.929279
-0.904609
-0.895359
-0.938225
-1.098588
-1.372128
-1.580290
-1.569806
-1.497337
-1.514607
-1.572585
-1.459408
-1.105998
-0.654521
-0.123788
0.550653
1.370036
2.229509
2.953292
3.371772
3.351417
2.878350
2.147781
1.390998
0.589191
-0.341522
-1.046187
-1.087512
-0.574974
0.045808
0.484333
0.706370
0.834658
0.873514
0.644998
0.116730
-0.481233
-0.822619
-0.771736
-0.463967
-0.198447
-0.226820
-0.496968
-0.702663
-0.814608
-1.126389
-1.824578
-2.693921
-3.340302
-3.632345
-3.603975
-3.418327
-3.124435
-2.504579
-1.632153
-0.964805
-0.808454
-1.132570
-1.704937
-2.231355
-2.633801
-2.977962
-3.307628
-3.602139
-3.750474
-3.669986
-3.343406
-2.889153
-2.216254
-1.123023
0.190395
1.361339
2.281564
2.973892
3.357524
3.382502
3.013979
2.185342
1.015013
-0.114301
-1.011708
-1.755538
-2.281956
-2.433992
-2.055602
-1.173308
-0.176295
0.591587
1.023020
1.028878
0.495676
-0.515834
-1.669202
-2.512333
-2.834907
-2.711554
-2.272103
-1.667358
-0.932165
-0.133135
0.544390
1.096093
1.608014
2.036054
2.362634
2.682122
3.047559
3.393260
3.638426
3.840419
4.044570
4.023290
3.468501
2.521752
1.624036
0.949902
0.341453
-0.211486
-0.421190
-0.412556
-0.725570
-1.504556
-2.385002
-3.145177
-3.870196
-4.521818
-4.775005
-4.573321
-4.319520
-4.243041
-4.155769
-3.942674
-3.889016
-4.269567
-4.972998
-5.536114
-5.582065
-5.149091
-4.446278
-3.505391
-2.283255
-0.691980
1.099439
2.681771
3.889104
4.980484
6.228833
7.369247
8.021793
8.023333
7.516961
6.577305
5.128502
3.248575
1.244676
-0.508197
-1.759940
-2.501612
-2.951858
-3.162179
-3.164339
-3.168965
-3.386071
-3.687674
-3.839094
-3.851122
-3.890288
-3.815043
-3.157563
-1.915382
-0.605664
0.348484
1.050680
1.800367
2.433793
2.516748
2.279597
2.234572
2.247831
2.028567
1.627046
1.308481
1.291827
1.606381
2.085304
2.590133
3.124874
3.679970
4.112019
3.962758
3.037905
1.890088
1.179872
0.761081
-0.002178
-1.147219
-2.062204
-2.103838
-1.282604
-0.053992
1.256959
2.440855
3.368174
4.001291
4.182621
3.811322
3.084145
2.184271
1.372287
0.814106
0.345665
-0.093479
-0.256000
0.155078
1.092573
2.003855
2.488022
2.754775
3.145500
3.479174
3.035712
1.590919
-0.223631
-1.747063
-2.966118
-4.155876
-5.095840
-5.334532
-4.822611
-3.940009
-2.925726
-1.665350
-0.158573
1.294545
2.125339
1.991189
1.232556
0.615781
0.544234
0.817773
1.180126
1.689272
2.387150
2.817965
2.670555
2.153389
1.412643
0.258658
-1.446414
-3.499964
-5.534085
-7.018352
-7.423882
-6.759926
-5.624446
-4.457820
-3.221498
-1.951254
-1.174428
-1.212361
-1.585819
-1.571325
-0.908295
-0.091379
0.266349
0.112771
-0.090457
0.255860
1.193355
2.190986
2.751632
2.763658
2.732510
2.845378
2.351341
1.044705
0.076060
0.123243
0.208356
-0.600235
-1.633641
-1.762856
-1.050792
-0.183918
0.348974
0.351440
0.209272
0.566692
1.654988
3.118899
4.288610
4.818726
4.632150
3.922859
2.994614
1.775559
0.310720
-0.788680
-1.110020
-1.043410
-1.017815
-1.184345
-1.450484
-1.677149
-1.781694
-1.909675
-2.049993
-1.688256
-0.683532
0.253654
0.199377
-0.596879
-1.087524
-0.856543
-0.417710
-0.214484
-0.214177
-0.280481
-0.440226
-0.679844
-0.967879
-1.472401
-2.018555
-2.337737
-2.462943
-2.569646
-2.534799
-2.285315
-1.611491
-0.438697
0.958603
2.410179
3.661303
4.433503
4.505356
3.949333
3.077831
2.345411
1.824853
1.401436
1.054808
0.811490
1.159966
2.450873
4.110301
5.354333
6.051594
6.480251
6.838287
6.906131
6.183580
4.977786
4.035354
3.302626
2.115952
0.588511
-0.080690
0.547801
1.656451
2.239918
1.991357
1.391543
1.279289
1.571947
1.168885
-0.159647
-1.683388
-2.699216
-2.898743
-2.543174
-1.852388
-0.934013
-0.162122
0.244947
0.261908
0.012113
-0.123270
-0.212086
-0.468666
-0.747757
-0.965479
-0.714762
0.263132
1.514873
2.517438
3.123417
3.591547
4.021437
4.263520
4.397050
4.393040
3.769481
2.457294
1.410627
1.583631
2.793432
3.883887
3.950189
2.763515
0.860150
-0.577551
-0.985856
-0.956869
-1.342662
-2.308839
-3.203162
-3.517101
-3.328061
-2.724549
-1.968386
-1.536645
-1.682822
-2.187961
-2.447624
-2.417094
-2.496968
-2.601512
-2.731344
-2.946908
-3.012595
-2.846992
-2.653018
-2.628965
-2.816466
-3.064410
-3.169879
-3.150452
-3.013529
-2.925332
-3.314209
-4.237212
-5.168233
-5.318727
-4.488242
-3.073673
-1.661878
-0.574816
0.278490
1.055623
2.164890
3.664574
5.180295
6.177617
6.693239
7.174321
7.515087
7.409618
6.972941
6.667328
6.396872
5.681722
4.720787
4.142560
3.979731
4.019512
4.086122
4.043255
3.807647
3.306517
2.876624
2.622821
2.041819
0.819989
-0.521187
-1.203957
-1.317444
-1.615347
-2.372746
-3.125828
-3.393201
-3.463822
-3.789480
-4.008436
-3.839133
-3.395057
-2.799871
-2.221955
-1.892599
-1.643424
-0.803996
0.634936
1.707505
1.684683
1.243380
1.391097
1.940949
2.097609
1.584143
0.831370
0.581267
0.963666
1.378137
1.401573
0.936216
0.383585
0.220139
0.302169
0.309878
0.107883
0.021225
0.373094
0.648173
0.210880
-0.431800
-0.282542
0.512787
0.937743
0.544240
-0.093813
-0.297658
-0.213778
-0.401587
-0.941265
-1.545396
-1.734438
-1.274018
-0.755004
-0.838886
-1.442709
-2.038205
-2.506029
-2.895523
-3.144392
-3.235059
-2.890900
-1.985478
-0.830878
0.071769
0.414386
0.349007
0.212699
0.170140
0.070838
-0.097542
0.012859
0.569497
1.056438
1.139085
1.301604
1.742904
2.092922
1.911590
1.342923
0.956822
0.965764
1.010170
0.915803
0.948491
1.036688
1.028669
0.742176
0.231487
-0.376962
-0.999905
-1.501343
-2.080494
-2.799962
-3.483349
-3.839228
-3.750106
-3.811167
-4.452613
-5.309313
-5.919612
-6.221832
-6.592823
-7.025799
-6.937601
-6.145665
-4.965470
-3.895985
-3.191939
-2.639927
-2.132632
-1.650008
-1.334837
-1.274703
-1.343166
-1.487801
-1.702131
-1.951000
-2.188151
-2.328159
-2.200180
-1.609620
-0.697413
-0.070772
-0.036234
-0.460267
-1.001487
-1.741000
-2.769780
-3.846976
-4.645391
-4.729582
-4.149507
-3.325190
-2.551448
-1.791584
-1.014142
-0.171013
0.569114
0.824457
0.535498
0.087719
0.022956
0.252087
0.480600
0.917583
1.806045
2.902051
3.773859
4.392482
4.989827
5.252879
4.818670
4.195727
3.875929
3.891964
4.048006
4.282071
4.803552
5.405214
5.703423
5.710514
5.643593
5.603502
5.457634
5.032984
4.566702
4.307347
4.319065
4.538327
4.780718
4.919182
4.956804
5.264573
5.819052
6.218412
6.233830
5.992362
5.782658
5.490614
4.858112
3.985376
3.462967
3.638130
4.027313
4.075728
3.736810
3.383089
3.440757
3.839191
4.207096
4.284500
4.148808
4.021135
3.890995
3.854604
3.995536
4.111488
4.238542
4.337533
4.477540
4.662571
4.542607
4.153730
3.898385
4.019580
4.266596
4.213553
3.691453
2.897355
2.164627
1.674291
1.019892
-0.006112
-1.026565
-1.684972
-1.963755
-2.301132
-2.851295
-3.256208
-3.236781
-2.965093
-2.797023
-2.776363
-2.609835
-2.149414
-1.723225
-1.546520
-1.360872
-0.931599
-0.534089
-0.333022
-0.095565
0.203877
0.516889
0.644868
0.469703
0.166558
-0.143989
-0.768782
-1.931093
-3.024326
-3.399325
-3.244516
-3.304653
-3.967069
-4.729711
-4.981973
-4.922763
-5.090835
-5.508084
-5.795810
-5.707921
-5.404161
-5.252436
-5.231467
-5.031325
-4.625797
-4.236922
-4.031846
-4.042024
-4.169080
-4.387111
-4.668053
-4.959479
-5.117375
-5.060324
-4.895955
-4.696738
-4.472542
-4.245571
-4.163232
-4.385272
-4.775074
-5.102582
-5.407886
-5.675876
-5.725219
-5.601865
-5.454149
-5.270968
-4.953331
-4.402245
-3.952309
-3.875830
-4.117607
-4.364626
-4.394541
-4.517588
-4.932370
-5.346534
-5.372440
-5.046168
-4.483979
-3.809538
-3.239641
-2.957776
-3.052452
-3.378110
-3.628829
-3.754036
-3.796902
-3.848713
-4.001057
-4.037448
-3.672627
-3.116607
-2.828883
-2.613938
-2.370930
-2.218588
-2.273174
-2.514642
-2.631522
-2.415035
-1.962325
-1.602130
-1.300837
-0.819755
-0.088262
0.663893
1.167179
1.238107
0.957782
0.512162
0.047730
-0.275152
-0.546226
-0.773816
-0.888846
-0.916293
-0.877438
-0.585705
0.016265
0.609909
1.037024
1.269546
1.411712
1.669830
2.126242
2.635079
2.968753
3.237356
3.476047
3.642266
3.806327
4.008627
4.098984
4.135064
4.249783
4.359259
4.366351
4.082634
3.662301
3.227166
2.671760
2.148735
1.977579
2.141640
2.389890
2.496899
2.421343
2.245253
2.099385
2.079956
2.083655
1.965542
1.672573
1.281537
1.073375
1.275367
1.699090
2.112327
2.263436
2.081795
1.863764
1.828915
2.010246
2.389869
2.870643
3.344016
3.663812
3.715311
3.650549
3.539837
3.215104
2.555772
1.632769
0.789946
0.404770
0.509620
0.733817
0.807520
0.827564
0.893558
0.898182
0.731961
0.450094
0.149107
-0.140469
-0.435597
-0.810905
-1.245731
-1.492442
-1.543019
-1.449270
-1.303713
-1.156613
-0.831883
-0.440849
-0.227138
-0.312871
-0.572534
-0.715318
-0.779155
-1.000270
-1.427079
-1.975392
-2.350391
-2.294883
-1.890589
-1.569867
-1.555066
-1.735165
-1.877641
-1.846186
-1.770324
-1.727151
-1.756758
-1.763852
-1.552916
-1.106373
-0.617273
-0.253069
-0.132491
-0.321533
-0.700542
-1.043160
-1.224185
-1.208766
-1.094048
-0.979946
-0.961752
-0.936465
-0.725530
-0.469570
-0.426705
-0.820825
-1.444693
-1.955999
-2.267163
-2.545329
-2.791114
-2.845700
-2.782482
-2.761821
-2.844778
-2.955490
-3.064352
-3.211762
-3.608657
-4.124898
-4.405839
-4.354648
-4.073709
-3.753296
-3.570424
-3.644438
-3.722461
-3.728938
-3.626555
-3.418086
-3.127278
-2.721134
-2.328250
-1.982241
-1.742626
-1.499618
-1.247667
-1.116295
-1.316440
-1.655358
-1.792283
-1.695142
-1.471563
-1.308119
-1.138816
-0.964270
-0.741924
-0.412568
0.035517
0.482986
0.777494
1.129671
1.713754
2.497981
3.197401
3.594294
3.839461
4.082777
4.312832
4.380368
4.302962
4.180222
4.132113
4.197181
4.244672
4.258548
4.359081
4.610415
4.991272
5.373979
5.541124
5.587997
5.751133
5.989823
5.950040
5.564555
5.282689
5.490849
6.122116
6.826162
7.558579
8.423912
9.467800
10.583543
11.495134
12.117457
12.411040
12.436327
12.238033
11.738754
11.063077
10.427490
9.926052
9.422764
8.792111
8.030703
7.071310
5.944155
4.895022
4.053433
3.205368
2.253685
1.321121
0.559405
0.004924
-0.542464
-1.138577
-1.633539
-1.801919
-1.662530
-1.451594
-1.309737
-1.145060
-0.896809
-0.631598
-0.439165
-0.340174
-0.222063
-0.029323
0.256859
0.477971
0.548591
0.481362
0.416908
0.313905
-0.049992
-0.606632
-1.202745
-1.870712
-2.668510
-3.386744
-3.796900
-3.953253
-4.124101
-4.424471
-4.839869
-5.381706
-6.015134
-6.593977
-6.987788
-7.223705
-7.375741
-7.494471
-7.576503
-7.677964
-7.885201
-8.097680
-8.264519
-8.401752
-8.574141
-8.796181
-9.009278
-9.069414
-8.902886
-8.696577
-8.574148
-8.547320
-8.445245
-8.199770
-7.999936
-7.877199
-7.715297
-7.521632
-7.351095
-7.135225
-6.769479
-6.320161
-5.884103
-5.525450
-5.257155
-5.019698
-4.821715
-4.768982
-4.868900
-5.045298
-5.244826
-5.340735
-5.258397
-5.106980
-5.032969
-5.082312
-5.263027
-5.465022
-5.553530
-5.460398
-5.173908
-4.721197
-4.153767
-3.575234
-3.101244
-2.760786
-2.464428
-2.143090
-1.822677
-1.393095
-0.689974
0.161173
0.958352
1.630634
2.262826
2.826556
3.122606
3.256445
3.409712
3.508087
3.409402
3.116125
2.834566
2.685614
2.574902
2.404980
2.176464
2.022270
2.046323
2.147164
2.146546
2.010855
1.778330
1.402097
0.922862
0.498213
0.272781
0.189207
0.210793
0.291897
0.267534
0.138935
0.022672
-0.070153
-0.093900
-0.022664
0.078486
0.132761
0.003545
-0.216644
-0.385949
-0.431900
-0.399521
-0.221274
0.249323
1.038484
1.988931
2.940920
3.706952
4.133142
4.387252
4.541752
4.501044
4.085646
3.521605
3.113916
2.918398
2.828348
2.793499
2.914077
3.203651
3.666847
4.135594
4.421159
4.420850
4.101360
3.602389
3.140733
2.863800
2.770049
2.603519
2.173318
1.564870
0.886418
0.215983
-0.352375
-0.712263
-0.772091
-0.634552
-0.501022
-0.403881
-0.220392
0.078434
0.425985
0.729745
0.903057
0.905215
0.822566
0.775690
0.771988
0.888557
1.152535
1.580267
2.013549
2.304357
2.560934
2.893374
3.244008
3.374763
3.159817
2.715122
2.312367
2.025875
1.661360
1.166090
0.833339
0.857392
1.020836
1.072027
0.988762
0.861397
0.702885
0.250480
-0.615780
-1.527989
-2.065817
-2.236973
-2.294643
-2.272748
-2.013396
-1.468169
-0.746853
-0.150126
0.191257
0.516296
0.907638
1.139544
1.070772
0.995525
1.144475
1.547535
2.057914
2.477011
2.720019
2.740063
2.533751
2.201000
1.953056
1.653303
1.159883
0.627297
0.147446
-0.243589
-0.659296
-1.176154
-1.602962
-1.953291
-2.440235
-2.995332
-3.299711
-3.346896
-3.347205
-3.304649
-3.146139
-2.905599
-2.753257
-2.840531
-3.068122
-3.187160
-3.135969
-3.026185
-2.756964
-2.247818
-1.578003
-0.869331
-0.314853
0.024372
0.222663
0.470297
0.769431
1.044511
1.256372
1.321440
1.261612
1.141957
0.908815
0.573906
0.263976
0.003388
-0.210017
-0.411395
-0.627575
-0.915918
-1.294618
-1.542871
-1.511416
-1.394847
-1.427229
-1.600543
-1.707863
-1.584201
-1.291235
-0.941834
-0.592432
-0.230079
0.205979
0.666708
1.033687
1.294581
1.546841
1.855227
2.142025
2.242867
2.183038
2.187046
2.415868
2.664427
2.756325
2.842981
3.057617
3.337631
3.634298
3.800209
3.781088
3.763817
3.668833
3.484416
3.345333
3.249732
3.073333
2.908962
2.851293
2.928388
3.217654
3.717856
4.371635
4.980390
5.366489
5.428474
5.211060
4.827426
4.403393
4.000638
3.771814
3.676213
3.516159
3.410689
3.443994
3.654005
3.940495
4.084510
4.028383
3.814361
3.542980
3.256179
2.949333
2.534243
2.013068
1.582250
1.399992
1.436072
1.477704
1.388579
1.207246
1.018821
0.932471
0.910266
0.750829
0.324020
-0.314342
-0.943452
-1.403258
-1.784425
-2.370978
-3.151198
-3.866349
-4.374571
-4.732918
-5.096816
-5.476441
-5.867477
-6.352262
-6.991549
-7.762826
-8.530710
-9.253262
-9.907968
-10.440245
-10.847626
-11.022482
-10.925341
-10.752646
-10.726126
-10.802915
-10.819261
-10.714410
-10.465852
-9.998338
-9.444168
-8.984056
-8.740123
-8.589323
-8.307767
-7.974093
-7.723684
-7.635178
-7.599098
-7.489622
-7.257716
-6.942238
-6.562614
-6.129640
-5.654726
-5.090996
-4.449860
-3.739338
-2.920264
-1.963957
-0.948132
0.037163
1.011665
1.991409
2.934146
3.687534
4.137778
4.369684
4.533128
4.664500
4.678993
4.659871
4.817764
5.189986
5.521809
5.720409
5.996723
6.511111
7.079467
7.236127
6.990341
6.690588
6.491986
6.441409
6.515421
6.549034
6.391139
6.179892
6.050369
6.062395
6.269630
6.604228
6.912922
7.063414
7.044910
6.912919
6.752248
6.648629
6.613164
6.565979
6.489190
6.375086
6.227676
6.053436
5.916511
5.872410
5.882895
5.973559
6.173393
6.418559
6.568742
6.417015
5.964610
5.427399
5.024028
4.744937
4.362536
3.814531
3.235380
2.800245
2.387005
1.961738
1.672470
1.514267
1.412190
1.337250
1.257994
1.165477
1.202482
1.418043
1.723962
1.981464
2.185306
2.452677
2.768772
2.983408
3.089801
3.119713
2.973537
2.606863
2.049299
1.346176
0.492560
-0.372775
-0.989242
-1.329394
-1.567778
-1.851495
-2.103140
-2.230196
-2.334740
-2.572508
-2.880587
-3.060378
-3.160297
-3.374318
-3.771522
-4.215600
-4.499009
-4.632850
-4.825901
-5.226805
-5.810583
-6.400836
-6.787554
-6.910294
-6.916154
-6.921706
-6.924483
-6.860339
-6.830427
-7.037664
-7.432709
-7.811101
-8.010628
-8.051645
-7.987810
-7.777799
-7.359628
-6.832904
-6.453898
-6.163707
-5.880917
-5.669365
-5.643462
-5.843606
-6.185300
-6.637088
-7.031824
-7.199587
-7.163507
-6.988961
-6.743178
-6.511581
-6.199494
-5.906836
-5.756961
-5.696519
-5.673699
-5.715024
-5.822652
-5.858426
-5.829439
-5.729831
-5.601543
-5.452902
-5.150067
-4.782780
-4.519418
-4.359983
-4.184512
-3.799338
-3.158203
-2.463100
-1.971224
-1.736543
-1.605171
-1.399787
-1.129641
