EVENT_NAME: 202302060117
EVENT_ID: 13194
EVENT_DATE_YYYYMMDD: 2023/02/06
EVENT_TIME_HHMMSS: 01:17:32.00000
EVENT_LATITUDE_DEGREE: 37.288
EVENT_LONGITUDE_DEGREE: 37.043
EVENT_DEPTH_KM: 8.6
HYPOCENTER_REFERENCE: AFAD
MAGNITUDE_W: 7.7
MAGNITUDE_W_REFERENCE: AFAD
MAGNITUDE_L: 
MAGNITUDE_L_REFERENCE: 
FOCAL_MECHANISM: 
NETWORK: TK
STATION_CODE: 3306
STATION_NAME: 
STATION_LATITUDE_DEGREE: 36.64169
STATION_LONGITUDE_DEGREE: 33.43956
STATION_ELEVATION_M: 317.0
LOCATION: Kahramanmaras_Pazarck_Turkiye
SENSOR_DEPTH_M: 
VS30_M/S: 490
SITE_CLASSIFICATION_EC8: B
MORPHOLOGIC_CLASSIFICATION: 
EPICENTRAL_DISTANCE_KM: 328.09
EARTHQUAKE_BACKAZIMUTH_DEGREE: 
DATE_TIME_FIRST_SAMPLE_YYYYMMDD_HHMMSS: 2023/02/06 01:18:06.0426890
DATE_TIME_FIRST_SAMPLE_PRECISION: millisecond
SAMPLING_INTERVAL_S: 0.01
NDATA: 18251
DURATION_S: 
STREAM: HNN
UNITS: cm/s^2
INSTRUMENT: sensor = GMS+/GEOSIG | digitizer = 
INSTRUMENT_ANALOG/DIGITAL: 
INSTRUMENTAL_FREQUENCY_HZ: 
INSTRUMENTAL_DAMPING: 
FULL_SCALE_G: 
N_BIT_DIGITAL_CONVERTER: 
PGA_CM/S^2: 9.504
TIME_PGA_S: 
BASELINE_CORRECTION: BASELINE REMOVED
FILTER_TYPE: BUTTERWORTH
FILTER_ORDER: 
LOW_CUT_FREQUENCY_HZ: 
HIGH_CUT_FREQUENCY_HZ: 
LATE/NORMAL_TRIGGERED: 
DATABASE_VERSION: 
HEADER_FORMAT: DYNA 1.2
DATA_TYPE: Acceleration
PROCESSING: Automatic Paolucci et al., 2011
DATA_TIMESTAMP_YYYYMMDD_HHMMSS: 
DATA_LICENSE: U (unknown license)
DATA_CITATION: Turkish Accelerometric Archive v 1.0 - Disaster And Emergency Management Presidency, Earthquake Department
DATA_CREATOR: AFAD
ORIGINAL_DATA_MEDIATOR_CITATION: : AFAD - Disaster And Emergency Management Presidency
ORIGINAL_DATA_MEDIATOR: AFAD PROCESS SERVICE
ORIGINAL_DATA_CREATOR_CITATION: AFAD PROCESS SERVICE
ORIGINAL_DATA_CREATOR: network: TK
USER1: GuestUser
USER2: 
USER3: 
USER4: 
USER5: 
[...]
2.071259
1.916177
1.633290
1.273251
0.913213
0.553174
0.267689
0.202227
0.353931
0.559407
0.646429
0.540183
0.321199
0.139880
0.059872
0.111825
0.334705
0.769557
1.368841
1.930199
2.322188
2.542471
2.637546
2.660146
2.607412
2.542470
2.640142
2.985374
3.519976
4.014054
4.231220
4.228362
4.131988
4.022105
3.923134
3.752466
3.557380
3.509062
3.684146
3.922093
3.991451
3.774804
3.285660
2.729237
2.312309
2.077739
2.041890
2.168916
2.267368
2.248405
2.104493
1.695878
1.017104
0.340148
-0.009240
0.030764
0.258061
0.518867
0.811625
1.142569
1.397401
1.480527
1.402336
1.222057
1.062819
0.973718
0.900983
0.773437
0.594196
0.501199
0.440933
0.234157
-0.091592
-0.416303
-0.635287
-0.747507
-0.797643
-0.784135
-0.747768
-0.733481
-0.781279
-0.909085
-1.081831
-1.287308
-1.536425
-1.859837
-2.319626
-2.822278
-3.189850
-3.470659
-3.718218
-3.846544
-3.795110
-3.585478
-3.274536
-2.815526
-2.242479
-1.714111
-1.271207
-0.880776
-0.533986
-0.319938
-0.369814
-0.631660
-0.874284
-0.968060
-0.965723
-0.929615
-0.853244
-0.682836
-0.397611
-0.036794
0.355715
0.722507
1.012148
1.218663
1.364912
1.501030
1.686244
1.943154
2.290464
2.726094
3.191858
3.627488
4.001554
4.360033
4.777740
5.207915
5.556783
5.766156
5.797068
5.705889
5.603280
5.498593
5.359877
5.175701
4.912036
4.523683
3.987262
3.392393
2.862726
2.404495
1.964707
1.535311
1.187741
0.997591
0.976289
1.112407
1.389320
1.738188
2.065495
2.264477
2.259801
2.096926
1.843392
1.559985
1.273980
0.955244
0.658329
0.461685
0.430512
0.617285
0.961997
1.352428
1.694542
1.991196
2.347857
2.809724
3.273410
3.623317
3.911399
4.208313
4.430674
4.509124
4.430674
4.212728
3.995302
3.722026
3.166382
2.517741
2.213553
2.359022
2.724515
3.048965
3.134429
2.922458
2.536962
2.106526
1.762593
1.598419
1.621278
1.827014
2.091717
2.199001
2.059765
1.794802
1.520227
1.160448
0.643250
0.141118
-0.149563
-0.225675
-0.126704
0.124751
0.484529
0.848724
1.093165
1.203826
1.359426
1.741545
2.287057
2.859585
3.368990
3.660449
3.600442
3.163512
2.410185
1.557367
0.893659
0.548947
0.481926
0.552583
0.608173
0.601678
0.591028
0.629733
0.652592
0.644799
0.724027
0.859366
0.967429
1.049516
1.067180
1.055230
1.087701
1.082245
0.884821
0.499065
0.130974
-0.057618
-0.107494
-0.074763
0.122400
0.548679
1.084320
1.524886
1.743091
1.706463
1.522547
1.452150
1.658405
2.024678
2.324969
2.440306
2.453034
2.414588
2.217944
1.815563
1.317068
0.979369
0.855719
0.692325
0.399826
0.072518
-0.239983
-0.573526
-0.972789
-1.447385
-1.957570
-2.333714
-2.551140
-2.795582
-3.096913
-3.344732
-3.452277
-3.404220
-3.317718
-3.299534
-3.267323
-3.047560
-2.621281
-2.190326
-1.886398
-1.650270
-1.411803
-1.134111
-0.857719
-0.657438
-0.504695
-0.261812
0.149920
0.551781
0.703744
0.588927
0.353057
0.137969
-0.029322
-0.195054
-0.337927
-0.394557
-0.330654
-0.151415
0.036397
0.136148
0.235639
0.413320
0.599573
0.699064
0.719585
0.822972
1.091572
1.402774
1.623576
1.712416
1.740471
1.694492
1.484599
1.162486
0.789719
0.481894
0.297458
0.121595
-0.055567
-0.107001
0.134582
0.648403
1.234699
1.803330
2.344946
2.838245
3.198023
3.388173
3.532344
3.718597
3.860950
3.833414
3.615209
3.260365
2.897210
2.708358
2.727840
2.797717
2.794080
2.736931
2.725241
2.796417
2.828628
2.732514
2.642634
2.736929
3.031506
3.380633
3.545586
3.471032
3.332316
3.216199
3.032023
2.623927
2.031656
1.493417
1.185591
1.179097
1.462503
2.010613
2.717701
3.391799
3.872889
4.011864
3.772358
3.341143
2.983961
2.939801
3.398291
4.171360
4.792984
5.075092
5.077429
4.860003
4.474247
4.020433
3.584282
3.232816
3.081630
3.093319
3.024221
2.717954
2.237123
1.708495
1.181426
0.667085
0.246780
0.022860
-0.000260
0.106764
0.281068
0.484726
0.706568
0.940878
1.109986
1.129988
1.052577
1.032834
1.198826
1.512885
1.798110
1.998131
2.247508
2.605727
2.952777
3.147602
3.123963
2.972258
2.824190
2.600010
2.189577
1.664845
1.197522
0.934637
0.848653
0.772801
0.580572
0.360289
0.243912
0.112729
-0.154053
-0.482919
-0.710476
-0.793343
-0.899069
-1.127145
-1.365093
-1.483288
-1.518876
-1.605639
-1.847743
-2.286491
-2.841616
-3.379336
-3.807693
-4.064085
-4.114480
-3.951346
-3.607933
-3.203215
-2.877726
-2.692252
-2.574058
-2.426510
-2.176094
-1.734489
-1.158324
-0.541376
0.133501
0.842148
1.485073
1.982528
2.271909
2.333993
2.332694
2.416859
2.506738
2.445173
2.201250
1.849524
1.393371
0.819804
0.169085
-0.468906
-0.932592
-1.107936
-1.008445
-0.707634
-0.348115
-0.046785
0.202332
0.418199
0.641859
0.916173
1.264782
1.641964
1.872118
1.889263
1.770808
1.591049
1.358296
0.998777
0.492749
-0.045750
-0.463717
-0.700107
-0.803754
-0.842200
-0.829472
-0.800378
-0.831291
-0.964033
-1.168211
-1.318617
-1.347191
-1.333684
-1.392911
-1.506950
-1.529290
-1.431098
-1.301994
-1.280174
-1.432917
-1.645148
-1.825427
-1.888292
-1.781527
-1.482015
-1.062490
-0.828959
-0.910527
-1.293685
-1.948560
-2.645777
-3.134401
-3.313901
-3.251038
-2.985815
-2.527325
-2.028311
-1.661519
-1.450328
-1.262257
-0.997294
-0.642970
-0.205002
0.310897
0.915376
1.496477
1.813393
1.734683
1.411012
1.129943
1.007072
1.001877
1.044998
1.057986
1.068636
1.201117
1.458287
1.662205
1.746629
1.850276
2.043024
2.272918
2.499695
2.784920
3.185482
3.602928
3.903220
4.044014
4.044793
3.935949
3.717744
3.324195
2.842066
2.461505
2.226155
2.118351
1.979115
1.667913
1.273585
0.834317
0.234772
-0.510502
-1.175508
-1.665171
-2.081060
-2.473829
-2.724506
-2.727363
-2.569944
-2.378496
-2.233805
-2.104701
-1.901563
-1.657122
-1.405407
-1.079658
-0.617791
-0.063706
0.443100
0.806775
1.030955
1.133822
1.125509
0.965232
0.588828
0.110855
-0.212556
-0.248924
-0.065788
0.210345
0.510636
0.785210
0.959255
0.986010
0.886259
0.708837
0.491411
0.330615
0.244891
0.186962
0.137346
0.014995
-0.172817
-0.487916
-0.939393
-1.553745
-2.302396
-2.784006
-3.046372
-3.222235
-3.106379
-2.703999
-2.154590
-1.581542
-1.033173
-0.688721
-0.447656
0.092141
0.822089
1.507096
2.168465
2.767230
3.234032
3.448081
3.274815
2.823338
2.330039
1.961947
1.749717
1.578529
1.379027
1.174589
0.889624
0.365931
-0.382201
-1.101239
-1.540247
-1.610385
-1.383088
-1.052404
-0.720680
-0.367137
0.022515
0.365668
0.578677
0.722848
0.870136
1.040284
1.061585
0.947806
0.996382
1.195364
1.452794
1.674116
1.658270
1.290957
0.668293
-0.016975
-0.778355
-1.574284
-2.201104
-2.631280
-2.980409
-3.313172
-3.658404
-4.042081
-4.463425
-4.915941
-5.344299
-5.665372
-5.891890
-6.066974
-6.135034
-5.970081
-5.500162
-4.807101
-4.041046
-3.266938
-2.474386
-1.693784
-1.092162
-0.836291
-0.891881
-1.146194
-1.573773
-2.173317
-2.913137
-3.689843
-4.365240
-4.893349
-5.334175
-5.718632
-5.951384
-5.970867
-5.841763
-5.695514
-5.593945
-5.403795
-5.052070
-4.652807
-4.265753
-3.811679
-3.314743
-2.922234
-2.640386
-2.463485
-2.408674
-2.313080
-2.060066
-1.697171
-1.244915
-0.650566
0.059119
0.737892
1.306784
1.749688
2.062708
2.274678
2.387677
2.389755
2.340398
2.370271
2.495739
2.556265
2.403521
2.080889
1.772024
1.547844
1.318209
1.053245
0.875044
0.857639
0.878680
0.845170
0.888291
1.143902
1.473028
1.619277
1.560309
1.393538
1.260277
1.254042
1.161824
0.911407
0.700735
0.576826
0.566954
0.705410
0.845685
0.848282
0.756843
0.593189
0.254711
-0.228717
-0.698638
-1.095823
-1.498724
-1.928380
-2.266338
-2.469218
-2.613389
-2.768990
-2.908486
-2.882769
-2.640666
-2.338556
-2.107103
-1.942411
-1.784992
-1.567047
-1.257144
-0.901262
-0.511871
0.005067
0.567205
0.913735
0.928541
0.662798
0.256521
-0.205606
-0.710855
-1.164670
-1.458728
-1.594067
-1.676934
-1.786816
-1.953587
-2.138023
-2.189977
-2.059833
-1.783700
-1.356642
-0.848796
-0.365888
0.015711
0.189755
0.125852
-0.052609
-0.236785
-0.400959
-0.523310
-0.549806
-0.546430
-0.733463
-1.184940
-1.825268
-2.564048
-3.249836
-3.838211
-4.406583
-4.938069
-5.280703
-5.288496
-5.063018
-4.849749
-4.744803
-4.670250
-4.528937
-4.368141
-4.263454
-4.148897
-3.828863
-3.177366
-2.270516
-1.291971
-0.397330
0.461722
1.354544
2.139043
2.604027
2.701959
2.620132
2.592336
2.762224
3.113430
3.545164
3.900786
3.898967
3.423332
2.610778
1.587811
0.479901
-0.560470
-1.437447
-1.993611
-2.073100
-1.786836
-1.397444
-1.024158
-0.645157
-0.318369
-0.226931
-0.454748
-0.890119
-1.359780
-1.773331
-2.155190
-2.528997
-2.904881
-3.274012
-3.568849
-3.757181
-3.872778
-4.013832
-4.168134
-4.209178
-4.154887
-4.086568
-4.037213
-4.005262
-3.968115
-3.908888
-3.813554
-3.655096
-3.381041
-3.019704
-2.605375
-2.113894
-1.648130
-1.293807
-1.043391
-0.871166
-0.576329
-0.077056
0.403255
0.713677
0.844080
0.755239
0.451311
0.007367
-0.552953
-1.103142
-1.454608
-1.590207
-1.621899
-1.713078
-1.959598
-2.384059
-2.952172
-3.549898
-4.049952
-4.265040
-4.038003
-3.423912
-2.651882
-1.988435
-1.631255
-1.672298
-1.980903
-2.198329
-2.066108
-1.524492
-0.514774
0.904078
2.384755
3.501237
3.967520
3.755029
3.099894
2.333579
1.646752
1.085393
0.819390
0.986940
1.401790
1.823133
2.130698
2.110695
1.742084
1.305674
0.897318
0.593909
0.624821
1.099157
1.927297
2.871033
3.661247
4.043625
3.774245
2.807389
1.449582
0.062940
-1.083676
-1.810247
-2.162493
-2.257828
-2.208472
-2.014686
-1.624255
-1.131735
-0.635579
-0.186440
0.246073
0.652609
0.963811
1.226696
1.446199
1.550366
1.521531
1.444120
1.399180
1.316833
1.163830
1.058363
1.023554
0.996278
1.017579
1.028749
0.714169
-0.023052
-0.850673
-1.434112
-1.710766
-1.899098
-2.111069
-2.357069
-2.768022
-3.259763
-3.658767
-3.867881
-3.816187
-3.572785
-3.274052
-3.120270
-3.280807
-3.727608
-4.290525
-4.769798
-5.058140
-5.143604
-5.013461
-4.670827
-4.269486
-4.033358
-4.039592
-4.264552
-4.592379
-4.805129
-4.745903
-4.345081
-3.552270
-2.486442
-1.483738
-0.736386
-0.216851
0.115912
0.346066
0.620120
0.985094
1.363056
1.717639
2.011956
2.173011
2.180025
2.023644
1.723092
1.350065
1.086920
1.039382
1.087179
1.241741
1.466180
1.689840
2.067022
2.507069
2.866328
3.203766
3.504577
3.851367
4.206469
4.393242
4.609628
5.045519
5.569730
6.045105
6.476319
6.912989
7.282119
7.458761
7.306796
6.801807
6.039388
5.025253
3.896042
2.907625
2.182612
1.725680
1.465392
1.382526
1.447208
1.533450
1.511370
1.305893
1.107690
1.163799
1.378887
1.602287
1.847767
2.225729
2.818519
3.567690
4.384659
5.252803
6.056005
6.434227
6.311616
5.940668
5.459057
4.980824
4.500773
3.961494
3.412085
2.960348
2.683435
2.366518
1.872439
1.332901
0.836744
0.527100
0.458781
0.532555
0.696208
0.813623
0.779073
0.552296
0.054580
-0.629389
-1.347648
-1.926411
-2.144876
-1.991873
-1.643785
-1.284786
-1.011770
-0.838505
-0.902408
-1.325830
-1.975251
-2.619216
-3.055366
-3.230450
-3.280586
-3.361114
-3.474114
-3.508143
-3.432551
-3.294355
-3.136676
-2.897430
-2.386467
-1.663274
-1.043727
-0.562638
-0.078171
0.401360
0.815430
1.144556
1.360942
1.306910
0.950768
0.478510
0.013784
-0.364958
-0.677978
-1.038536
-1.494949
-2.169047
-3.200066
-4.453447
-5.646301
-6.596533
-7.203611
-7.341548
-6.989303
-6.331311
-5.598506
-4.983896
-4.510859
-4.052368
-3.542185
-2.905754
-2.060729
-1.083222
-0.106755
0.799055
1.559915
2.010352
1.980219
1.484841
0.780610
0.272763
0.237435
0.675403
1.421976
2.195824
2.772509
3.016430
2.881610
2.497154
1.925924
1.345861
1.048946
1.055700
1.202988
1.231562
1.059855
0.736184
0.258471
-0.168069
-0.386014
-0.380819
-0.145730
0.201580
0.595128
1.048423
1.497041
1.913709
2.350378
2.752239
2.908359
2.727301
2.392459
2.078660
1.769795
1.351568
0.736957
0.034025
-0.501877
-0.696183
-0.627085
-0.459536
-0.184701
0.241837
0.761373
1.219343
1.490021
1.553664
1.493917
1.368189
1.137255
0.903983
0.603691
0.209623
-0.006505
-0.065212
-0.061316
-0.102100
-0.295887
-0.523444
-0.669175
-0.562410
-0.219777
0.134027
0.556149
1.170760
1.766927
2.030331
1.897070
1.532875
1.211022
1.126857
1.258300
1.490012
1.770561
2.103064
2.378937
2.483104
2.472713
2.430110
2.436085
2.607271
2.949385
3.364494
3.795449
4.176009
4.447985
4.661514
4.857379
4.985704
5.004667
5.047268
5.295346
5.694609
5.967105
5.809945
5.216635
4.484089
3.752063
2.981331
2.299700
1.788996
1.340117
0.928644
0.690436
0.712516
0.830970
0.817722
0.568864
0.099722
-0.443712
-0.875707
-1.165348
-1.483305
-1.911403
-2.356645
-2.799550
-3.296226
-3.866158
-4.438167
-4.938220
-5.386320
-5.726097
-5.810782
-5.590759
-5.170714
-4.662349
-4.124630
-3.658087
-3.360133
-3.156735
-2.853327
-2.386784
-1.734767
-0.932863
-0.122648
0.625484
1.221391
1.637019
1.954455
2.234225
2.591406
3.072496
3.459290
3.609435
3.573327
3.290959
2.867277
2.408527
1.766120
1.061370
0.598723
0.446239
0.531442
0.750946
0.940836
1.020584
1.028896
0.934341
0.668598
0.307000
0.098666
0.206210
0.523386
0.834068
1.024997
1.155141
1.238526
1.124747
0.784451
0.390123
0.123601
0.027746
-0.058757
-0.275144
-0.500883
-0.602972
-0.598037
-0.511534
-0.361908
-0.075385
0.418434
0.947061
1.293072
1.465817
1.536474
1.334114
0.652223
-0.422957
-1.658673
-2.873868
-4.022042
-5.130213
-6.130060
-6.956642
-7.653599
-8.225609
-8.749301
-9.285203
-9.504187
-9.189868
-8.586947
-7.834140
-6.884689
-5.857047
-4.961368
-4.231161
-3.638630
-3.181179
-2.727105
-2.135094
-1.533213
-1.233441
-1.330594
-1.637121
-1.949882
-2.232509
-2.385513
-2.343691
-2.312519
-2.273814
-2.149126
-2.071975
-2.046778
-1.983654
-1.786751
-1.489057
-1.235524
-1.035243
-0.813402
-0.620394
-0.544802
-0.553375
-0.609225
-0.695728
-0.722745
-0.583769
-0.355693
-0.298544
-0.629489
-1.377621
-2.324476
-3.250808
-4.018163
-4.413790
-4.517697
-4.480811
-4.166492
-3.742291
-3.541231
-3.502786
-3.478628
-3.495513
-3.422518
-3.140930
-2.739330
-2.212261
-1.675061
-1.308789
-1.050839
-0.773148
-0.463764
-0.165291
0.161496
0.555044
0.935864
1.144457
1.093542
0.823903
0.487763
0.277091
0.200199
0.145647
0.125645
0.192405
0.333718
0.452692
0.438144
0.279166
0.031347
-0.147373
-0.223226
-0.376489
-0.661975
-1.045133
-1.471672
-1.911459
-2.357741
-2.623744
-2.508667
-2.085245
-1.558956
-0.979674
-0.356751
0.179670
0.486196
0.593999
0.683619
0.854026
1.074828
1.081322
0.733493
0.178368
-0.702505
-1.958224
-3.247712
-4.282368
-4.940360
-5.164021
-5.033358
-4.702674
-4.253016
-3.774264
-3.310059
-2.825852
-2.342424
-1.856398
-1.337123
-0.893180
-0.673157
-0.660428
-0.747451
-0.897857
-1.119699
-1.379987
-1.610921
-1.761586
-1.853025
-1.946282
-2.073829
-2.208389
-2.301905
-2.326324
-2.200077
-1.879004
-1.429346
-0.916565
-0.371832
0.081723
0.230569
0.093412
-0.110247
-0.252340
-0.306372
-0.257017
-0.101156
0.104060
0.276026
0.271610
-0.173893
-1.027490
-1.785753
-2.239308
-2.518819
-2.555447
-2.322695
-1.989932
-1.731723
-1.692499
-1.795107
-1.731465
-1.453773
-1.142052
-0.838643
-0.521207
-0.224812
-0.077784
-0.141168
-0.355477
-0.638364
-0.874494
-0.989831
-0.972687
-0.839166
-0.628754
-0.492117
-0.679929
-1.236612
-1.957988
-2.595199
-2.980695
-3.123048
-3.113437
-3.001478
-2.737294
-2.216460
-1.601070
-1.130111
-0.715002
-0.247680
0.187691
0.508244
0.729047
0.778402
0.678391
0.598902
0.405374
0.196521
0.180415
0.092093
-0.093381
-0.085848
0.141968
0.341729
0.409788
0.460182
0.604094
0.890877
1.267800
1.662647
2.042687
2.428442
2.770556
3.015777
3.180209
3.232682
3.140724
2.779127
2.048139
1.059982
0.033119
-0.822297
-1.417945
-1.750449
-1.900854
-2.061651
-2.362203
-2.765883
-3.133455
-3.311396
-3.207489
-2.869531
-2.431823
-1.989179
-1.555626
-1.111683
-0.645660
-0.143789
0.366655
0.862812
1.370917
1.928379
2.491036
2.955760
3.335800
3.549849
3.352685
2.786131
2.074886
1.290646
0.558879
-0.026378
-0.506949
-0.868806
-1.065451
-1.046748
-0.762822
-0.238870
0.276509
0.523548
0.497051
0.311836
0.065576
-0.211337
-0.471884
-0.638136
-0.750096
-0.900502
-1.087795
-1.320808
-1.633568
-1.923210
-2.096476
-2.190512
-2.194928
-2.064525
-1.824760
-1.482905
-1.019740
-0.457862
0.102197
0.514968
0.755773
0.923583
1.076845
1.126461
1.090093
1.166984
1.283879
1.309336
1.286216
1.123082
0.806424
0.532888
0.374949
0.280134
0.277276
0.434955
0.794213
1.279200
1.717688
2.057723
2.319829
2.447375
2.342428
1.997976
1.542862
1.122817
0.828759
0.704070
0.755504
0.912923
1.019427
0.972409
0.788493
0.544311
0.320910
0.216223
0.348445
0.740434
1.275556
1.818471
2.345799
2.874686
3.337592
3.693994
3.914017
3.958177
3.881285
3.749583
3.646455
3.616841
3.555795
3.393959
3.131074
2.728953
2.322415
2.099015
1.825219
1.413227
1.133976
0.788224
0.259337
-0.132654
-0.433205
-0.756617
-1.063923
-1.400063
-1.709446
-1.992334
-2.323279
-2.584606
-2.687734
-2.756832
-2.947762
-3.354559
-3.943453
-4.530789
-4.980188
-5.287493
-5.495048
-5.697668
-5.957696
-6.164212
-6.184214
-6.022639
-5.713255
-5.212683
-4.502997
-3.743696
-3.161556
-2.896334
-2.919194
-3.067781
-3.223383
-3.351448
-3.477696
-3.607061
-3.726814
-3.768377
-3.817734
-4.010482
-4.124260
-4.215439
-4.390004
-4.344285
-4.145043
-4.015939
-3.802150
-3.318722
-2.622545
-1.897792
-1.312795
-0.950939
-0.729098
-0.466732
-0.135788
0.175413
0.475965
0.826651
1.250852
1.638165
1.831172
1.827276
1.692716
1.475549
1.253447
1.107717
1.105119
1.288775
1.630629
2.003655
2.250175
2.281606
2.070934
1.600234
0.903796
0.094879
-0.739496
-1.469185
-1.972615
-2.305118
-2.566705
-2.798678
-3.018962
-3.225478
-3.363934
-3.401601
-3.309384
-3.067280
-2.715035
-2.351880
-2.170562
-2.070812
-1.827150
-1.604529
-1.542705
-1.524261
-1.532055
-1.621415
-1.741948
-1.874949
-1.901706
-1.748703
-1.675708
-1.735975
-1.742469
-1.669735
-1.601416
-1.629991
-1.740652
-1.906385
-2.069259
-2.031074
-1.689220
-1.118770
-0.508056
-0.050864
0.232542
0.395936
0.438797
0.332032
0.111229
-0.101781
-0.273228
-0.363368
-0.303621
-0.247772
-0.354277
-0.433506
-0.297388
-0.108278
0.062390
0.310987
0.556987
0.716484
0.761424
0.648684
0.426842
0.142136
-0.129062
-0.305964
-0.395585
-0.304926
0.017446
0.524253
1.132109
1.672946
2.039997
2.189623
2.138189
1.987523
1.873745
1.872446
1.981807
2.094027
2.065452
1.881276
1.553449
1.241727
1.028717
0.823500
0.767390
0.917795
1.149508
1.369531
1.557343
1.747233
1.912705
2.140001
2.528354
3.048149
3.558593
3.848494
3.923306
3.942269
4.004093
4.094752
4.127223
4.170344
4.354000
4.627015
4.856650
4.905486
4.705724
4.374000
4.069552
3.933173
4.066434
4.233724
4.196577
4.034741
3.885374
3.747957
3.477018
3.251799
3.175947
3.101393
3.066324
2.903189
2.584973
2.257925
1.922045
1.659679
1.477581
1.317045
1.151832
1.014674
0.963759
1.039611
1.267687
1.509271
1.611879
1.565900
1.469266
1.449263
1.518361
1.627203
1.722798
1.955809
2.464175
2.910196
3.092553
3.166326
3.225813
3.300366
3.367646
3.410767
3.401155
3.426872
3.607670
3.825615
4.014725
