EVENT_NAME: 202302060117
EVENT_ID: 13194
EVENT_DATE_YYYYMMDD: 2023/02/06
EVENT_TIME_HHMMSS: 01:17:32.00000
EVENT_LATITUDE_DEGREE: 37.288
EVENT_LONGITUDE_DEGREE: 37.043
EVENT_DEPTH_KM: 8.6
HYPOCENTER_REFERENCE: AFAD
MAGNITUDE_W: 7.7
MAGNITUDE_W_REFERENCE: AFAD
MAGNITUDE_L: 
MAGNITUDE_L_REFERENCE: 
FOCAL_MECHANISM: 
NETWORK: TK
STATION_CODE: 6304
STATION_NAME: 
STATION_LATITUDE_DEGREE: 37.36509
STATION_LONGITUDE_DEGREE: 38.51316
STATION_ELEVATION_M: 617.0
LOCATION: Kahramanmaras_Pazarck_Turkiye
SENSOR_DEPTH_M: 
VS30_M/S: 376
SITE_CLASSIFICATION_EC8: B
MORPHOLOGIC_CLASSIFICATION: 
EPICENTRAL_DISTANCE_KM: 130.27
EARTHQUAKE_BACKAZIMUTH_DEGREE: 
DATE_TIME_FIRST_SAMPLE_YYYYMMDD_HHMMSS: 2023/02/06 01:17:34.4945500
DATE_TIME_FIRST_SAMPLE_PRECISION: millisecond
SAMPLING_INTERVAL_S: 0.01
NDATA: 12501
DURATION_S: 
STREAM: HNN
UNITS: cm/s^2
INSTRUMENT: sensor = CMG-5T/GURALP | digitizer = 
INSTRUMENT_ANALOG/DIGITAL: 
INSTRUMENTAL_FREQUENCY_HZ: 
INSTRUMENTAL_DAMPING: 
FULL_SCALE_G: 
N_BIT_DIGITAL_CONVERTER: 
PGA_CM/S^2: 210.897
TIME_PGA_S: 
BASELINE_CORRECTION: BASELINE REMOVED
FILTER_TYPE: BUTTERWORTH
FILTER_ORDER: 
LOW_CUT_FREQUENCY_HZ: 
HIGH_CUT_FREQUENCY_HZ: 
LATE/NORMAL_TRIGGERED: 
DATABASE_VERSION: 
HEADER_FORMAT: DYNA 1.2
DATA_TYPE: Acceleration
PROCESSING: Automatic Paolucci et al., 2011
DATA_TIMESTAMP_YYYYMMDD_HHMMSS: 
DATA_LICENSE: U (unknown license)
DATA_CITATION: Turkish Accelerometric Archive v 1.0 - Disaster And Emergency Management Presidency, Earthquake Department
DATA_CREATOR: AFAD
ORIGINAL_DATA_MEDIATOR_CITATION: : AFAD - Disaster And Emergency Management Presidency
ORIGINAL_DATA_MEDIATOR: AFAD PROCESS SERVICE
ORIGINAL_DATA_CREATOR_CITATION: AFAD PROCESS SERVICE
ORIGINAL_DATA_CREATOR: network: TK
USER1: GuestUser
USER2: 
USER3: 
USER4: 
USER5: 
[...]
1.161218
19.363531
26.076231
30.335432
37.720551
36.474478
20.229684
5.370636
-7.330854
-21.950528
-41.391871
-68.427653
-99.654231
-111.274225
-98.183448
-82.743359
-77.645872
-70.224639
-64.382185
-71.740434
-83.305778
-64.842039
-25.464590
4.627465
9.811561
27.661046
70.657223
118.328377
145.731074
144.690498
114.302207
78.634274
71.844578
84.932477
84.077264
70.334547
67.828328
64.589606
34.426946
-13.822642
-36.675937
-39.555120
-65.131010
-106.493095
-128.516412
-114.805630
-85.073754
-54.980102
-34.023234
-7.340576
27.200824
33.414003
1.984805
-36.216525
-48.138852
-34.724331
-17.461615
-13.585923
-27.805789
-52.967490
-76.299213
-79.079003
-54.768668
-20.628355
5.123335
28.312546
54.374558
80.748173
87.699287
73.396008
58.901613
49.877017
27.549129
-15.320466
-57.836912
-80.555340
-85.867568
-84.818978
-73.130567
-55.557848
-34.764291
-15.904899
-5.768102
-5.797172
-2.738035
17.756384
43.287876
63.516396
73.495315
75.880435
58.968974
36.284422
17.980823
2.909567
-6.027462
-16.899613
-31.844951
-36.573286
-17.500727
1.702226
9.468937
10.263772
10.769377
7.644429
-2.462941
-18.467083
-29.360328
-20.274665
10.522727
44.862464
54.043365
41.058398
39.490178
57.280858
80.197137
89.104788
72.765714
29.038977
-13.703421
-22.013092
-12.315413
-6.395298
-6.016251
4.440457
9.084445
0.048024
-3.890283
12.123152
32.387466
19.495500
-14.968533
-49.926335
-71.474101
-75.382047
-74.734224
-85.320661
-105.093100
-107.758795
-69.280355
-6.080918
50.385697
75.023932
64.257885
30.219866
0.293065
-22.970586
-42.987831
-43.890983
-22.698257
0.029144
10.797133
15.864899
11.226049
6.883140
18.669985
28.337623
21.354893
12.304091
17.066008
24.714790
13.360695
-14.345908
-37.861396
-50.589412
-73.001991
-90.101372
-83.936770
-66.934521
-37.958158
11.186949
84.613615
152.110591
184.416771
174.584569
145.036483
121.842823
107.579173
78.333739
27.900386
-42.718649
-110.923814
-137.783821
-121.615065
-80.681527
-39.107849
-0.331550
45.325860
84.768506
101.529784
85.519569
57.581263
22.247942
-8.094328
-24.007706
-28.657742
-20.006084
-12.732502
-5.890367
6.561227
22.685880
31.188289
32.239756
22.693587
-4.187832
-57.732083
-119.191962
-157.957370
-172.915492
-190.851242
-199.076221
-157.971064
-89.018990
-39.872605
-9.699374
15.361680
45.069266
68.031567
66.922599
45.876270
20.698910
4.103205
2.075732
10.361139
15.687773
3.560269
-17.072828
-13.094548
7.278746
7.286748
-3.411226
-11.552792
-8.315004
2.989578
8.633886
-0.128646
-23.613453
-58.211076
-93.713460
-109.488456
-89.148079
-29.118665
30.980740
63.267426
74.278624
72.853900
44.590249
-0.125941
-34.700554
-54.782037
-87.108007
-131.514834
-166.040549
-171.781988
-154.577437
-137.252081
-117.260378
-84.357202
-46.871092
-14.289424
14.659454
40.492320
66.365774
79.136001
70.827288
50.320110
46.017789
60.571333
73.615768
66.091651
32.739474
-7.260513
-33.171974
-38.490914
-33.751368
-38.252155
-50.692539
-53.292718
-45.084972
-34.108289
-19.750016
2.531556
30.929779
60.261207
81.506665
80.132117
48.568690
2.970428
-25.301851
-35.081640
-52.150979
-74.911593
-93.091191
-85.844774
-56.027568
-19.313270
8.309306
27.937953
40.763789
42.138681
38.255664
25.356667
8.707590
-12.332666
-35.456975
-60.938906
-86.185298
-102.954221
-94.367760
-70.078198
-54.550861
-41.834645
-22.753776
-11.753125
-14.976507
-29.257415
-47.138515
-55.235338
-49.393204
-33.984435
-10.951824
21.586379
54.376101
75.220153
75.002524
59.748461
39.024920
21.343564
11.056903
11.536941
16.230466
6.785927
-2.238350
0.544341
22.119617
52.740914
76.471831
75.287120
52.898190
26.221948
4.857946
-9.141403
0.291655
18.324266
13.515074
-2.187694
-14.020855
-9.083163
12.463350
47.144730
81.594406
104.977608
92.367202
56.334616
21.857159
-7.508440
-39.601109
-57.436188
-46.289803
-29.849394
-30.547688
-44.191332
-52.342486
-46.448259
-42.172439
-42.673226
-31.993763
-8.049040
16.105334
33.606146
52.539364
72.122949
79.377036
72.924508
63.525990
57.375155
46.149856
23.933825
-5.407486
-37.981459
-51.088509
-48.053342
-47.348632
-56.097741
-60.404855
-51.910755
-42.314706
-41.733358
-47.485023
-51.881943
-49.082953
-38.081023
-14.205012
8.062817
15.275357
25.150410
55.424951
91.952608
104.250798
81.469730
46.563702
9.665345
-25.991083
-51.982442
-55.032286
-29.825498
8.135524
29.566984
33.850154
32.729042
23.579805
8.286433
-6.298726
-4.014597
16.405997
37.373091
49.155462
51.674810
31.823112
-5.386527
-43.964335
-65.724310
-67.503460
-48.668996
-20.094999
-9.447815
-24.695166
-48.136509
-44.765451
-19.702160
1.836683
-2.134542
-19.005095
-17.656089
0.436924
20.082829
44.523558
79.568313
107.114825
105.304036
72.525844
23.875489
-10.232840
-33.896938
-64.507983
-87.118070
-94.876128
-91.488132
-88.699050
-76.654614
-44.211968
5.045634
54.360124
82.760903
90.256921
89.876940
86.882385
80.167792
60.354445
37.170693
26.325068
22.779219
5.411701
-24.159715
-62.600738
-101.649623
-127.990295
-131.909426
-120.346934
-106.489459
-90.937833
-67.233761
-34.664238
-2.980940
15.564933
23.120395
34.994168
39.122976
35.500745
23.489571
14.498852
24.049839
46.768931
60.040915
52.330157
40.865484
42.829702
38.088583
10.736726
-21.774607
-39.143722
-43.745819
-35.220719
-42.591113
-59.039487
-49.394859
-28.980018
-23.474413
-41.657846
-53.078415
-40.459994
-23.273661
-22.381031
-17.775713
-4.867104
-3.143538
-11.132659
-11.304587
-8.719084
-11.022364
-22.925835
-38.791275
-45.359175
-38.293327
-25.785166
3.532201
43.326716
76.361244
101.073305
115.435733
114.302796
104.778679
94.421389
74.810024
37.198978
-11.389376
-51.119310
-66.107153
-49.956294
-16.592267
12.326888
32.628594
41.872774
34.981128
19.119204
4.677222
-2.703079
-25.211536
-55.472630
-64.124263
-35.733072
10.886628
46.569286
64.263450
73.714405
78.120298
83.964669
85.396129
65.723083
35.372504
8.697860
-1.995320
-8.547242
-21.455826
-42.656837
-59.115437
-70.351603
-68.980865
-69.535343
-82.526062
-75.441998
-47.287942
-3.592181
34.332408
51.595763
45.237514
20.495117
-2.158754
-6.049441
-8.124533
-27.715764
-51.059951
-45.751533
-19.765263
11.739063
46.882892
71.343754
61.280168
18.619905
-17.124090
-43.869364
-60.423203
-49.436933
-15.161433
21.353440
49.471062
58.811439
47.228517
25.559306
7.422533
-5.487649
-10.305790
-3.126167
15.282602
35.540524
49.128903
59.410475
75.161526
81.302158
75.994724
69.284606
60.547641
39.185877
6.288797
-14.486838
-9.007119
24.495290
69.519911
104.348942
103.577142
82.144109
54.141884
39.556406
41.012794
59.914372
78.559319
85.249967
70.315496
34.505025
-17.263898
-71.057430
-108.713538
-113.040467
-83.625945
-39.042040
-8.467404
2.399020
12.673241
3.645769
-22.633861
-47.675396
-51.661321
-37.057282
-15.912176
-2.945720
11.375161
33.048232
48.729293
50.086288
38.709822
21.665731
11.849188
11.799345
15.822367
9.404674
-7.916502
-25.765963
-31.751249
-23.258747
-3.650234
16.416573
34.172738
38.800426
36.063143
42.463922
57.315644
67.781300
58.759261
32.436486
3.719656
-15.140031
-22.019853
-29.024954
-42.160768
-62.137745
-73.732811
-54.759644
-12.869571
19.756200
43.538571
69.455170
79.570555
78.793322
71.314587
56.897853
42.350726
24.989281
2.184563
-12.709001
-1.236953
26.743245
66.140828
62.301595
19.822860
-15.753670
-39.575006
-64.940606
-77.604064
-54.503381
-25.073519
0.965484
19.938970
38.456720
59.875396
80.381640
77.041608
53.958527
34.030767
37.301153
47.196020
47.620449
36.431263
20.862723
2.835251
-12.613123
-18.314932
-4.605109
5.857991
-2.197925
-16.083499
-26.413624
-29.045124
-17.739263
3.065479
13.367505
26.637252
52.459252
68.713339
61.267842
44.799654
32.953389
30.886607
26.510461
16.317121
6.335669
-2.805578
-7.826658
5.594255
31.653072
43.744488
36.457188
18.796605
1.652163
-11.769685
-28.428350
-48.254160
-58.762937
-50.877018
-24.581065
18.417989
65.480960
98.960679
110.187920
98.582947
63.907983
29.561879
15.065247
13.457077
10.967476
5.328946
-6.137325
-8.683174
15.208497
48.056065
64.218429
71.542507
78.164443
77.976216
60.731422
38.162882
27.112718
18.984255
14.278930
14.197127
14.452173
8.144739
-6.768000
-26.607234
-41.219558
-44.819737
-36.198760
-18.614855
-2.607492
-0.833111
-0.369052
12.065284
33.196329
41.497396
31.182611
10.826279
-12.675786
-24.674495
-27.964352
-31.672872
-41.195072
-41.343669
-24.010643
-8.773175
-8.865205
-17.776026
-24.505001
-24.931323
-21.054034
-21.694162
-20.592200
-2.108007
18.651672
24.996523
15.673749
-0.679706
-5.492094
1.059852
-0.377976
-0.574831
18.999486
45.933023
67.140770
76.992172
73.273425
56.830803
39.942992
14.946200
-22.595494
-53.543708
-64.232414
-68.597694
-74.620373
-77.203933
-78.778546
-86.709182
-82.939914
-59.842427
-26.901539
2.501158
15.138115
7.479450
-2.704302
4.349402
11.339187
10.217755
3.985424
-9.698807
-20.448555
-18.319748
-20.770359
-33.091216
-41.068193
-38.457442
-26.135922
-18.141023
-25.025638
-26.795840
-7.462814
18.309011
37.911771
53.455727
67.245129
71.803787
69.471105
65.199145
54.258601
31.715948
16.857539
15.548827
25.683707
33.736771
33.635153
25.201161
14.897243
5.937843
-2.792410
-14.625891
-27.783756
-35.777991
-34.697762
-39.079661
-59.270764
-86.621662
-82.067479
-47.019209
-9.532140
11.560234
5.796105
-5.970901
-11.123973
-17.022650
-35.146000
-52.227164
-51.122006
-21.809754
4.060824
10.633224
10.047426
20.139481
26.606096
31.465808
23.854123
4.622432
-18.042944
-24.841909
-10.574080
9.532996
21.579029
20.347658
3.526002
-7.983094
-5.789730
-10.976998
-24.710127
-37.926478
-44.536245
-43.697306
-45.741078
-58.709426
-63.861859
-46.429440
-17.794400
8.373397
29.320358
45.023470
59.439909
67.808729
67.636163
56.567463
34.658239
21.268350
28.740398
36.125518
32.577432
33.907901
42.647766
47.107670
36.525068
10.099705
-10.507825
-9.178315
14.534066
44.951784
61.787526
60.885014
36.561600
1.031731
-19.705234
-11.073390
12.934931
21.141719
9.320063
-10.051289
-13.380136
-2.591693
3.749962
-7.163097
-29.026300
-53.241692
-72.283226
-81.316771
-75.426698
-51.750431
-24.112835
-16.784922
-42.338122
-73.441018
-74.121414
-56.335209
-53.437465
-66.483474
-79.858662
-95.011733
-114.590500
-120.664313
-99.098305
-67.616030
-40.610905
-16.630068
10.840063
42.967272
71.790870
82.322362
68.277632
41.712288
12.604918
-13.210986
-24.555492
-14.401118
1.042487
10.013097
8.781725
4.122741
-3.302622
-17.579375
-34.877541
-46.177625
-50.986817
-48.616399
-44.114948
-46.227432
-48.892488
-48.267995
-45.510553
-29.019009
-5.228329
8.177883
17.544147
35.623098
50.191982
56.543225
59.452154
53.711035
35.331693
11.297509
-3.812738
-7.930974
-12.612969
-21.345139
-28.277054
-26.686118
-22.157502
-19.189769
-5.848433
8.326715
6.430594
-15.612858
-43.901436
-70.654700
-86.615058
-92.789223
-74.131173
-27.032727
25.097679
48.754131
42.459161
29.648691
18.801787
9.171886
-18.043187
-44.714955
-52.446486
-44.833498
-31.644608
-4.005414
32.047012
58.861981
56.754611
37.137493
16.559046
7.480439
10.515286
21.510505
20.004924
3.834595
-14.361622
-25.121597
-21.630373
-5.709300
15.285918
32.265477
36.998311
28.644536
14.312813
-0.268191
-15.055970
-20.119556
-10.007367
3.102584
4.245134
-13.963547
-41.811089
-64.671416
-74.342225
-76.137035
-73.456294
-74.214671
-76.500373
-81.615733
-82.106293
-66.738431
-26.934328
21.494895
57.212708
54.291340
27.608386
2.056146
-14.137514
-28.130791
-32.089871
-24.629967
-16.710811
-12.806996
-12.772787
-10.248965
-6.652596
0.955917
15.838320
32.240697
41.343937
38.165938
24.952144
13.842856
2.844786
-11.748682
-23.298047
-30.900463
-36.109144
-33.535786
-24.556866
-4.568998
16.274414
25.274107
29.778434
35.087171
31.915563
16.895122
3.972794
-8.524477
-30.556743
-61.750722
-87.075734
-96.610717
-96.010833
-88.119162
-64.472936
-40.639431
-33.673615
-35.932791
-34.509640
-16.093840
17.857595
54.954762
77.881269
83.263512
78.380495
66.763377
48.929257
25.966342
0.634299
-19.497680
-40.994312
-67.208106
-91.632510
-91.881779
-63.580073
-20.331738
25.088536
57.917567
71.729980
70.156966
60.081874
40.674408
23.183529
12.406615
4.002026
-0.605185
3.651459
11.574130
6.276284
-13.279472
-32.124459
-43.442120
-40.688192
-18.506652
9.588598
33.471321
53.749697
65.738204
68.188519
61.154655
38.434629
17.800253
15.071598
18.920125
18.976705
24.787199
42.395713
57.510458
56.664514
42.848291
21.428360
1.039750
-13.101497
-26.723728
-37.687602
-37.056078
-23.554947
-13.960496
-15.733893
-30.435383
-50.074233
-65.875115
-82.385809
-91.478479
-80.647210
-59.247070
-33.373616
-9.455419
18.889432
38.988518
38.536628
22.520661
1.741511
-21.486984
-31.640056
-6.162575
38.030470
63.321630
59.456510
47.180715
40.262543
39.350442
32.631056
19.106939
12.794072
20.118149
24.725065
14.965729
-10.445253
-39.688769
-52.414228
-35.613321
-0.664443
30.040587
46.229797
50.591267
48.013778
51.345846
59.777945
61.467315
55.455183
61.766796
78.709602
88.079061
97.345612
108.900434
117.221955
108.802345
69.786058
-0.132115
-91.254186
-167.893036
-210.897178
-209.468275
-178.017959
-118.708902
-43.587126
-7.893921
0.984008
-2.583574
-0.739202
20.078963
41.933881
53.206505
47.145795
37.797772
44.741217
65.133687
80.919893
74.869090
55.042641
30.874868
2.487855
-32.606731
-62.807742
-71.212331
-48.310753
-50.313617
-70.395740
-76.091157
-64.908978
-42.875089
-19.947624
-1.667330
12.192701
27.779163
47.164602
69.378420
80.229184
62.071318
22.427035
-17.979792
-37.248236
-31.738476
-19.361986
-15.808761
-16.100536
-0.119060
24.176894
35.674509
23.655346
28.462326
53.841053
79.716745
96.648364
103.420508
80.230364
21.434275
-45.126275
-89.485483
-107.736349
-101.045701
-69.093947
-28.630528
7.569868
32.267548
37.280663
31.615926
24.860745
16.627137
5.412703
-11.031835
-43.100855
-57.761756
-31.351709
17.614107
46.207920
47.480543
46.405771
49.986480
59.176329
62.952308
59.036053
34.152716
2.515145
-27.007054
-45.835422
-40.377116
-17.057193
14.189543
53.568590
80.813729
83.643080
75.451018
51.146460
12.063698
-19.004682
-14.322662
11.229283
36.398040
48.610260
45.219413
21.096702
-13.518498
-38.468949
-55.583989
-61.513347
-62.350983
-62.202041
-70.020821
-83.318667
-83.438182
-77.084063
-66.117608
-55.745272
-38.473927
-2.166148
43.288961
69.823010
61.747279
48.423546
37.306908
14.158630
-18.796296
-44.734922
-55.899499
-59.229944
-68.108487
-71.197640
-48.835851
-15.585279
6.882934
18.003432
23.689925
27.662772
23.576176
16.622848
21.966740
46.329169
78.126241
108.109954
129.062667
142.021772
140.972886
123.954043
98.367925
69.056337
35.551395
8.568985
-12.158392
-32.641281
-44.121614
-49.807124
-55.125424
-45.444683
-30.227349
-34.385854
-43.987951
-35.082538
-16.367600
-14.972574
-17.159203
-13.492524
-11.147673
-16.038360
-24.121761
-14.190141
18.268484
41.011226
36.031053
11.411378
-11.225235
-25.757661
-46.869825
-68.578346
-71.251072
-51.370587
-45.749610
-59.480821
-56.991196
-38.407610
-24.613734
-18.873869
2.276671
31.242167
45.386315
36.070572
16.862530
-7.399522
-21.001619
-26.936091
-28.335567
-13.985602
6.674685
25.370766
46.785607
64.262769
64.594197
56.785644
50.040690
46.243004
26.477915
-7.484361
-32.689845
-36.295778
-26.599057
-1.951873
21.337369
28.719932
13.058071
-19.843482
-57.659705
-74.863592
-71.971282
-55.978301
-31.361478
-2.186969
25.237780
41.406536
39.976059
26.649130
12.660967
-2.685776
-23.951664
-49.254304
-53.718657
-35.960575
-26.467754
-38.087109
-50.440564
-46.197023
-33.389085
-17.638993
-2.142336
8.481517
12.552159
2.585090
-7.095627
-7.836746
-4.018261
-7.174209
-23.619067
-46.957822
-58.002552
-56.269718
-52.656730
-49.807565
-42.220783
-33.751612
-27.800497
-26.244396
-22.993505
-9.164154
14.505721
37.922480
43.475384
30.431293
8.294201
-15.348804
-32.434761
-29.773516
-7.883442
16.322706
28.689289
20.292369
4.913027
0.991979
-5.965823
-26.270700
-37.397885
-28.041849
-22.700513
-33.300693
-45.368753
-43.102841
-18.809764
18.005844
38.059867
28.710247
-0.290699
-23.223573
-26.191601
-19.607696
-7.283939
-1.819880
-4.550453
-3.873866
3.538738
9.395573
16.094531
24.732127
32.148886
29.687729
16.257891
-3.371051
-23.533391
-52.731845
-85.324674
-106.519612
-107.335196
-94.416359
-66.568472
-29.585398
1.191539
11.139458
13.178780
25.703561
40.957329
39.272777
18.341182
-9.082264
-32.731021
-47.602533
-51.698079
-36.641818
-19.493516
-14.488710
-18.081219
-12.205208
5.470100
29.356658
51.935130
64.893275
65.383540
52.189880
25.131088
-3.144707
-18.933125
-21.165455
-20.393631
-21.869490
-8.768487
10.017719
20.231538
31.010074
33.089345
22.927325
13.325867
16.517634
20.161941
19.747444
21.068965
27.311227
33.674614
31.222725
30.040251
32.449340
19.725798
-5.340345
-28.967050
-42.315712
-43.618352
-30.352121
-13.432006
7.312334
29.061467
45.029520
50.410485
33.335393
3.800091
-22.148123
-44.129255
-55.018344
-35.429326
-1.728131
19.283067
31.894776
44.014635
46.281506
32.424056
12.636276
-2.080873
-14.439442
-20.776598
-8.075084
21.811474
47.829383
58.870623
62.949574
62.651408
48.945444
21.465750
-0.584413
-1.484689
-4.645750
-15.662676
-22.290340
-19.803591
-8.861425
1.622768
-1.018000
-23.109710
-54.721714
-84.326368
-104.767711
-101.102310
-79.948255
-65.213184
-66.069994
-61.943744
-36.132610
6.311954
56.148335
90.956274
97.332125
80.435045
57.639276
42.067540
22.661033
3.296712
-7.980042
-7.805213
-5.548889
-8.782178
-7.066602
3.527530
16.516677
18.501029
14.368731
11.634003
9.954246
1.722874
-4.521920
-0.569527
8.818788
16.185691
20.097496
17.334965
19.112542
34.510764
55.271723
67.216765
66.620101
54.864601
30.132111
-6.282706
-39.726286
-49.459096
-46.315267
-44.623660
-46.083220
-46.000753
-39.054432
-33.925624
-31.477226
-19.091148
-2.657451
9.681648
23.621896
38.015325
47.865449
52.052422
46.847896
38.048612
31.070037
21.633488
9.722986
-1.431684
-12.693417
-16.096409
-9.753156
-7.432274
-8.001133
0.862733
13.944880
18.518878
12.763058
13.794070
28.338666
39.718671
29.755756
1.925791
-24.750451
-34.182845
-32.886892
-27.495381
-17.427935
-1.545532
21.332397
39.108696
46.672147
48.051833
44.035546
30.233705
12.444008
-0.458185
-6.734299
-8.971423
-15.787007
-32.626560
-45.959561
-40.940693
-15.352953
14.788957
34.649309
43.696620
45.167070
39.588304
31.416696
21.180850
4.509402
-21.340378
-41.256633
-44.391808
-38.795119
-42.554135
-60.743321
-88.211829
-100.317601
-91.848749
-77.936944
-69.432617
-63.166705
-47.411180
-23.743862
7.545061
37.040759
58.260650
66.965680
54.753803
17.871425
-27.283245
-61.761341
-71.589069
-48.870936
-7.534394
32.388916
60.981131
79.523489
