EVENT_NAME: 202302060117
EVENT_ID: 13194
EVENT_DATE_YYYYMMDD: 2023/02/06
EVENT_TIME_HHMMSS: 01:17:32.00000
EVENT_LATITUDE_DEGREE: 37.288
EVENT_LONGITUDE_DEGREE: 37.043
EVENT_DEPTH_KM: 8.6
HYPOCENTER_REFERENCE: AFAD
MAGNITUDE_W: 7.7
MAGNITUDE_W_REFERENCE: AFAD
MAGNITUDE_L: 
MAGNITUDE_L_REFERENCE: 
FOCAL_MECHANISM: 
NETWORK: TK
STATION_CODE: 6009
STATION_NAME: 
STATION_LATITUDE_DEGREE: 40.00402
STATION_LONGITUDE_DEGREE: 36.22301
STATION_ELEVATION_M: 1099.0
LOCATION: Kahramanmaras_Pazarck_Turkiye
SENSOR_DEPTH_M: 
VS30_M/S: None
SITE_CLASSIFICATION_EC8: unknown
MORPHOLOGIC_CLASSIFICATION: 
EPICENTRAL_DISTANCE_KM: 310.29
EARTHQUAKE_BACKAZIMUTH_DEGREE: 
DATE_TIME_FIRST_SAMPLE_YYYYMMDD_HHMMSS: 2023/02/06 01:18:02.9766360
DATE_TIME_FIRST_SAMPLE_PRECISION: millisecond
SAMPLING_INTERVAL_S: 0.01
NDATA: 18251
DURATION_S: 
STREAM: HNN
UNITS: cm/s^2
INSTRUMENT: sensor = ACEBOX/SARA | digitizer = 
INSTRUMENT_ANALOG/DIGITAL: 
INSTRUMENTAL_FREQUENCY_HZ: 
INSTRUMENTAL_DAMPING: 
FULL_SCALE_G: 
N_BIT_DIGITAL_CONVERTER: 
PGA_CM/S^2: 4.828
TIME_PGA_S: 
BASELINE_CORRECTION: BASELINE REMOVED
FILTER_TYPE: BUTTERWORTH
FILTER_ORDER: 
LOW_CUT_FREQUENCY_HZ: 
HIGH_CUT_FREQUENCY_HZ: 
LATE/NORMAL_TRIGGERED: 
DATABASE_VERSION: 
HEADER_FORMAT: DYNA 1.2
DATA_TYPE: Acceleration
PROCESSING: Automatic Paolucci et al., 2011
DATA_TIMESTAMP_YYYYMMDD_HHMMSS: 
DATA_LICENSE: U (unknown license)
DATA_CITATION: Turkish Accelerometric Archive v 1.0 - Disaster And Emergency Management Presidency, Earthquake Department
DATA_CREATOR: AFAD
ORIGINAL_DATA_MEDIATOR_CITATION: : AFAD - Disaster And Emergency Management Presidency
ORIGINAL_DATA_MEDIATOR: AFAD PROCESS SERVICE
ORIGINAL_DATA_CREATOR_CITATION: AFAD PROCESS SERVICE
ORIGINAL_DATA_CREATOR: network: TK
USER1: GuestUser
USER2: 
USER3: 
USER4: 
USER5: 
[...]
-1.566068
-1.615165
-1.652806
-1.676653
-1.699564
-1.732296
-1.761987
-1.791679
-1.817864
-1.832125
-1.838671
-1.828149
-1.805003
-1.788403
-1.783492
-1.792844
-1.813885
-1.839836
-1.869762
-1.905298
-1.940601
-1.963747
-1.982216
-2.003959
-2.019389
-2.034351
-2.055626
-2.071524
-2.079706
-2.091162
-2.099110
-2.100513
-2.107760
-2.108695
-2.100277
-2.095133
-2.074091
-2.037618
-1.995300
-1.940591
-1.876530
-1.791661
-1.683413
-1.568851
-1.447510
-1.330377
-1.226103
-1.126271
-1.038129
-0.965651
-0.903227
-0.840803
-0.774871
-0.711044
-0.643009
-0.578948
-0.529148
-0.493377
-0.483557
-0.492440
-0.525172
-0.593674
-0.672697
-0.755928
-0.835886
-0.894335
-0.942964
-0.975461
-1.001646
-1.046067
-1.080669
-1.114569
-1.169043
-1.213932
-1.258820
-1.316801
-1.369171
-1.424581
-1.475080
-1.509214
-1.533763
-1.532359
-1.499393
-1.432761
-1.329422
-1.219536
-1.109184
-0.994622
-0.893388
-0.807116
-0.725754
-0.635741
-0.541988
-0.455015
-0.362197
-0.264002
-0.166742
-0.075326
0.000892
0.072668
0.128313
0.156603
0.165020
0.138601
0.085296
0.017495
-0.080933
-0.180764
-0.268905
-0.376217
-0.482361
-0.581490
-0.699557
-0.816455
-0.936393
-1.065916
-1.180710
-1.299011
-1.418948
-1.521351
-1.627728
-1.727559
-1.812661
-1.905478
-1.986137
-2.046223
-2.104204
-2.155872
-2.202865
-2.252196
-2.307839
-2.366989
-2.409072
-2.446012
-2.482016
-2.502590
-2.534386
-2.562908
-2.570156
-2.579039
-2.567816
-2.542566
-2.524797
-2.496273
-2.459332
-2.407195
-2.334717
-2.253122
-2.156095
-2.048080
-1.914816
-1.755131
-1.591707
-1.403967
-1.201732
-1.008615
-0.815498
-0.639448
-0.480465
-0.333640
-0.210428
-0.101011
-0.012868
0.056570
0.116189
0.162247
0.212748
0.268158
0.334090
0.419426
0.511777
0.634521
0.776904
0.909701
1.048577
1.173192
1.274660
1.379168
1.470350
1.545165
1.615539
1.669079
1.699707
1.704851
1.690122
1.666042
1.624660
1.572290
1.519920
1.447443
1.364446
1.287761
1.206634
1.134858
1.069863
1.002764
0.943380
0.889373
0.847524
0.819469
0.805676
0.820873
0.841681
0.859451
0.884000
0.899899
0.910654
0.919305
0.911356
0.883535
0.836308
0.778093
0.708422
0.631270
0.560897
0.493564
0.439791
0.417347
0.413607
0.425765
0.460134
0.501516
0.546406
0.591763
0.629639
0.660734
0.678503
0.685752
0.689259
0.683649
0.681545
0.683416
0.689261
0.710537
0.727137
0.724332
0.701187
0.642738
0.551090
0.432322
0.285264
0.125347
-0.038077
-0.209917
-0.389473
-0.564587
-0.732920
-0.901955
-1.056728
-1.185784
-1.297071
-1.378432
-1.426827
-1.460260
-1.466338
-1.447634
-1.424955
-1.387547
-1.331903
-1.257788
-1.166373
-1.067710
-0.955253
-0.842562
-0.742730
-0.649912
-0.570888
-0.490929
-0.406528
-0.323295
-0.220190
-0.107032
0.006828
0.121389
0.224728
0.324794
0.411066
0.472555
0.528199
0.563503
0.567712
0.555321
0.526097
0.483313
0.434683
0.378806
0.321760
0.259337
0.182886
0.101759
0.018527
-0.076160
-0.181602
-0.291954
-0.414463
-0.567366
-0.748558
-0.944246
-1.148585
-1.347312
-1.539259
-1.724192
-1.880602
-2.006852
-2.104812
-2.162092
-2.184770
-2.180561
-2.150167
-2.089613
-1.998665
-1.878727
-1.724186
-1.552812
-1.375360
-1.182476
-0.997776
-0.825934
-0.650586
-0.491136
-0.340804
-0.185795
-0.039438
0.103880
0.249537
0.392387
0.527055
0.641382
0.735369
0.805977
0.849931
0.884066
0.917266
0.941815
0.953272
0.960286
0.972912
0.975250
0.958651
0.934337
0.896228
0.844092
0.798970
0.759926
0.713401
0.658927
0.588788
0.493633
0.379540
0.254693
0.116753
-0.031707
-0.180636
-0.341488
-0.519641
-0.707146
-0.919667
-1.150190
-1.373700
-1.593001
-1.793599
-1.954918
-2.095430
-2.214666
-2.292988
-2.346761
-2.391181
-2.421107
-2.442148
-2.458046
-2.455240
-2.430223
-2.390477
-2.338573
-2.276850
-2.209516
-2.148729
-2.093552
-2.040479
-2.006344
-1.977353
-1.938308
-1.896224
-1.841048
-1.779558
-1.707081
-1.620575
-1.532901
-1.415066
-1.284139
-1.143393
-0.975058
-0.818648
-0.648443
-0.507930
-0.403422
-0.266884
-0.247946
-0.269688
-0.215447
-0.279273
-0.353386
-0.378636
-0.481740
-0.548605
-0.627395
-0.731901
-0.804612
-0.933667
-1.005209
-1.050331
-1.129120
-1.110416
-1.106441
-1.103635
-1.039808
-1.015960
-0.979955
-0.942546
-0.904671
-0.862119
-0.820035
-0.751532
-0.743115
-0.676716
-0.661752
-0.719967
-0.560283
-0.640943
-0.785663
-0.545319
-0.587402
-0.658709
-0.489440
-0.540173
-0.457876
-0.337470
-0.356173
-0.254003
-0.267329
-0.221270
-0.105540
-0.184797
-0.112086
0.001540
0.014867
0.170109
0.271812
0.330729
0.476619
0.539979
0.592817
0.674881
0.706912
0.765361
0.835267
0.898861
0.987003
1.058545
1.134764
1.208410
1.249092
1.301696
1.346586
1.380487
1.432858
1.474709
1.517494
1.573606
1.629484
1.686063
1.735395
1.800157
1.866556
1.908173
1.952127
1.982521
1.988834
2.000759
1.999824
1.980186
1.976211
1.986265
1.991643
2.012218
2.048925
2.066694
2.075578
2.073709
2.038172
1.989309
1.923379
1.838511
1.762761
1.687479
1.615937
1.554917
1.504885
1.470984
1.424459
1.370219
1.317381
1.241164
1.164946
1.100653
1.030982
0.961778
0.889535
0.812617
0.727281
0.634464
0.544219
0.445323
0.346194
0.249402
0.145830
0.054416
-0.025074
-0.092407
-0.135192
-0.155532
-0.151557
-0.135658
-0.114148
-0.087962
-0.071596
-0.046813
-0.015250
0.000415
0.019587
0.040863
0.054424
0.070790
0.078039
0.075701
0.073598
0.064714
0.058168
0.064247
0.080380
0.106566
0.135791
0.163146
0.190734
0.215985
0.241002
0.270694
0.312311
0.371930
0.455396
0.565515
0.695507
0.833214
0.968115
1.091327
1.195133
1.283743
1.362767
1.420282
1.460729
1.485980
1.491358
1.502113
1.524558
1.554718
1.606622
1.656655
1.697804
1.747603
1.779634
1.786648
1.792494
1.784779
1.767712
1.761167
1.757426
1.767714
1.802550
1.845569
1.904019
1.976263
2.038921
2.104151
2.170550
2.216609
2.257056
2.295400
2.318780
2.336783
2.358994
2.378400
2.399676
2.434045
2.476129
2.527798
2.593028
2.664103
2.742192
2.827528
2.915671
2.995630
3.055482
3.097566
3.112530
3.096632
3.057822
2.979735
2.861200
2.718117
2.543704
2.350121
2.163551
1.984229
1.820805
1.692685
1.603375
1.556616
1.549603
1.572983
1.610157
1.649903
1.698533
1.734071
1.750204
1.764933
1.768441
1.762597
1.751375
1.728463
1.711864
1.693628
1.664171
1.629803
1.580940
1.536051
1.500515
1.466381
1.457731
1.476201
1.506595
1.546809
1.599648
1.660435
1.720756
1.791129
1.854723
1.898677
1.944502
1.972324
1.977936
1.978638
1.961571
1.942634
1.919722
1.883484
1.862911
1.843740
1.827141
1.828544
1.818491
1.801658
1.775941
1.721935
1.654602
1.562018
1.444185
1.331028
1.212727
1.096998
0.996232
0.884009
0.766644
0.647408
0.506662
0.365683
0.218391
0.045849
-0.133706
-0.323783
-0.525783
-0.718198
-0.891909
-1.046215
-1.177140
-1.284453
-1.379842
-1.457929
-1.506793
-1.546070
-1.575995
-1.580671
-1.573189
-1.557524
-1.528766
-1.491826
-1.439221
-1.376563
-1.314606
-1.236517
-1.147674
-1.066779
-0.979339
-0.891197
-0.813108
-0.731512
-0.660203
-0.609235
-0.564579
-0.531379
-0.516650
-0.508700
-0.506128
-0.509634
-0.507997
-0.504723
-0.500514
-0.483447
-0.465444
-0.450480
-0.430139
-0.420086
-0.424995
-0.452582
-0.509628
-0.575793
-0.653413
-0.747632
-0.837176
-0.921577
-1.005509
-1.082428
-1.157009
-1.228083
-1.296117
-1.378179
-1.465853
-1.542070
-1.618288
-1.691466
-1.752720
-1.814208
-1.864240
-1.895335
-1.930170
-1.967811
-1.987449
-1.988384
-1.980902
-1.961496
-1.944195
-1.943727
-1.937647
-1.931334
-1.927126
-1.893692
-1.840152
-1.775390
-1.696366
-1.621784
-1.547669
-1.471919
-1.410196
-1.362734
-1.329301
-1.317143
-1.326027
-1.347068
-1.368343
-1.384240
-1.391721
-1.390786
-1.384473
-1.378627
-1.377224
-1.375119
-1.362026
-1.340049
-1.316668
-1.287911
-1.252373
-1.207016
-1.153710
-1.109521
-1.067905
-1.018106
-0.972515
-0.928560
-0.886944
-0.851874
-0.816570
-0.787111
-0.763497
-0.730765
-0.681900
-0.623684
-0.555649
-0.473352
-0.384274
-0.287248
-0.188585
-0.100677
-0.013704
0.068360
0.137097
0.203262
0.249087
0.265453
0.264752
0.235528
0.178014
0.117929
0.061584
0.002200
-0.047598
-0.076588
-0.090148
-0.085705
-0.059753
-0.025151
0.004308
0.035170
0.054342
0.035872
-0.000366
-0.047826
-0.115393
-0.190208
-0.282323
-0.381920
-0.466087
-0.549318
-0.621327
-0.666917
-0.692167
-0.693803
-0.680242
-0.661538
-0.634417
-0.611972
-0.597476
-0.570588
-0.545572
-0.521022
-0.471223
-0.423762
-0.385886
-0.344971
-0.329540
-0.329072
-0.340761
-0.369751
-0.403184
-0.456957
-0.507223
-0.546734
-0.592090
-0.612196
-0.630899
-0.651940
-0.656850
-0.688412
-0.728391
-0.763927
-0.817466
-0.867265
-0.919167
-0.976213
-1.027648
-1.084928
-1.151092
-1.226842
-1.291135
-1.339531
-1.394239
-1.440063
-1.471859
-1.495004
-1.501550
-1.498042
-1.484014
-1.455724
-1.412237
-1.362438
-1.321757
-1.263307
-1.183347
-1.110402
-1.027170
-0.936222
-0.861874
-0.788461
-0.720426
-0.671795
-0.637894
-0.621294
-0.621761
-0.636958
-0.658934
-0.680209
-0.700315
-0.706159
-0.695404
-0.679272
-0.646540
-0.587388
-0.512806
-0.437056
-0.353356
-0.259836
-0.172629
-0.085656
-0.006398
0.051116
0.101617
0.137856
0.145338
0.144637
0.145339
0.132481
0.109803
0.087827
0.053926
0.023066
0.010207
0.002259
0.020729
0.062112
0.097182
0.144410
0.199119
0.245411
0.290067
0.329112
0.362779
0.383587
0.392940
0.402994
0.402293
0.398786
0.390136
0.363016
0.342443
0.319297
0.276279
0.238872
0.205907
0.180891
0.174346
0.178087
0.207780
0.254773
0.297091
0.347124
0.392482
0.429188
0.464025
0.474546
0.473378
0.469170
0.438309
0.395291
0.352740
0.300838
0.241454
0.177160
0.104917
0.019816
-0.080951
-0.198316
-0.333451
-0.477002
-0.612837
-0.745867
-0.871884
-0.972883
-1.064999
-1.127656
-1.157816
-1.176753
-1.159451
-1.137006
-1.106144
-1.081829
-1.076685
-1.036237
-1.047225
-1.030859
-1.001868
-1.078319
-0.989709
-0.961887
-1.062185
-0.865094
-0.792382
-0.820203
-0.632230
-0.620072
-0.554141
-0.396561
-0.408250
-0.318004
-0.265399
-0.242252
-0.140082
-0.185672
-0.162760
-0.105011
-0.169071
-0.145457
-0.160420
-0.214660
-0.184266
-0.210217
-0.225413
-0.199695
-0.215593
-0.211150
-0.215124
-0.243647
-0.262818
-0.306303
-0.343710
-0.374337
-0.420161
-0.454061
-0.504795
-0.567686
-0.615380
-0.678505
-0.743500
-0.786752
-0.813170
-0.823691
-0.826496
-0.814338
-0.794932
-0.786047
-0.779734
-0.777863
-0.779265
-0.782772
-0.789084
-0.788148
-0.783238
-0.767339
-0.741855
-0.719643
-0.691120
-0.663531
-0.650672
-0.646229
-0.652307
-0.669841
-0.698364
-0.737174
-0.774581
-0.808481
-0.835134
-0.847524
-0.852667
-0.854537
-0.863655
-0.882358
-0.897320
-0.919998
-0.948521
-0.963016
-0.969796
-0.968392
-0.954598
-0.942907
-0.921631
-0.895445
-0.883989
-0.868558
-0.861076
-0.857802
-0.848917
-0.862477
-0.866451
-0.883985
-0.923496
-0.938693
-0.986153
-1.027768
-1.087152
-1.178099
-1.214805
-1.339184
-1.383371
-1.347366
-1.554042
-1.572278
-1.453742
-1.628856
-1.682629
-1.633297
-1.669301
-1.637972
-1.605941
-1.493250
-1.404173
-1.355777
-1.147229
-1.024485
-0.937745
-0.717040
-0.561331
-0.415207
-0.216479
-0.036221
0.143336
0.312138
0.464809
0.573759
0.651614
0.722922
0.764071
0.802181
0.829769
0.842629
0.860164
0.862736
0.870920
0.882844
0.882143
0.898275
0.922123
0.949712
0.989458
1.017748
1.026867
1.020555
0.995773
0.950884
0.898280
0.850118
0.798684
0.753561
0.728545
0.718259
0.720831
0.725975
0.739302
0.775541
0.803831
0.805235
0.803365
0.790740
0.754502
0.714290
0.671505
0.620772
0.574480
0.535671
0.507849
0.501070
0.523982
0.575418
0.640882
0.717100
0.811789
0.913725
1.016129
1.126014
1.231691
1.328250
1.421068
1.506404
1.606704
1.722434
1.840268
1.981950
2.130412
2.275834
2.433881
2.581408
2.727532
2.876461
3.006453
3.134808
3.259657
3.373283
3.478726
3.562893
3.628825
3.673948
3.692652
3.695692
3.675352
3.637244
3.586277
3.514735
3.442960
3.370951
3.289590
3.214074
3.128738
3.033116
2.954794
2.867588
2.761913
2.655535
2.532325
2.393684
2.255977
2.118973
1.982436
1.845197
1.719649
1.608128
1.506193
1.431612
1.383684
1.354694
1.361708
1.399818
1.448214
1.512743
1.599716
1.684819
1.756361
1.817383
1.862038
1.895238
1.915579
1.921658
1.925633
1.921893
1.909736
1.893137
1.868121
1.844976
1.823233
1.794944
1.766889
1.739068
1.714286
1.696752
1.685296
1.677114
1.683661
1.709846
1.735331
1.766894
1.816459
1.859946
1.891509
1.920033
1.938036
1.944583
1.955806
1.974744
1.986668
2.001632
2.024310
2.039040
2.063823
2.090710
2.100063
2.108948
2.113390
2.108949
2.105910
2.105677
2.120874
2.149865
2.181896
2.219304
2.263259
2.303940
2.333399
2.368001
2.404708
2.435102
2.472276
2.505476
2.529090
2.548730
2.555043
2.554108
2.541717
2.510857
2.473683
2.419911
2.354214
2.287349
2.205754
2.121120
2.039993
1.949514
1.863711
1.778843
1.689065
1.609808
1.527278
1.449658
1.397756
1.348893
1.310784
1.294653
1.272910
1.266364
1.290212
1.316866
1.361054
1.430492
1.495021
1.563524
1.647224
1.720403
1.787269
1.868631
1.950695
2.029719
2.120199
2.223304
2.343476
2.476040
2.611175
2.758702
2.915814
3.081577
3.254353
3.421987
3.589854
3.751408
3.900337
4.043889
4.170608
4.283299
4.380091
4.464025
4.557077
4.633529
4.691979
4.751598
4.786668
4.807476
4.827584
4.823610
4.805140
4.777786
4.731729
4.673280
4.602206
4.515468
4.414234
4.293128
4.146537
3.980308
3.801454
3.609273
3.407740
3.206909
3.009584
2.813429
2.614702
2.411766
2.205558
1.994205
1.778177
1.566591
1.366695
1.180827
1.003609
0.828729
0.673021
0.526898
0.370488
0.229041
0.093439
-0.048943
-0.177063
-0.305183
-0.434706
-0.544824
-0.635303
-0.712222
-0.782127
-0.835900
-0.870268
-0.895985
-0.906739
-0.910012
-0.910946
-0.898788
-0.882656
-0.865120
-0.841273
-0.823036
-0.809709
-0.796382
-0.799655
-0.816487
-0.835892
-0.868623
-0.913746
-0.966116
-1.022460
-1.069921
-1.108029
-1.132577
-1.134915
-1.126497
-1.111768
-1.084413
-1.050278
-1.018715
-0.988788
-0.961433
-0.933377
-0.895969
-0.866276
-0.841493
-0.804787
-0.771587
-0.748440
-0.725294
-0.701212
-0.687184
-0.689755
-0.690222
-0.692092
-0.703782
-0.708691
-0.713600
-0.727160
-0.736979
-0.752175
-0.778827
-0.793322
-0.793556
-0.800335
-0.796126
-0.781864
-0.786773
-0.793553
-0.806645
-0.848728
-0.905306
-0.974276
-1.051896
-1.136063
-1.222100
-1.292472
-1.367053
-1.436023
-1.474832
-1.508499
-1.523227
-1.506160
-1.478103
-1.435786
-1.380609
-1.320990
-1.264411
-1.211572
-1.158733
-1.122494
-1.099348
-1.070824
-1.054224
-1.051885
-1.043234
-1.046507
-1.070588
-1.094668
-1.127165
-1.164105
-1.190991
-1.216474
-1.226527
-1.223020
-1.206653
-1.166206
-1.133708
-1.107522
-1.080167
-1.082738
-1.092791
-1.100272
-1.120144
-1.128794
-1.118039
-1.081332
-1.009088
-0.916037
-0.800073
-0.668444
-0.539855
-0.411968
-0.292263
-0.189158
-0.091196
0.006765
0.100752
0.195908
0.295507
0.390429
0.469687
0.543801
0.618617
0.685015
0.753051
0.827633
0.893564
0.958794
1.033142
1.105152
1.179267
1.262265
1.349472
1.439017
1.521548
1.589583
1.638681
1.659256
1.662997
1.651776
1.619278
1.584443
1.547504
1.504485
1.469416
1.434815
1.410033
1.401850
1.385251
1.362106
1.326569
1.265549
1.193773
1.098619
0.970966
0.832324
0.685500
0.531662
0.383669
0.248301
0.125558
0.014037
-0.086261
-0.180247
-0.271194
-0.351853
-0.428538
-0.505223
-0.580038
-0.664672
-0.746734
-0.821783
-0.913431
-0.998065
-1.077555
-1.179958
-1.278854
-1.375879
-1.475009
-1.546550
-1.597517
-1.629313
-1.634924
-1.621363
-1.592606
-1.568992
-1.552625
-1.545845
-1.565249
-1.593538
-1.632582
-1.693369
-1.759065
-1.832009
-1.915007
-1.993796
-2.061363
-2.112564
-2.155582
-2.199068
-2.233903
-2.256113
-2.272946
-2.269906
-2.239746
-2.194389
-2.124483
-2.022079
-1.906583
-1.782436
-1.642858
-1.501411
-1.371653
-1.248675
-1.139257
-1.045971
-0.958063
-0.888391
-0.837890
-0.796508
-0.772894
-0.752786
-0.730108
-0.713040
-0.692699
-0.667916
-0.636119
-0.594736
-0.551016
-0.500515
-0.449079
-0.402787
-0.362106
-0.338725
-0.335919
-0.352752
-0.391094
-0.451180
-0.529501
-0.614837
-0.710927
-0.817070
-0.927890
-1.041047
-1.136670
-1.217563
-1.300794
-1.373972
-1.442241
-1.513548
-1.575270
-1.626705
-1.668788
-1.698480
-1.707597
-1.689361
-1.655693
-1.617350
-1.572460
-1.520791
-1.471693
-1.426803
-1.372094
-1.315982
-1.268755
-1.218254
-1.168221
-1.125669
-1.085455
-1.048515
-1.023031
-1.009937
-1.004560
-1.014612
-1.034952
-1.055058
-1.085451
-1.117247
-1.144367
-1.178267
-1.207258
-1.236248
-1.281604
-1.335143
-1.396397
-1.467238
-1.544624
-1.624582
-1.699397
-1.759950
-1.789875
-1.788706
-1.777717
-1.755272
-1.721137
-1.691911
-1.664323
-1.638371
-1.611951
-1.575011
-1.539239
-1.495986
-1.433094
-1.367163
-1.295854
-1.213323
-1.130325
-1.049898
-0.968770
-0.887875
-0.820775
-0.766767
-0.712760
-0.678625
-0.664363
-0.648931
-0.646125
-0.654074
-0.652904
-0.649163
-0.634433
-0.596791
-0.548629
-0.485269
-0.400634
-0.319973
-0.254977
-0.200970
-0.163561
-0.146961
-0.145558
-0.155143
-0.185069
-0.230659
-0.272975
-0.310616
-0.340308
-0.359011
-0.373506
-0.380753
-0.382389
-0.381220
-0.373270
-0.369061
-0.369529
-0.368593
-0.370229
-0.365319
-0.354797
-0.348718
-0.326039
-0.294710
-0.276005
-0.251456
-0.226673
-0.221763
-0.227841
-0.244908
-0.274366
-0.311071
-0.351050
-0.391263
-0.430306
-0.454153
-0.464206
-0.474259
-0.478233
-0.483843
-0.497871
-0.513768
-0.540187
-0.579464
-0.622950
-0.674619
-0.733301
-0.789880
-0.835236
-0.867733
-0.895087
-0.909114
-0.903970
-0.893916
-0.879888
-0.866327
-0.863755
-0.865157
-0.867729
-0.869365
-0.862116
-0.846218
-0.818161
-0.776311
-0.723706
-0.668997
-0.619665
-0.559813
-0.498791
-0.451096
-0.404570
-0.367396
-0.345652
-0.333728
-0.334662
-0.341676
-0.360379
-0.382122
-0.396617
-0.410410
-0.400590
-0.364351
-0.318292
-0.253764
-0.176376
-0.099924
-0.028382
0.033107
0.085712
0.124523
0.146734
0.150476
0.134812
0.107224
0.062570
-0.004062
-0.082150
-0.173097
-0.275499
-0.369018
-0.457159
-0.543897
-0.611931
-0.668510
-0.719477
-0.751974
-0.775354
-0.797330
-0.815332
-0.823047
-0.813227
-0.791249
-0.752205
-0.700301
-0.646059
-0.580362
-0.508586
-0.442888
-0.381399
-0.322481
-0.262863
-0.200438
-0.137780
-0.082136
-0.037246
-0.001241
0.023075
0.045052
0.071472
0.093683
0.117765
0.141612
0.162187
0.178787
0.184165
0.191881
0.197960
0.193051
0.194922
0.195858
0.191883
0.202171
0.212225
0.214563
0.219006
0.219007
0.211993
0.191887
0.161728
0.126425
0.082705
0.036180
-0.009643
-0.059208
-0.102928
-0.137997
-0.174468
-0.212109
-0.241567
-0.267752
-0.292534
-0.307029
-0.321524
-0.339993
-0.353085
-0.371555
-0.393765
-0.403350
-0.409428
-0.416442
-0.403115
-0.369214
-0.324090
-0.253951
-0.159964
-0.052650
0.061911
0.167822
0.268121
0.359536
0.429910
0.485087
0.511506
0.509636
0.501220
0.481582
0.457267
0.434122
0.405132
0.381986
0.367491
