EVENT_NAME: 202302060117
EVENT_ID: 13194
EVENT_DATE_YYYYMMDD: 2023/02/06
EVENT_TIME_HHMMSS: 01:17:32.00000
EVENT_LATITUDE_DEGREE: 37.288
EVENT_LONGITUDE_DEGREE: 37.043
EVENT_DEPTH_KM: 8.6
HYPOCENTER_REFERENCE: AFAD
MAGNITUDE_W: 7.7
MAGNITUDE_W_REFERENCE: AFAD
MAGNITUDE_L: 
MAGNITUDE_L_REFERENCE: 
FOCAL_MECHANISM: 
NETWORK: TK
STATION_CODE: 2516
STATION_NAME: 
STATION_LATITUDE_DEGREE: 39.6153
STATION_LONGITUDE_DEGREE: 40.9756
STATION_ELEVATION_M: 1919.0
LOCATION: Kahramanmaras_Pazarck_Turkiye
SENSOR_DEPTH_M: 
VS30_M/S: 373
SITE_CLASSIFICATION_EC8: B
MORPHOLOGIC_CLASSIFICATION: 
EPICENTRAL_DISTANCE_KM: 429.16
EARTHQUAKE_BACKAZIMUTH_DEGREE: 
DATE_TIME_FIRST_SAMPLE_YYYYMMDD_HHMMSS: 2023/02/06 01:18:06.5646510
DATE_TIME_FIRST_SAMPLE_PRECISION: millisecond
SAMPLING_INTERVAL_S: 0.01
NDATA: 21001
DURATION_S: 
STREAM: HNN
UNITS: cm/s^2
INSTRUMENT: sensor = GMS+/GEOSIG | digitizer = 
INSTRUMENT_ANALOG/DIGITAL: 
INSTRUMENTAL_FREQUENCY_HZ: 
INSTRUMENTAL_DAMPING: 
FULL_SCALE_G: 
N_BIT_DIGITAL_CONVERTER: 
PGA_CM/S^2: 20.419
TIME_PGA_S: 
BASELINE_CORRECTION: BASELINE REMOVED
FILTER_TYPE: BUTTERWORTH
FILTER_ORDER: 
LOW_CUT_FREQUENCY_HZ: 
HIGH_CUT_FREQUENCY_HZ: 
LATE/NORMAL_TRIGGERED: 
DATABASE_VERSION: 
HEADER_FORMAT: DYNA 1.2
DATA_TYPE: Acceleration
PROCESSING: Automatic Paolucci et al., 2011
DATA_TIMESTAMP_YYYYMMDD_HHMMSS: 
DATA_LICENSE: U (unknown license)
DATA_CITATION: Turkish Accelerometric Archive v 1.0 - Disaster And Emergency Management Presidency, Earthquake Department
DATA_CREATOR: AFAD
ORIGINAL_DATA_MEDIATOR_CITATION: : AFAD - Disaster And Emergency Management Presidency
ORIGINAL_DATA_MEDIATOR: AFAD PROCESS SERVICE
ORIGINAL_DATA_CREATOR_CITATION: AFAD PROCESS SERVICE
ORIGINAL_DATA_CREATOR: network: TK
USER1: GuestUser
USER2: 
USER3: 
USER4: 
USER5: 
[...]
-0.701735
-0.750831
-0.820450
-0.887211
-0.911370
-0.883835
-0.837857
-0.812919
-0.790320
-0.754473
-0.731614
-0.693948
-0.653944
-0.616279
-0.538868
-0.433923
-0.318327
-0.183508
-0.027647
0.113146
0.203805
0.246925
0.272382
0.297319
0.317321
0.339920
0.373689
0.409277
0.455515
0.538121
0.633195
0.711904
0.763078
0.789314
0.795807
0.774246
0.732163
0.678910
0.647218
0.622539
0.581235
0.553180
0.505382
0.408748
0.316010
0.271070
0.217037
0.138067
0.087931
0.054161
0.008961
-0.077023
-0.191841
-0.281981
-0.361730
-0.449273
-0.510059
-0.530581
-0.527465
-0.529024
-0.546169
-0.587733
-0.644103
-0.657611
-0.645143
-0.654495
-0.697358
-0.787757
-0.898419
-0.979727
-1.023109
-1.045190
-1.069349
-1.115588
-1.125720
-1.072728
-1.014540
-0.973238
-0.944404
-0.896088
-0.842316
-0.813223
-0.746463
-0.625152
-0.502542
-0.381231
-0.259920
-0.152637
-0.062238
0.010237
0.080893
0.135963
0.177785
0.208437
0.233114
0.304290
0.381441
0.396766
0.390531
0.400402
0.414429
0.419624
0.417285
0.459107
0.570028
0.691858
0.746928
0.741473
0.760955
0.816025
0.875511
0.890577
0.876029
0.937074
1.063321
1.183333
1.225155
1.146445
1.003832
0.886156
0.817317
0.764584
0.732891
0.690029
0.599110
0.489487
0.372331
0.247642
0.133343
0.017227
-0.151363
-0.394507
-0.674277
-0.894301
-1.011977
-1.076400
-1.129133
-1.200051
-1.325259
-1.468652
-1.568923
-1.626592
-1.634645
-1.625294
-1.610748
-1.502166
-1.306041
-1.124724
-0.954836
-0.795080
-0.749101
-0.781053
-0.786769
-0.795082
-0.903146
-1.085244
-1.187074
-1.165773
-1.016407
-0.786773
-0.623380
-0.523889
-0.424398
-0.349846
-0.258408
-0.153462
-0.117355
-0.108264
-0.161517
-0.301792
-0.388295
-0.395050
-0.303353
-0.100474
0.009667
-0.152169
-0.484673
-0.813280
-1.053306
-1.126301
-1.009926
-0.817958
-0.690672
-0.679763
-0.613523
-0.346222
-0.153994
-0.205689
-0.368044
-0.574820
-0.734058
-0.751463
-0.705745
-0.705226
-0.679510
-0.751985
-1.039289
-1.246065
-1.335166
-1.484274
-1.647149
-1.841975
-2.007448
-2.040959
-2.103044
-2.109798
-1.922246
-1.645075
-1.301142
-1.060598
-0.969680
-0.881100
-0.786285
-0.620294
-0.351175
-0.075302
0.022630
-0.057899
0.037176
0.403188
0.745562
0.906358
0.925320
0.814658
0.524757
0.146794
-0.048033
-0.002574
0.135622
0.304471
0.511505
0.809458
1.057276
1.112606
1.155467
1.128191
0.952587
0.802961
0.710223
0.895437
1.360940
1.683312
1.766437
1.718379
1.726951
1.856315
1.798386
1.503808
1.158317
0.880884
0.860362
0.984790
1.116751
1.186888
1.127920
1.228709
1.290014
1.008945
0.630202
0.157424
-0.359255
-0.619283
-0.484724
-0.060264
0.333284
0.435632
0.361078
0.396666
0.366272
0.010649
-0.417968
-0.815154
-1.143242
-1.065312
-0.779308
-0.640592
-0.406282
-0.102095
0.063896
0.170661
0.092989
-0.011438
0.207026
0.398994
0.287553
0.201310
0.117144
-0.237959
-0.484739
-0.196917
0.300018
0.515625
0.547576
0.659016
0.636415
0.530170
0.591474
0.655896
0.916183
1.342202
1.260634
0.634333
-0.063664
-0.335382
-0.007815
0.450935
0.634590
0.578220
0.670697
0.899552
0.824218
0.567567
0.372740
0.387806
0.726024
1.052032
1.086580
0.693291
0.195835
0.384686
0.947602
1.075667
0.906298
0.816158
0.934352
1.138009
1.211523
0.972016
0.228040
-0.561915
-0.765573
-0.285523
0.483130
0.808099
0.874079
1.259315
1.800151
2.327219
2.743107
2.879485
2.597117
2.080178
1.887429
2.354232
3.148082
3.424215
3.097166
2.671926
2.175508
1.860929
2.175247
2.585940
2.221485
1.283982
0.543123
0.459737
0.989923
1.603234
1.767147
1.382171
0.824708
0.530131
0.653780
1.073564
1.288651
1.063692
0.881334
0.795090
0.603381
0.391670
0.140733
0.209571
0.565712
0.668840
0.645200
0.399719
-0.340360
-1.083557
-1.599457
-1.782854
-1.370602
-0.750017
-0.162683
0.046949
-0.755474
-1.975865
-2.530989
-2.385520
-1.844164
-0.997841
-0.320626
-0.341928
-0.827175
-1.283848
-1.622586
-1.604922
-1.291642
-1.104610
-0.879912
-0.710284
-0.839389
-0.803801
-0.480651
-0.056190
0.514259
0.858451
0.720514
0.305924
0.147465
0.696873
1.491243
1.874140
1.855436
1.579303
0.667776
-0.395714
-0.618076
-0.305576
0.160447
0.612703
0.555293
0.256560
0.660498
1.466817
1.756458
1.644757
1.539550
1.719829
2.107402
2.291577
2.422239
2.609531
2.491856
2.516533
2.400676
1.666831
1.375371
1.139761
0.694258
0.842326
1.174828
1.415632
1.148071
0.396821
0.159912
0.157833
-0.011536
-0.028941
-0.033357
-0.072323
-0.059076
0.346421
1.120010
1.783976
2.325591
2.290782
1.971527
2.070238
2.188432
2.059326
1.535634
0.973755
0.775292
0.683593
0.703075
0.765679
1.089349
1.641355
1.770199
1.844752
2.020355
1.889431
1.789939
1.655639
1.420029
1.502634
1.466786
1.306249
1.726812
2.197511
2.353631
2.710032
2.993958
2.959408
2.980449
2.952653
2.576768
1.789671
0.904381
0.744363
1.284420
1.866819
2.312321
2.404018
2.552085
2.918617
2.787953
2.526367
2.534938
2.543510
2.242698
1.524959
1.288050
2.033583
2.954720
3.199161
2.942250
2.597797
2.209443
2.060855
2.016694
2.134628
2.658320
3.059401
3.189284
3.091091
2.657798
2.257495
1.942656
1.603398
2.009415
2.974972
2.883533
1.904727
1.222575
0.837858
0.930076
1.662101
2.319313
2.514658
2.359316
1.923165
1.835103
2.455688
3.034451
3.049257
2.588168
2.166564
2.340348
3.036526
3.807776
4.052737
3.375521
2.259298
1.400505
0.902269
0.719911
0.579117
0.376237
0.132055
-0.015234
0.271289
0.375975
0.136209
0.049705
0.352075
1.099686
1.582334
1.565189
1.269053
1.012921
0.923561
0.621710
0.886153
1.971463
2.685044
2.506843
1.582848
0.439609
-0.279949
-0.404119
-0.077591
0.491820
0.924852
0.938100
0.643522
0.289718
0.423238
0.816526
0.368945
-0.884955
-2.054171
-2.173925
-1.083419
0.458303
1.831435
2.249661
2.080032
2.189394
2.030415
1.711939
1.756099
1.944170
2.242903
2.588394
2.970252
3.145335
2.658269
1.966247
1.469310
1.053681
0.763780
0.336721
0.101890
0.515959
1.244608
2.050407
2.434344
2.297705
1.731151
0.967173
0.808973
1.194209
1.990916
2.704238
2.621112
2.347316
2.234316
2.049101
1.405655
0.682721
0.840919
1.062240
0.557771
-0.347521
-0.970186
-0.617941
0.018750
0.077976
-0.292194
-0.343109
0.241628
0.784283
0.790257
0.479834
0.259030
0.294618
0.478793
0.747133
1.209519
1.476819
1.256536
0.622442
-0.197646
-0.228300
0.460345
0.802199
0.853632
0.979619
1.216267
1.612932
1.976087
2.455358
3.041134
2.905015
1.915818
0.925582
0.750238
0.796477
0.318503
0.370196
1.317309
2.559000
3.849786
4.791444
5.176939
4.810146
3.981486
3.447143
3.241146
2.914098
2.330918
2.036081
2.147521
2.112451
1.787741
1.564340
1.868008
2.425210
2.401051
1.760462
1.559142
1.959963
2.482356
2.920324
2.749136
1.843065
0.582930
-0.152214
0.101319
0.769961
1.337034
1.354438
0.731254
-0.328080
-1.391571
-1.667964
-1.311303
-0.948408
-0.551224
-0.415366
-0.959320
-1.560943
-1.441191
-0.788914
-0.076112
0.236648
-0.156641
-0.659293
-0.835416
-0.938544
-0.912828
-0.870746
-1.339887
-1.985411
-1.968527
-1.418599
-0.962707
-0.827368
-0.725540
-0.474345
-0.184964
0.108833
0.190919
0.168578
0.238975
0.203126
0.088049
-0.087036
-0.502145
-1.058309
-1.288204
-1.020644
-0.603977
-0.413567
-0.624500
-0.948171
-0.833874
-0.316417
0.083106
0.096873
-0.252516
-0.733606
-0.909470
-0.673601
-0.295639
0.109338
0.404434
0.395342
0.176097
-0.087049
-0.510211
-0.878822
-0.689972
-0.124717
0.376115
0.452486
-0.060297
-0.976499
-1.784118
-2.293004
-2.788901
-2.810722
-2.094283
-1.168471
-0.606593
-0.632571
-0.957541
-1.199386
-0.973128
-0.518795
-0.355921
-0.352545
-0.275394
-0.379562
-0.643486
-0.662190
-0.249420
0.492737
0.835110
0.944992
1.278013
1.379842
1.408156
1.302170
0.953821
0.677687
0.446493
0.112950
-0.443473
-0.830788
-0.980934
-1.419683
-1.849340
-1.948312
-2.292245
-2.755932
-2.621892
-1.836874
-1.025879
-0.895996
-1.045363
-1.183300
-1.359683
-1.163039
-0.652856
0.085664
0.728329
1.164479
1.281374
0.223858
-1.029263
-1.054201
-1.043292
-1.678425
-2.025216
-2.728928
-3.831123
-3.846710
-3.519663
-3.214176
-2.444225
-2.513843
-2.914406
-2.425523
-1.839747
-0.889257
0.041231
-0.195678
0.036034
0.752214
0.278137
-0.441940
-0.357516
-0.401677
-0.753664
-0.198800
0.477375
0.937164
1.515667
1.381886
0.932486
1.011455
1.845829
1.211995
-0.812637
-1.050325
-1.093447
-1.100721
-0.135164
0.541790
1.901155
2.287170
1.679052
1.982461
2.027660
1.818286
1.536178
1.324206
1.247055
1.738795
2.176763
1.321347
0.574513
-0.022694
-0.736796
-0.911881
-1.266205
-1.735086
-1.542599
-1.309068
-1.026441
-0.520674
-0.452096
-0.262206
0.084064
0.762578
1.031956
0.550086
0.577361
-0.093620
-0.681216
-0.428981
-0.330270
-0.042708
0.232126
0.809590
1.226517
1.117933
0.257841
-1.104123
-0.902024
0.502800
1.350162
1.668897
1.590706
0.881020
0.785165
0.724379
0.133926
0.447205
0.212894
-1.093999
-1.803426
-1.433777
-0.359118
1.440814
2.609769
1.935930
2.329998
3.487263
3.434270
3.709104
3.683906
2.949281
2.672888
2.427926
2.138284
2.094123
2.127373
2.040610
1.958263
2.819652
3.674548
3.301261
2.534945
1.772526
1.453790
1.782396
1.935918
1.630690
2.214648
2.729507
2.116974
2.189448
2.135416
1.831747
1.725501
1.347019
1.251943
1.263632
2.161129
3.036547
2.732098
2.443495
2.377254
2.406088
2.464795
2.266591
2.043450
1.956687
1.279991
0.653170
0.552639
0.845137
1.612491
1.367270
0.841239
1.038922
1.080744
0.903062
1.362072
1.983176
1.501566
0.775254
-0.047432
-0.756339
-0.427473
0.606143
1.239976
0.734986
0.412354
0.540679
1.057097
2.252808
2.245534
1.867311
1.590138
-0.294738
-1.197433
-0.174987
0.357537
0.334417
-0.102513
-0.867270
-0.820513
-0.235776
0.062177
-0.142520
-0.744403
-0.478401
0.726661
1.953025
2.360081
1.627275
1.736377
2.512303
2.977807
3.496303
2.584257
1.282559
0.842772
0.279335
0.753930
1.881322
1.761828
1.175531
0.608457
-0.555563
-0.623883
0.034369
0.106584
1.378666
2.205247
1.615574
0.874195
0.251012
0.384532
0.638844
1.628299
2.909214
3.336012
2.151470
-0.175272
-0.741566
0.050206
0.833665
1.005631
0.108911
-1.123688
-1.136677
-0.458164
-0.821320
-1.355403
-1.303191
-0.031627
2.029371
3.922299
4.424949
3.259110
2.225233
0.832617
-0.225418
-0.117355
-0.226459
-0.467004
-0.803664
-1.695188
-2.657369
-2.508003
-2.029771
-2.510602
-2.678153
-3.063649
-3.709433
-2.585677
-0.724441
0.585309
0.409965
-0.883421
-1.186830
-0.384667
1.207969
2.350168
2.130144
0.531272
-2.243310
-4.458092
-5.854864
-6.142948
-5.500282
-5.761609
-6.301408
-6.072813
-5.045691
-2.598158
0.720636
2.932300
3.978904
4.303094
3.964876
3.428974
2.523422
1.844128
0.522688
-0.157904
0.322666
0.200574
0.678547
0.428649
-0.156348
-0.351954
-0.870192
-0.762389
0.429166
1.915038
2.443665
3.110229
3.222448
2.827860
2.471977
1.557854
0.665031
0.060290
0.558525
1.138326
1.379130
2.122585
2.419500
2.124662
2.368584
1.897364
1.321458
2.400793
3.402198
5.276423
7.872283
9.831712
9.893017
8.227644
7.701354
6.268473
4.961320
4.806758
4.376582
4.805977
4.189807
3.390761
3.610264
2.756926
1.780457
1.667977
1.268454
1.588747
2.150105
2.307004
2.348307
0.726575
-0.403676
-0.547588
-0.370687
-0.617986
-1.595494
0.285226
2.356874
0.336918
-2.505203
-1.908517
-1.356511
-4.527758
-7.355852
-6.857358
-4.836104
-3.438554
-4.161748
-5.083925
-1.139349
2.587021
4.118872
5.260291
4.627236
8.004998
7.993048
5.655656
6.377550
2.912505
4.344346
6.206881
1.147640
-0.694375
-0.569427
-0.680868
0.719540
0.779806
1.184524
2.746248
1.266609
1.847969
4.980250
5.410166
2.918211
2.133452
7.060469
9.076787
5.346779
0.204413
-1.088193
-1.080920
-4.292172
-4.318409
-5.442685
-7.761894
-5.947935
-5.055633
-3.984090
0.567822
2.414252
1.283222
1.906664
-0.688678
-3.499627
-0.031206
0.562623
-3.952924
-4.610657
-3.717835
-5.127076
-3.738358
-1.307190
-4.642871
-4.570656
-1.891410
-4.491428
-1.235238
0.580540
-2.935680
-2.101825
1.188395
2.351375
-0.099536
1.057730
-0.302935
-2.863728
-0.767661
-2.507068
-2.022601
2.051079
0.416878
-3.695508
-1.955324
-0.469971
-2.403425
-3.186366
-3.936057
-4.903173
-4.992274
-2.845553
-3.560175
-1.679456
0.765480
-2.787107
2.447735
7.828308
5.709900
2.290314
-1.375791
-0.446602
-2.601377
-4.350395
-3.898919
-7.665035
-4.710695
-1.215259
-4.895391
-5.843025
-5.790813
-6.206961
-4.666798
-5.741199
-7.315912
-6.941587
-8.605661
-7.628675
-3.522784
-3.110792
-4.940858
-5.845370
-4.952289
-6.627792
-8.048983
-6.678189
-7.781164
-5.793680
-3.369267
-5.710555
-7.066025
-7.636996
-7.973396
-5.361430
-4.532771
-6.737941
-4.347038
-1.358149
-3.129507
-3.314722
-0.266606
0.829355
-0.417272
-0.361682
2.992440
3.735376
-0.146596
-0.746921
0.979496
4.946412
6.953118
0.922605
-2.065246
0.980532
1.622938
3.140242
5.768054
5.307484
9.325314
9.102952
1.737752
-1.206199
-4.889189
-1.729892
2.011805
-3.039643
-3.300191
-3.840249
-4.480577
-5.925667
-9.047559
-8.368786
-10.979454
-10.721505
-8.398401
-7.796000
-3.682835
-3.845710
-5.839949
-4.053526
-6.230122
-8.122791
-3.248247
0.560730
-0.055700
-1.628336
-2.297758
-0.758894
3.307253
3.762106
-2.038253
-4.835954
-5.276261
-8.096302
-7.263746
-6.443919
-8.923924
-10.299656
-14.764807
-16.083909
-12.519894
-13.255557
-9.617768
1.541082
7.887212
6.560057
9.247875
16.842449
20.418674
17.570058
6.679807
-1.573800
-0.943604
-2.912385
-9.065249
-12.045047
-11.289903
-9.318005
-7.720173
-8.143076
-2.989540
1.305202
-7.113877
-7.617568
1.164146
3.498940
4.100042
1.998259
0.576029
2.755222
-0.863346
-5.475006
-3.027993
-1.270664
-5.341747
-9.455173
-10.739986
-8.192702
-3.552468
-5.113414
-7.403269
-4.192278
-1.276904
0.431589
-2.268958
-7.090511
-8.738480
-10.645177
-12.659418
-13.150640
-14.459091
-14.744837
-9.334910
-2.761224
-1.185472
-2.459375
-1.384196
-2.172073
-4.841708
-4.520895
-4.772871
-1.899059
0.101933
-1.401864
0.795252
0.968517
0.229996
1.767821
1.052680
1.628065
2.883783
2.424512
-0.559183
-3.824206
-2.948010
-4.763788
-4.606109
-1.981415
-2.534461
-0.102255
-0.829346
-4.106059
-3.235058
-2.591354
-3.432223
-4.404535
-4.391287
-1.977524
-0.781034
2.617769
8.129784
4.362629
-0.909881
-3.421838
-5.337367
-2.667992
-0.447756
2.485542
2.172522
-3.933064
-5.608568
-5.873012
-6.247858
-3.975409
-3.517958
-4.101138
-5.534278
-8.572524
-8.701110
-3.909951
-1.527880
-4.731858
-4.368183
-3.143378
-5.644424
-3.376391
-0.470888
-0.578952
0.363226
-0.901585
-2.009755
-2.702557
-2.599689
1.372162
5.063723
7.970006
6.691428
3.819952
4.296366
1.507497
-0.920814
0.832099
-1.105510
-6.202937
-4.342220
0.053313
-0.327248
0.273855
-1.504517
-6.856516
-7.808307
-6.603503
-7.202009
-5.634051
-2.532163
-2.419943
-1.241637
0.393342
-0.705737
0.048889
-0.221271
-2.816353
-3.164183
-1.194883
-0.706000
-5.774073
-8.015871
-6.733916
-9.611107
-10.744215
-8.253561
-6.384011
-7.174486
-6.546368
-0.334538
6.238369
4.936672
-0.770430
-1.321658
-1.626886
-3.381100
-4.280157
-2.627514
0.598283
-2.749866
-4.992703
-2.731164
-2.359436
-1.870554
-0.554310
0.303183
0.788689
0.907921
-0.746801
0.286036
2.490686
0.827911
-0.286754
-1.463244
-3.665297
-7.717677
-9.958176
-5.947620
-1.394928
1.149758
0.135624
-1.070220
1.731637
5.614647
7.577972
6.289783
2.912799
-1.079315
-2.045133
-1.531572
-2.588828
-2.949387
-3.205259
-2.661565
-1.853687
-1.102699
0.022615
-0.225983
0.267835
-0.228322
-2.457651
-4.217060
-6.043229
-6.254681
-4.810372
-3.175913
-3.382688
-5.612017
-6.650051
-4.906489
-2.140221
-1.109203
-0.034803
1.223772
1.438859
3.101373
4.383068
4.159667
3.163716
1.016474
-0.362375
-0.402899
-1.018550
-3.670781
-6.472119
-7.729137
-7.984229
-6.665128
-3.213852
-1.793702
-2.111398
-1.118826
-0.613058
0.991528
0.393282
-1.332877
-0.020010
-0.338746
0.619797
3.998598
6.290789
6.824352
4.643859
4.405911
6.504576
6.666930
6.294422
2.259187
-2.763427
-4.036030
-4.987821
-0.841146
1.920446
1.077499
4.200428
1.915509
1.136984
5.162867
5.351198
6.279088
4.465388
3.605556
7.231136
7.201002
5.142601
5.275601
7.156320
7.170347
5.502896
4.717358
2.336584
-0.362146
-0.422153
-0.955716
-0.674388
1.506623
2.712984
2.703372
2.002258
2.647521
1.459861
-0.390986
2.722332
5.874615
6.814455
6.526632
4.705918
3.367593
2.358654
3.950511
6.338817
4.804627
2.143304
-0.963521
-2.747868
-1.031582
0.234267
0.565211
2.909096
3.222635
2.224866
5.717185
5.489628
4.986457
9.732676
9.292109
8.461371
8.382660
5.819790
6.525578
7.364888
7.091871
6.156706
4.765648
4.550040
4.749022
7.046149
7.871691
5.058144
3.525773
4.255720
6.188652
6.792872
5.490914
6.276712
5.247771
1.567118
1.139540
0.655332
-0.631819
-0.514405
0.383613
1.918061
2.365900
3.608370
5.594035
5.841593
5.866531
5.290625
4.435728
5.020984
3.562387
0.954576
1.452810
0.451145
-1.139415
-0.610788
-0.414144
1.666077
2.778662
2.374463
2.592148
1.527099
1.069387
0.439969
-1.456078
-2.984813
-2.615683
0.015246
-0.144252
-2.918315
-2.403975
-1.807548
-2.805058
-2.086540
-2.061603
-1.646235
-0.764843
-1.755338
-0.734451
1.541635
2.119878
1.382916
1.755162
2.830861
0.972221
0.650108
2.743057
2.255213
0.438655
-0.575220
-0.427932
-0.388967
-2.235658
-4.837494
-5.421713
-3.392407
-1.771975
-1.972256
-2.799878
-3.771410
-3.720756
-4.504477
-5.557576
-4.080796
-3.845707
-3.872204
-3.774012
-5.154679
-3.792197
-1.869915
-0.672385
-0.086350
-2.323212
-3.249285
-2.245802
-2.125011
-2.697280
-2.579086
-1.974607
-3.440478
-4.710744
-4.021060
-4.109382
-4.393049
-5.310550
-6.913319
-6.283382
-5.439656
-5.288732
-2.778076
-0.001417
-0.776565
-1.210638
1.916968
4.339563
5.415001
6.321591
5.286934
3.768071
2.218814
0.081183
-0.560704
-0.928795
-1.191941
-0.034416
0.774241
0.942051
0.451608
0.765407
1.099209
-0.687476
-0.790344
0.001428
-0.111572
1.458465
2.894461
1.647315
-1.545753
-1.522634
3.038370
5.011047
4.133291
1.982152
0.237810
0.318857
-3.338416
-4.991060
-2.868757
-4.260594
-3.499215
0.221700
-1.406266
-4.892872
-4.328656
-1.982953
0.455748
-0.631641
-3.189836
-1.942691
-0.315245
-3.815099
-6.576433
-1.102604
2.967959
0.013618
-2.992417
-2.132586
-1.160795
-1.329904
-1.780602
-2.724600
-0.254727
0.823569
0.364819
1.681062
-3.879011
-8.851489
-4.891588
-1.060531
1.470907
2.858327
0.030752
-1.169116
1.822371
2.697788
1.312445
0.793688
1.242306
4.654617
8.145638
5.594976
2.801171
2.161622
-1.478506
-2.650060
0.675228
1.390629
-2.119616
-4.349464
-3.976958
-1.970251
0.147376
1.650133
2.565555
0.273881
-0.182531
2.538277
4.339767
2.316175
0.206339
3.453957
3.529289
0.594690
0.674698
0.797048
0.890044
-0.216567
-2.069493
-0.553747
1.917424
2.760371
1.862092
2.746861
4.998010
3.760734
5.469487
8.187438
6.157352
3.887759
1.231111
-1.548406
-1.718295
-2.103791
-3.616940
-3.696949
-3.137669
-2.977133
-5.512988
-4.334162
2.436429
3.577069
0.600648
-0.604936
-0.055527
-0.264641
-1.116681
-0.920556
-1.802989
-1.255139
1.804667
1.946500
-0.071118
-1.146038
