EVENT_NAME: 202302060117
EVENT_ID: 13194
EVENT_DATE_YYYYMMDD: 2023/02/06
EVENT_TIME_HHMMSS: 01:17:32.00000
EVENT_LATITUDE_DEGREE: 37.288
EVENT_LONGITUDE_DEGREE: 37.043
EVENT_DEPTH_KM: 8.6
HYPOCENTER_REFERENCE: AFAD
MAGNITUDE_W: 7.7
MAGNITUDE_W_REFERENCE: AFAD
MAGNITUDE_L: 
MAGNITUDE_L_REFERENCE: 
FOCAL_MECHANISM: 
NETWORK: TK
STATION_CODE: 3112
STATION_NAME: 
STATION_LATITUDE_DEGREE: 36.58801
STATION_LONGITUDE_DEGREE: 36.14766
STATION_ELEVATION_M: 1.0
LOCATION: Kahramanmaras_Pazarck_Turkiye
SENSOR_DEPTH_M: 
VS30_M/S: 233
SITE_CLASSIFICATION_EC8: C
MORPHOLOGIC_CLASSIFICATION: 
EPICENTRAL_DISTANCE_KM: 111.31
EARTHQUAKE_BACKAZIMUTH_DEGREE: 
DATE_TIME_FIRST_SAMPLE_YYYYMMDD_HHMMSS: 2023/02/06 01:17:31.2356490
DATE_TIME_FIRST_SAMPLE_PRECISION: millisecond
SAMPLING_INTERVAL_S: 0.01
NDATA: 6576
DURATION_S: 
STREAM: HNZ
UNITS: cm/s^2
INSTRUMENT: sensor = CMG-5T/GURALP | digitizer = 
INSTRUMENT_ANALOG/DIGITAL: 
INSTRUMENTAL_FREQUENCY_HZ: 
INSTRUMENTAL_DAMPING: 
FULL_SCALE_G: 
N_BIT_DIGITAL_CONVERTER: 
PGA_CM/S^2: 83.965
TIME_PGA_S: 
BASELINE_CORRECTION: BASELINE REMOVED
FILTER_TYPE: BUTTERWORTH
FILTER_ORDER: 
LOW_CUT_FREQUENCY_HZ: 
HIGH_CUT_FREQUENCY_HZ: 
LATE/NORMAL_TRIGGERED: 
DATABASE_VERSION: 
HEADER_FORMAT: DYNA 1.2
DATA_TYPE: Acceleration
PROCESSING: Automatic Paolucci et al., 2011
DATA_TIMESTAMP_YYYYMMDD_HHMMSS: 
DATA_LICENSE: U (unknown license)
DATA_CITATION: Turkish Accelerometric Archive v 1.0 - Disaster And Emergency Management Presidency, Earthquake Department
DATA_CREATOR: AFAD
ORIGINAL_DATA_MEDIATOR_CITATION: : AFAD - Disaster And Emergency Management Presidency
ORIGINAL_DATA_MEDIATOR: AFAD PROCESS SERVICE
ORIGINAL_DATA_CREATOR_CITATION: AFAD PROCESS SERVICE
ORIGINAL_DATA_CREATOR: network: TK
USER1: GuestUser
USER2: 
USER3: 
USER4: 
USER5: 
[...]
-3.125785
-2.299964
-1.422526
-0.400137
-0.302666
-0.074650
-0.226865
-1.506566
-2.486165
-2.388393
-2.352143
-3.441879
-5.665404
-7.170483
-8.380861
-10.913192
-13.376799
-14.524755
-13.956722
-12.204184
-10.532973
-9.234490
-8.015534
-7.526429
-8.119194
-8.424161
-7.026044
-4.391803
-1.357824
1.372450
3.825429
6.452167
8.059156
8.573470
8.979747
8.998891
8.052004
6.025947
3.175807
1.143748
-0.502679
-2.640075
-3.647583
-3.751781
-3.547173
-3.449702
-3.798184
-3.763734
-3.093967
-2.436804
-1.909585
-1.677368
-1.666327
-2.238685
-2.442517
-2.032639
-1.881750
-1.244393
-0.272122
0.599914
2.513308
4.731907
6.203850
7.185124
7.590801
8.215553
8.591219
8.181516
7.453704
6.161699
4.457352
2.888651
1.813920
2.066845
3.061324
3.776106
4.840809
5.365627
4.523776
2.914561
1.234823
0.298139
1.017424
1.863352
1.112132
-0.470974
-1.862313
-3.066989
-3.595232
-4.119275
-5.102774
-5.146952
-4.840609
-3.982077
-2.486126
-0.713781
1.091576
2.896633
3.350026
2.857495
2.761700
3.463878
4.805876
6.419467
7.731755
8.806061
9.320676
9.306808
9.246125
9.544065
10.334774
9.931073
8.166406
5.975892
3.066332
0.185281
-2.368657
-5.141971
-7.665299
-9.903829
-11.251954
-10.445339
-8.464422
-7.170441
-6.695740
-6.002265
-4.631757
-3.856353
-3.155075
-1.542384
0.718829
2.183569
3.401024
4.302171
5.431696
7.155425
7.990249
7.023855
5.765161
5.115076
4.670261
3.257614
1.248362
-0.033740
0.363234
0.843637
0.143734
-0.168135
-0.456596
-1.348865
-2.011554
-3.362380
-6.744903
-10.141530
-13.126716
-15.417164
-16.566321
-16.200858
-14.094798
-10.637974
-7.923006
-6.409649
-5.264818
-4.549135
-4.533892
-4.396508
-3.655616
-2.558802
-0.525967
1.378124
2.512450
3.329568
3.210365
1.868543
0.471801
-0.498794
-0.876386
-0.211420
0.957118
1.850162
2.321561
2.756348
2.607435
0.888683
-2.437420
-4.762680
-5.897732
-6.323940
-5.349568
-3.533708
-1.442353
1.090153
2.404842
2.626556
2.718325
2.089247
1.319720
0.267797
-1.393335
-2.584506
-2.899676
-3.544060
-3.775501
-3.209870
-2.219592
-0.901303
0.698484
2.146718
3.173008
3.404025
2.932801
2.332533
1.508388
0.114047
-1.413539
-1.494029
-0.442531
0.793831
2.674213
5.811727
9.346877
12.144375
13.357929
13.097977
12.165795
10.689826
9.280181
7.977972
6.503203
5.335741
4.934441
3.981551
3.311359
3.611700
3.405767
2.294723
0.697513
-0.975023
-1.117634
-0.733265
-1.667547
-2.868322
-3.190394
-2.574345
-0.910937
0.260002
-0.135596
-0.914125
-1.392552
-1.915694
-2.853277
-4.142882
-5.060059
-4.030468
-1.919006
-0.783779
-0.189038
1.839296
4.956102
7.318750
8.679655
10.153698
11.114565
11.010067
10.917273
11.864636
13.936184
15.871185
16.594071
16.409445
16.147693
14.914508
11.718649
7.988607
4.714722
2.944353
2.152018
0.511593
-1.790559
-3.640155
-4.353862
-4.380934
-5.556500
-6.872513
-6.809554
-5.954023
-5.369485
-5.271113
-5.314691
-5.417088
-5.482873
-6.063635
-7.040532
-7.295982
-6.446153
-5.172578
-2.687488
0.886375
3.363963
3.781644
3.136660
1.946990
0.733011
-1.158300
-3.218569
-3.695195
-2.931495
-1.900704
-0.790386
1.502939
3.810368
4.528452
4.443460
4.104582
3.901049
5.128108
7.008791
8.812347
9.689185
9.073012
7.820320
5.623204
2.833985
0.297452
-2.602805
-5.530972
-7.705580
-9.189651
-9.568143
-9.208082
-8.741785
-9.545223
-10.965972
-10.390437
-9.181985
-7.702240
-5.287674
-3.877252
-2.773236
-0.777014
0.769354
-0.042787
-2.795693
-4.794141
-6.150669
-8.056985
-9.714216
-11.209691
-12.152977
-12.014092
-11.182869
-10.038038
-9.427691
-9.020814
-8.510401
-9.180294
-10.058457
-9.756916
-8.092608
-6.261742
-5.296973
-3.662975
-2.135214
-1.692324
-1.484715
-1.728461
-2.434065
-2.094111
-1.589700
-1.438211
-1.189488
-1.506759
-2.708434
-4.068562
-6.139035
-8.055255
-8.415440
-7.732769
-5.452049
-2.156681
0.863493
4.425352
8.583216
10.799714
11.326332
11.482924
11.331309
10.449845
8.848733
7.122779
4.923262
2.935918
1.943415
0.767850
0.829308
2.530530
4.057091
5.460310
6.130977
6.178932
5.461923
3.599722
2.171170
1.318515
1.825627
4.399847
6.739087
8.556748
11.126167
12.713049
12.526323
12.200949
12.176878
12.072380
11.946275
11.984025
11.840214
11.143612
10.117798
9.216527
9.051108
8.728735
7.735031
5.765994
3.517860
2.627092
2.654039
2.122795
1.261437
1.970218
4.913565
7.575115
8.498170
8.054555
6.778455
6.562619
6.068587
4.201284
2.551556
1.038375
-1.310893
-3.866332
-5.257372
-5.849237
-6.532934
-7.176117
-7.160574
-5.877996
-4.642835
-5.558211
-6.905436
-6.148339
-4.909876
-5.316578
-5.388965
-3.777475
-2.359551
-1.354868
-1.257697
-2.034426
-2.363701
-3.156336
-5.753789
-8.562215
-10.334385
-11.170234
-11.590440
-11.120842
-9.226954
-7.568948
-6.952899
-6.163691
-5.927272
-5.806993
-5.267470
-6.373712
-7.244973
-6.095941
-4.012389
-2.998404
-3.844456
-5.188680
-4.954362
-5.500311
-7.032399
-6.891413
-4.963614
-1.262507
3.199361
5.482782
6.350917
6.857729
6.877773
6.528991
5.063526
4.327312
4.794209
4.851767
3.908181
2.148915
0.302919
-0.187811
-0.893416
-2.482823
-3.089994
-2.179244
-1.717147
-2.499578
-3.727062
-4.725866
-5.153876
-5.080413
-4.326016
-3.740878
-3.621199
-3.641669
-4.111392
-3.687709
-1.592753
0.507005
1.884415
2.466252
3.112011
4.822536
7.700161
10.448741
10.823207
10.662890
11.918458
11.745536
8.607898
4.797128
2.579005
2.257233
2.319291
2.568014
3.350320
4.723229
6.702646
6.271335
2.979444
0.203129
-0.970936
-1.280704
-0.152980
1.475316
2.844323
4.979493
7.971457
9.684683
8.849134
5.274545
0.848565
-1.381262
-2.231516
-2.477663
-1.719966
-0.217713
1.004244
1.913794
1.674549
-0.716133
-3.147629
-5.075553
-8.442770
-12.112191
-14.272394
-14.204934
-12.197908
-9.698112
-7.153902
-4.351003
-1.048733
1.747864
3.103967
3.201738
2.849055
1.822340
0.313961
-1.405392
-2.981594
-3.507137
-4.307874
-6.319226
-7.046438
-5.642919
-3.137122
-1.171810
-0.838458
-1.632293
-2.923098
-3.778454
-3.850541
-2.992909
-1.149739
1.037049
3.698299
6.818707
7.763969
7.003746
6.722487
5.519312
3.035598
1.681471
1.555966
1.738366
2.456150
3.945798
5.267990
5.500807
5.105209
5.769575
5.958577
4.438793
4.156034
4.659544
4.413998
5.025245
6.487284
5.913725
3.554254
0.513248
-3.892325
-8.409237
-12.325643
-15.220498
-14.953769
-12.854611
-11.720284
-11.345818
-10.485786
-10.879283
-13.914586
-17.417450
-19.297657
-19.415960
-18.167895
-16.257202
-13.866044
-10.719227
-7.414556
-5.893096
-6.401833
-6.592461
-5.191642
-4.128440
-3.504588
-1.574689
0.994430
1.985007
1.513783
0.262892
-3.427236
-8.066290
-10.374744
-10.290177
-8.564347
-5.010591
-3.606171
-3.940849
-3.073613
-1.581864
0.480681
1.976332
1.253621
1.322883
3.107533
3.525214
2.540814
2.633483
3.393881
3.672315
2.312786
-0.300273
-0.361556
2.011296
4.719962
7.791754
10.166106
11.424375
10.439675
7.603340
6.243811
5.301425
3.013378
1.523605
1.648685
2.654568
4.578466
6.117631
7.896879
11.419425
13.920120
14.724634
15.477230
16.156300
15.059662
11.052625
8.414058
9.046012
7.690085
4.068080
1.837953
1.625418
3.632444
3.819646
0.470434
-2.431923
-4.784193
-7.055434
-9.200932
-11.200280
-11.451229
-12.300582
-13.871684
-14.362114
-14.402390
-12.153781
-7.786746
-4.621022
-1.210715
3.169525
5.387223
5.324439
3.922296
2.678607
1.934290
0.220940
-2.270877
-5.766539
-8.265258
-9.342990
-10.129622
-8.555345
-6.778798
-5.257338
-1.419684
0.295942
0.322889
2.782170
6.089842
9.049095
10.043574
7.667296
5.600125
5.321567
3.165565
-0.251169
-2.702472
-2.661421
-0.778037
0.473030
1.448002
2.907640
3.339426
2.462463
1.546486
0.541979
-1.810590
-3.401198
-5.199777
-8.620413
-10.955276
-13.311746
-16.575728
-18.588881
-18.339858
-15.385707
-10.622236
-6.018119
-1.733912
0.859215
1.393636
1.928658
1.846067
1.745170
4.083510
7.327260
9.805748
13.545268
15.397441
13.592560
10.290165
6.464390
2.755656
0.751206
-0.194481
1.077893
3.031801
3.216002
2.026631
0.107711
-2.376604
-2.727486
-0.362738
1.810846
3.786061
7.855694
12.829838
15.335035
14.449969
11.875924
10.216592
6.506357
1.708549
0.498472
1.558373
1.092251
0.446667
-0.526329
-1.196221
-1.754475
-3.673695
-4.647292
-3.353310
-1.055484
1.486925
3.096615
5.597010
6.517364
5.079508
5.593522
7.528524
7.963310
6.261364
2.928659
0.206663
0.781898
1.740364
1.839336
2.598534
1.468884
-1.627941
-3.917488
-4.494048
-3.293999
-0.120773
1.801924
2.581829
5.297098
6.267869
4.693167
3.804199
-0.057888
-4.015408
-5.078134
-8.185162
-9.742759
-9.602373
-12.875958
-16.178654
-18.820822
-21.837219
-20.744007
-19.770235
-18.480755
-13.725386
-11.103449
-11.905086
-10.286094
-6.327498
-4.682996
-7.216528
-8.697898
-8.014326
-7.947766
-6.930779
-2.808027
-0.096960
0.764573
2.290835
5.890807
7.817706
6.232800
6.121699
7.956766
7.038689
5.944451
6.646030
9.308781
10.439806
7.978000
7.455158
9.921642
9.457920
5.283726
1.932714
2.564369
5.074067
6.232402
5.477881
6.283895
8.350041
7.961346
6.710154
4.949088
2.626829
-0.108972
-1.213113
-3.038101
-5.347155
-6.863938
-8.242073
-10.747995
-7.801647
-3.197530
-2.604589
-2.147594
0.861775
4.813168
8.525679
9.415722
6.739342
4.017046
4.307183
3.260062
-3.330561
-6.493408
-3.486439
-0.086636
0.139280
0.105306
2.142342
3.663501
1.602632
1.314171
2.511819
1.417281
-0.398704
-1.455128
-4.056783
-6.886216
-8.190826
-12.008498
-15.684821
-15.043863
-14.682902
-13.657213
-8.832520
-6.349231
-9.284600
-10.387240
-7.950167
-7.914817
-8.548997
-6.984022
-5.287903
-5.104002
-4.725635
-4.022856
-1.432130
2.746141
6.522874
5.978725
3.881844
3.681913
-0.494382
-7.128820
-7.512114
-7.619013
-12.117018
-11.867095
-9.188738
-6.678140
-7.857907
-10.936725
-8.677012
-5.262804
-8.077531
-10.131498
-6.951970
-5.178424
-3.595143
-0.772137
0.586366
4.562968
7.654566
7.003280
6.752932
4.346644
4.456120
4.434150
0.244650
-0.517073
2.887832
6.534921
6.756335
2.204611
2.098012
7.818512
9.575852
6.750321
4.565509
1.436273
1.715907
3.871784
4.046082
3.498031
2.738708
2.037606
1.473350
1.567520
4.512667
7.809536
10.243008
10.295164
11.311550
11.810559
9.914146
10.442565
9.567102
7.370287
8.239322
9.716667
9.997201
6.113806
1.404529
0.661411
-1.451676
-3.268861
-2.473651
0.160890
7.211446
14.884716
19.073790
23.607983
26.257530
23.049367
19.238297
18.683945
15.821201
11.725334
9.119777
6.167603
1.193634
0.206533
2.647208
0.065360
-2.948036
-6.681079
-10.951306
-9.485665
-9.521440
-12.697792
-9.829470
-1.337220
2.536447
-3.040729
-11.292421
-16.219574
-16.743616
-16.527604
-16.793258
-12.929795
-10.453408
-10.298617
-7.909560
-5.280120
-3.761062
-5.582449
-9.034895
-8.624117
-6.690316
-6.096474
-3.918089
-2.056613
-1.316922
-0.296934
-1.864134
-0.845347
5.529077
10.088778
9.408983
6.680385
6.100824
6.467187
4.557570
4.179377
3.220486
1.381093
1.089631
-1.123691
-1.664539
3.140347
6.496636
4.254805
1.092858
2.671037
2.843233
-4.462235
-10.083825
-11.510577
-7.764754
1.895797
7.290085
10.749609
14.258950
11.205941
1.980114
-9.932534
-20.658276
-21.968888
-19.280928
-15.766185
-10.334684
-3.596835
-0.320674
1.077443
-3.615329
-10.251267
-11.340703
-10.529287
-8.328695
-3.351250
4.448963
14.752335
24.343262
26.165425
19.944829
14.142877
12.077206
6.988598
0.242522
-2.321320
2.029210
7.902162
14.291591
19.072469
15.961839
10.170991
10.538555
10.490776
7.770881
5.417411
5.259494
4.473462
3.298197
-0.714542
-4.404370
-5.278332
-11.114196
-13.533688
-7.927527
-4.720390
1.157964
5.779787
7.635861
8.522303
-0.440634
-8.100523
-4.948905
1.721421
8.389646
11.041293
13.659329
17.177973
14.758781
11.313237
9.744236
6.499161
0.682804
-1.490904
0.243028
2.584369
0.832606
-3.147722
-4.600583
-5.064904
-8.013778
-9.816559
-13.500385
-11.120931
-3.413750
-4.398450
-7.492273
-9.059773
-13.473749
-16.306183
-17.660310
-17.928064
-17.689545
-20.403738
-23.496361
-25.711783
-23.530398
-20.671980
-17.347201
-9.466261
-3.733757
-4.439661
-6.306364
-4.860530
0.609684
1.536939
-2.588338
-3.209613
0.883428
0.414305
-5.249600
-5.540762
4.447501
13.741627
16.230618
17.711564
22.719019
25.615550
25.930896
27.380631
25.791524
28.125362
32.421273
34.483518
32.954131
24.402335
15.847839
12.751915
8.278218
4.182951
-2.444285
-5.038437
2.477579
3.499067
-0.530778
1.183348
5.972628
6.757635
0.770519
-7.906119
-12.251372
-12.268540
-12.100545
-16.345263
-18.059213
-16.749326
-18.677550
-13.441717
-3.287496
1.381143
8.894458
17.498346
13.087371
7.265012
6.063337
0.004797
-12.918598
-26.280444
-34.437004
-40.545962
-45.255839
-47.375529
-42.940970
-31.362761
-19.523162
-11.072926
-7.220267
-11.295127
-18.970922
-19.898903
-20.742555
-26.241103
-22.477875
-11.459058
0.930930
14.564244
21.261879
24.172515
28.385297
21.173461
7.802013
4.059367
15.623771
29.144546
33.652030
28.341346
22.046024
8.721992
-12.802654
-23.110652
-11.012364
7.660278
22.678867
35.050248
41.004528
31.021842
10.650492
5.410633
10.035457
7.187117
3.562412
-4.440196
-16.007125
-18.496842
-31.016298
-47.678076
-35.520968
-7.438898
6.959378
19.512922
38.534284
50.609763
40.706904
29.811305
19.160889
10.813764
1.694774
-14.505746
-36.505454
-50.044660
-45.348112
-27.791552
-14.164840
-0.241327
24.009629
34.626308
20.897136
4.867976
-1.366124
2.887772
8.547351
11.268322
9.454438
-9.168813
-20.700630
-32.325480
-49.072487
-37.724757
-22.025534
-27.944227
-14.837293
9.269013
14.485040
6.080595
8.383522
18.687794
21.205595
17.903500
12.048130
7.634153
15.422963
5.835212
-20.327224
-31.284945
-30.972600
-23.623142
-13.696399
-2.599555
19.395827
38.892552
36.459855
21.378119
18.617410
29.485576
30.734242
22.505657
5.208562
-8.280828
-11.312530
-27.230052
-32.579749
-16.417168
0.675433
7.722387
-7.546912
-12.637321
8.963726
2.370402
-26.134337
-42.660168
-62.918979
-83.964660
-83.100726
-78.333653
-57.637717
-9.103932
30.912031
49.729323
49.141659
50.311398
62.525525
50.216741
27.338031
4.442516
-18.327557
-14.299938
-14.207568
-25.379863
-24.211024
-17.913126
-5.466119
-1.981687
-15.799989
-17.936184
-8.043053
-3.414327
-12.558226
-14.215457
8.155654
28.788869
24.977499
25.191110
31.543027
18.899928
0.499654
1.533746
11.008234
20.491124
22.432728
19.095221
20.560861
23.582835
13.262233
12.547625
20.323230
19.135060
10.699404
-3.059177
-13.560441
-20.890518
-41.517555
-52.447367
-35.987083
-20.325674
-9.922067
-0.675358
7.936033
14.222827
13.086575
-3.636123
-15.713528
-11.048490
-3.117432
-9.330826
-17.421663
-16.191904
-11.444938
-1.654142
13.371649
26.017024
36.888191
32.389285
9.668430
0.652075
3.517696
-1.290916
-6.643014
-10.695967
-6.798292
-4.273889
-8.985267
-15.322603
-22.164712
-25.584448
-17.427712
-10.728577
-14.898569
-17.282649
-6.060963
9.078268
14.295495
4.839189
-12.597754
-22.407281
-32.477598
-36.805745
-22.702169
-3.630990
8.113176
11.612313
6.505699
9.456849
17.800849
19.068722
18.809970
13.912828
4.760527
4.397040
14.199540
27.012372
22.617002
3.602418
-7.694719
-7.314851
-14.267699
-20.563320
-15.157929
-12.049825
-1.393532
16.111110
26.466699
26.585778
17.444280
0.273228
-10.111897
-9.624292
-3.024790
-2.085230
8.946191
22.830691
32.013178
42.239424
34.935456
17.552831
6.226284
-3.150495
1.945791
12.214351
19.929035
32.588515
37.281762
34.869772
35.497825
30.296679
22.663799
24.946319
42.373534
53.206588
45.696750
23.263993
7.679285
12.597009
20.217761
15.508783
13.309267
26.442609
42.084812
37.832891
16.162096
7.793663
1.886375
-11.719755
-21.912513
-30.029760
-25.242280
-8.825211
-7.409688
-22.795128
-38.767268
-39.388544
-24.753186
-22.462863
-18.621908
-0.674314
7.408896
-7.340926
-25.134391
-38.415509
-43.250230
-39.624448
-36.748324
-35.517064
-19.707104
2.344098
13.892897
21.028382
30.134043
39.008024
39.715904
30.198978
21.157414
24.495397
19.013054
-14.701172
-49.306404
-48.974853
-39.154947
-36.279423
-33.815640
-18.827662
-2.881455
13.400868
16.246982
17.826661
27.405284
37.758473
33.379909
22.244827
15.639799
29.932440
32.597891
16.412377
19.396239
46.875402
65.062778
57.091381
39.935334
37.914979
19.307634
-16.171798
-28.158571
-26.141942
-34.093832
-38.211307
-40.462441
-29.491640
-15.116772
-39.922143
-72.306913
-72.939893
-54.213532
-36.074172
-14.686199
-0.136070
10.091075
3.429028
-13.458727
-22.106856
-26.787023
-42.094436
-51.242836
-58.328629
-63.590996
-56.796428
-47.797904
-45.392041
-47.024964
-41.461418
-31.233072
-39.940621
-50.138781
-46.052342
-42.577212
-42.476440
-44.075150
-32.384103
-9.799018
-4.357314
-0.263973
12.709415
12.467169
15.845066
30.432407
32.210154
30.550223
32.271551
23.329621
12.064595
-2.429239
-6.718072
8.554704
10.917352
0.055964
-0.824900
3.889354
11.700071
29.086773
41.398733
42.277072
41.032183
37.532320
33.742558
25.560489
7.635878
1.600746
7.052354
-2.868812
-17.128565
-15.284495
-20.172034
-30.328480
-26.585658
-13.893167
-8.093740
-17.830942
-23.170736
-12.910579
-8.619470
-13.364460
-10.703209
0.521178
19.496625
21.658204
10.467903
0.566544
-2.996040
0.638444
2.809327
0.003902
7.124382
8.799794
4.835072
-4.876021
-14.054432
-14.245660
-6.429841
-10.860023
-23.861745
-38.078584
-45.533503
-44.390473
-37.023609
-42.752336
-51.775593
-45.080959
-38.065215
-38.997698
-28.364813
-15.136638
-24.593844
-27.208103
-12.778616
2.636409
14.849035
29.522806
16.646227
6.914127
-0.101142
-5.712229
0.544555
12.100256
18.746273
27.009846
19.083464
7.537842
7.649418
15.289676
13.148079
7.914222
5.979396
0.821764
-2.578764
-2.580627
2.420526
13.878093
2.119998
-6.813229
-4.990466
-10.659473
-8.405162
-8.278280
-18.703319
-21.150420
-22.393509
-29.027647
-23.784311
-18.804765
-25.409793
-24.949798
-18.615287
-25.048056
-41.280086
-35.769358
-23.828024
-20.774239
-26.250880
-21.010545
-3.088160
13.206167
9.912474
-4.489228
5.958193
19.302508
19.628358
11.006338
3.915143
3.058887
2.874862
5.007331
26.713414
36.832522
32.041317
28.932488
25.078804
21.647664
22.825806
22.348880
17.809461
13.141297
14.331143
24.624311
40.147373
44.659959
40.697938
32.360416
18.236609
4.829748
5.363569
-5.476212
-2.037695
7.443395
-4.251979
-3.398549
13.340231
3.911834
3.302263
5.220158
11.583479
18.710861
20.873040
17.009153
12.355394
15.449993
21.671965
16.815637
16.585395
17.215249
12.662025
9.139054
7.233638
6.008256
4.890910
3.347418
3.979373
10.215450
21.844976
32.600603
35.599169
40.898324
40.424700
39.330162
39.504759
36.889900
40.955632
38.056576
19.997219
17.994270
24.563761
27.259823
33.174789
30.177899
31.451774
38.899666
25.903046
17.767793
6.409735
-11.927817
-7.140037
14.709195
19.318413
29.329485
27.623937
19.082045
1.662808
-18.931518
-32.518441
-30.931859
-15.904867
-1.419261
7.484131
6.971793
7.888245
4.488616
-15.181693
-31.743536
-23.916914
1.060891
15.550699
3.752390
-0.864456
8.125665
-3.462572
-14.319758
