EVENT_NAME: 202302060117
EVENT_ID: 13194
EVENT_DATE_YYYYMMDD: 2023/02/06
EVENT_TIME_HHMMSS: 01:17:32.00000
EVENT_LATITUDE_DEGREE: 37.288
EVENT_LONGITUDE_DEGREE: 37.043
EVENT_DEPTH_KM: 8.6
HYPOCENTER_REFERENCE: AFAD
MAGNITUDE_W: 7.7
MAGNITUDE_W_REFERENCE: AFAD
MAGNITUDE_L: 
MAGNITUDE_L_REFERENCE: 
FOCAL_MECHANISM: 
NETWORK: TK
STATION_CODE: 0142
STATION_NAME: 
STATION_LATITUDE_DEGREE: 37.62072
STATION_LONGITUDE_DEGREE: 35.611148
STATION_ELEVATION_M: 370.0
LOCATION: Kahramanmaras_Pazarck_Turkiye
SENSOR_DEPTH_M: 
VS30_M/S: None
SITE_CLASSIFICATION_EC8: unknown
MORPHOLOGIC_CLASSIFICATION: 
EPICENTRAL_DISTANCE_KM: 131.69
EARTHQUAKE_BACKAZIMUTH_DEGREE: 
DATE_TIME_FIRST_SAMPLE_YYYYMMDD_HHMMSS: 2023/02/06 01:17:34.7382980
DATE_TIME_FIRST_SAMPLE_PRECISION: millisecond
SAMPLING_INTERVAL_S: 0.01
NDATA: 12501
DURATION_S: 
STREAM: HNN
UNITS: cm/s^2
INSTRUMENT: sensor = ACEBOX/SARA | digitizer = 
INSTRUMENT_ANALOG/DIGITAL: 
INSTRUMENTAL_FREQUENCY_HZ: 
INSTRUMENTAL_DAMPING: 
FULL_SCALE_G: 
N_BIT_DIGITAL_CONVERTER: 
PGA_CM/S^2: 16.658
TIME_PGA_S: 
BASELINE_CORRECTION: BASELINE REMOVED
FILTER_TYPE: BUTTERWORTH
FILTER_ORDER: 
LOW_CUT_FREQUENCY_HZ: 
HIGH_CUT_FREQUENCY_HZ: 
LATE/NORMAL_TRIGGERED: 
DATABASE_VERSION: 
HEADER_FORMAT: DYNA 1.2
DATA_TYPE: Acceleration
PROCESSING: Automatic Paolucci et al., 2011
DATA_TIMESTAMP_YYYYMMDD_HHMMSS: 
DATA_LICENSE: U (unknown license)
DATA_CITATION: Turkish Accelerometric Archive v 1.0 - Disaster And Emergency Management Presidency, Earthquake Department
DATA_CREATOR: AFAD
ORIGINAL_DATA_MEDIATOR_CITATION: : AFAD - Disaster And Emergency Management Presidency
ORIGINAL_DATA_MEDIATOR: AFAD PROCESS SERVICE
ORIGINAL_DATA_CREATOR_CITATION: AFAD PROCESS SERVICE
ORIGINAL_DATA_CREATOR: network: TK
USER1: GuestUser
USER2: 
USER3: 
USER4: 
USER5: 
[...]
0.286190
0.257433
-0.135581
-0.582134
-0.916698
-1.106074
-0.872277
-0.317243
0.437922
1.199867
1.673540
1.831119
1.569967
1.118037
0.884006
0.934739
1.215763
1.473174
1.594982
1.527648
1.146558
0.700940
0.392795
0.397003
0.724787
0.993887
1.184198
1.388069
1.724035
2.282576
2.587915
2.530868
2.441558
2.402747
2.255454
1.520863
0.207857
-0.970715
-1.421476
-1.163832
-0.787419
-0.518318
-0.300420
-0.103563
0.471578
1.364450
1.984947
2.005287
1.530912
1.155901
1.279814
1.733146
2.037082
1.766812
1.148652
0.560652
0.140284
0.052610
0.119943
0.154778
0.229126
0.147530
-0.084865
-0.107543
0.273546
1.124100
2.248899
3.378373
4.433733
5.300887
5.984510
6.431062
6.527153
6.338712
5.867844
5.324265
4.724107
3.766473
2.747117
1.885574
1.237020
1.099313
1.107262
0.923263
0.701155
0.223273
-0.395588
-0.668898
-0.745350
-0.923737
-1.244507
-1.696672
-2.038951
-2.145095
-2.052980
-1.687087
-1.339665
-1.217389
-1.179047
-1.261343
-1.172033
-0.890775
-0.859681
-0.669370
-0.058458
0.573496
1.183472
1.821271
2.572461
3.298402
3.664528
3.983895
4.352593
4.245279
3.470007
2.271095
1.150504
0.437188
0.058904
-0.251111
-0.837008
-1.482055
-1.646648
-1.457039
-1.294083
-1.076885
-0.570714
0.029209
0.374060
0.485815
0.607623
1.002740
1.633758
2.340293
3.181729
3.830750
3.907202
3.544114
2.939047
2.314106
1.716052
1.074512
0.448871
-0.191033
-0.588488
-0.474629
-0.050521
0.416839
0.650402
0.613462
0.501239
0.405382
0.511993
0.963455
1.781044
2.641184
3.084463
3.378112
3.671761
3.629210
3.296048
2.689344
1.890459
1.057672
0.103312
-0.608367
-0.997173
-1.284510
-0.877703
0.222313
1.169192
1.601950
1.574596
1.574361
1.964101
2.313160
2.222914
1.944228
1.841123
1.949838
2.277622
2.611718
2.683025
2.534564
2.130328
1.982802
2.406208
2.593480
2.264526
1.575058
0.740168
0.007213
-1.058201
-2.181831
-2.781288
-3.138764
-3.311541
-3.382382
-3.476836
-3.585318
-3.742430
-3.422830
-2.506345
-1.596406
-1.104263
-0.987832
-0.672908
-0.238747
-0.210925
-0.230798
-0.142657
-0.173752
-0.143826
0.142341
0.701818
1.163099
1.231134
1.207287
1.278127
1.456981
1.824744
2.451788
3.301173
3.927984
4.149389
4.390668
4.832544
5.236078
5.280265
4.910164
4.486991
4.345075
4.375936
4.336424
4.197315
3.762685
3.160189
2.942524
2.909091
2.692126
2.236455
1.557274
1.088744
0.990783
1.118202
1.197225
0.954777
0.870142
0.975350
0.878090
0.869907
1.053905
1.250061
0.985402
0.164072
-0.350516
-0.341164
0.085048
0.842551
1.461645
2.032110
2.458556
2.683469
3.145218
3.439569
3.339971
3.128384
2.796625
2.560724
2.278063
1.747810
1.147886
0.422179
-0.209775
-0.660537
-1.184944
-1.595259
-1.787674
-1.925849
-2.097690
-2.173441
-1.871609
-1.316341
-0.658435
0.119642
0.660414
0.773338
0.717694
0.711381
0.792275
0.830384
0.821031
0.947048
1.136657
1.176636
1.092469
1.024434
1.075401
1.241864
1.268283
1.216146
1.488753
1.811160
1.801340
1.586714
1.234147
0.964812
0.866617
0.717454
0.565486
0.713011
1.537380
2.666621
3.400042
3.864597
4.176716
4.292680
4.192146
3.732267
2.933849
1.755978
0.759300
0.543271
0.795070
1.338649
1.632765
1.187381
0.570624
-0.109259
-1.061516
-2.165974
-3.184629
-3.680513
-3.693606
-3.245417
-2.295733
-1.590367
-1.621229
-2.209229
-2.901971
-3.273007
-3.321403
-3.036405
-2.441859
-1.731349
-1.238739
-1.281290
-1.353534
-0.954676
-0.214006
0.598439
0.985373
1.230392
1.862580
2.471621
2.934773
3.238008
3.277520
3.256010
2.998131
2.623354
2.164643
1.198593
0.031477
-1.199466
-2.335254
-2.655790
-2.434151
-2.439996
-2.862702
-3.306683
-3.286577
-3.009060
-2.635686
-2.221163
-1.952297
-1.609550
-0.980402
0.078465
0.994015
0.904704
0.411392
0.155851
0.112131
0.141589
-0.189702
-0.487326
-0.431683
-0.434021
-0.373234
-0.288600
-0.242075
-0.198589
-0.554662
-1.144767
-1.596931
-1.967734
-2.305104
-2.444447
-2.290609
-2.142615
-1.988543
-1.767839
-1.691387
-1.739784
-2.131395
-2.581688
-2.618161
-2.661881
-2.648088
-2.431826
-2.250399
-1.881467
-1.474660
-1.231745
-1.114613
-1.282012
-1.532877
-1.603718
-1.305393
-0.719264
-0.214963
0.318562
0.758568
0.934617
0.907496
0.419795
-0.038682
-0.209588
-0.477987
-0.348464
0.100193
0.363214
0.538562
0.499985
0.481982
0.681411
0.961968
1.446395
1.954904
2.292273
2.340435
2.059878
1.685334
1.298633
0.951678
0.436155
-0.235545
-0.707114
-1.218663
-1.682517
-1.876102
-2.050749
-2.070154
-1.951385
-1.771829
-1.325744
-0.731198
0.057166
1.148297
2.173498
2.697905
2.586617
2.056131
1.545985
1.544816
2.025736
2.459196
2.525361
2.097745
1.387235
0.680699
-0.052723
-0.655920
-1.241349
-1.881486
-2.163914
-2.316817
-2.628937
-3.125756
-3.860815
-4.251725
-4.142542
-3.876481
-3.477389
-3.091156
-2.730407
-2.523029
-2.424367
-2.175841
-2.183089
-2.287597
-2.098689
-1.643720
-0.568253
0.791278
2.052380
3.234459
3.849813
4.016276
3.848644
3.463112
3.586089
3.907092
4.133407
4.460022
4.667634
5.011315
5.288598
5.155100
4.963386
4.556578
4.088750
3.839522
3.528571
3.248715
2.837232
2.141451
1.561166
1.382077
1.705886
2.061725
1.974986
1.570516
1.168151
1.078606
0.980879
0.620363
0.191111
-0.403904
-0.942339
-1.347978
-1.757824
-1.826094
-1.691894
-1.663137
-1.711768
-1.606092
-0.935094
-0.210089
-0.135975
-0.629989
-1.496910
-2.286677
-2.686003
-2.671508
-2.252777
-1.757595
-1.300756
-1.041709
-1.102496
-1.118628
-1.278078
-1.688861
-1.822359
-1.641400
-1.374872
-1.299122
-1.584588
-1.671561
-1.293511
-0.990510
-0.918034
-0.984199
-1.224776
-1.280186
-1.175446
-1.222907
-1.203268
-1.331155
-1.751757
-2.120222
-2.635278
-3.023849
-2.724589
-1.937627
-0.666004
0.732804
1.506673
1.697919
1.598555
1.729715
2.306025
2.760994
3.026821
3.110053
2.863864
2.390424
1.571432
0.564467
-0.620886
-1.871935
-2.394706
-2.243673
-1.960311
-1.910045
-2.118359
-2.034894
-1.962651
-2.124439
-2.184057
-2.416218
-2.476071
-1.849728
-0.686353
0.484270
0.725314
0.214467
-0.389666
-1.139220
-1.882228
-2.579879
-3.053085
-2.944604
-2.325509
-1.109763
0.367835
1.364279
1.700479
1.502219
1.062446
0.760379
0.924972
1.520454
2.133002
2.481594
2.262291
1.559964
0.725074
-0.270903
-1.152319
-1.791521
-2.466961
-3.218854
-4.120610
-4.920197
-5.383584
-5.485519
-4.863151
-3.705855
-2.520036
-1.688887
-1.373027
-1.110941
-1.077040
-1.649142
-2.642080
-3.871386
-4.622109
-4.754205
-4.627721
-4.175558
-4.130903
-4.676118
-5.207540
-5.853522
-6.428663
-6.841783
-7.183829
-6.970372
-6.259863
-5.452561
-4.654611
-3.601121
-1.968749
-0.310659
0.795202
1.319141
1.409386
1.396060
1.280096
1.198033
1.372679
1.590578
1.884227
2.324467
3.013467
3.712287
3.728419
3.163798
2.188162
1.054245
0.480740
0.567010
1.065934
1.372675
1.424344
1.839334
2.365845
3.003644
3.846483
4.628768
5.472074
6.068958
6.413342
6.650645
6.561802
6.311171
5.625210
4.552548
3.627645
2.770778
2.140227
1.956462
2.308794
2.964127
3.188339
2.988675
2.572750
1.772695
0.677822
-0.499581
-1.349902
-1.600065
-1.413963
-0.926262
-0.059342
1.079250
1.949209
2.551237
3.434523
4.542020
5.496380
6.024060
6.174859
6.236815
6.255051
6.520645
7.201462
7.889761
8.332105
8.343093
7.950547
7.378679
6.421513
4.883126
2.904500
0.805234
-1.243064
-3.195272
-4.706304
-5.677264
-6.200035
-6.137845
-5.638221
-4.804033
-3.571454
-2.298194
-1.424260
-1.008101
-0.710010
-0.092318
0.783486
1.490255
1.838613
1.883969
1.662095
1.000448
0.007979
-0.926275
-1.862868
-2.669702
-3.121866
-3.419491
-3.531480
-3.530545
-3.127245
-1.716279
0.310509
2.431986
4.377178
5.789547
6.593342
6.960637
7.128503
6.994304
6.555466
5.960218
5.220249
4.334157
2.933477
1.203611
-0.475287
-2.154887
-3.376946
-4.188456
-4.794459
-5.249663
-6.107933
-6.967138
-7.508145
-7.812550
-7.308015
-6.351083
-5.283565
-3.661714
-1.752760
0.090498
1.586332
2.290062
2.532977
2.982569
3.639071
4.160672
4.337657
4.095442
3.602130
3.063227
2.460965
1.816152
1.189107
0.287818
-0.837682
-1.405576
-1.392016
-1.137879
-0.620719
-0.158269
0.522315
1.140708
0.907612
0.890077
1.255502
1.423368
2.158894
2.955441
3.340037
3.680446
3.469093
3.334191
3.947441
4.395864
4.556716
4.530297
3.771858
2.549800
1.152861
-0.178615
-0.650886
-0.695074
-0.973293
-1.180671
-1.585141
-2.213822
-2.774936
-3.505553
-4.314959
-5.075502
-5.620016
-5.732005
-5.391363
-4.375514
-2.845311
-1.190027
0.298560
1.424761
2.437804
3.343535
4.022949
4.330860
4.014766
3.444768
2.731452
2.020240
1.734774
1.170153
0.040211
-1.280744
-2.958941
-4.511122
-5.542869
-6.089020
-5.746975
-4.996018
-4.862521
-5.515984
-6.537211
-7.411145
-7.707834
-7.171270
-6.197037
-5.269564
-4.338116
-3.483353
-2.415601
-1.023339
-0.313765
-0.437444
-0.773644
-1.407469
-2.041060
-2.123357
-1.815446
-1.304833
-0.818769
-0.638512
-0.365203
-0.135848
-0.715198
-1.436930
-1.655297
-1.614851
-0.934501
-0.090259
0.394402
1.160322
1.736164
2.203057
3.280628
3.997216
4.309102
4.801712
5.240082
5.919496
6.181349
5.715391
5.572774
4.834676
3.133567
1.941434
0.731533
-0.733675
-1.709779
-3.208887
-4.975460
-6.032223
-7.185779
-7.810252
-7.269012
-6.689896
-5.858981
-4.722025
-4.095683
-3.583200
-3.011098
-2.548647
-1.759348
-0.794701
-0.521860
-1.062399
-1.546594
-1.560388
-1.274454
-0.945502
-0.852217
-0.773661
-0.809433
-1.226995
-1.679159
-2.391306
-3.424456
-4.274310
-4.908134
-4.850854
-4.075115
-3.455553
-3.012975
-2.837861
-3.220120
-3.775389
-4.397523
-4.781653
-4.366897
-3.308730
-1.774086
-0.122776
0.851925
1.335183
1.889283
2.453903
3.132616
3.756854
4.109654
4.231930
3.767140
3.533577
4.021277
4.101470
3.787947
2.809973
1.496500
1.472886
1.552610
1.279769
1.383107
0.599184
-0.278725
-0.634097
-1.082754
-0.357282
0.774297
1.408121
2.362014
2.735621
2.751519
2.872860
2.359908
2.094314
2.006640
1.743851
1.867062
1.620172
1.435940
1.442018
0.789490
0.440664
-0.248337
-1.396516
-1.666786
-2.222055
-2.420549
-1.971892
-2.545397
-2.669777
-2.570180
-2.819642
-2.081311
-2.005093
-1.935188
-0.667773
-0.114375
0.614137
1.282796
0.869910
0.982366
0.743893
-0.150850
-0.779765
-2.024502
-3.318102
-4.451552
-5.826280
-6.819451
-7.745756
-8.396882
-8.784284
-9.518641
-10.165091
-10.834687
-10.908099
-10.114124
-9.633905
-8.840865
-8.198858
-8.609640
-8.598184
-8.398522
-8.166829
-7.648735
-8.094119
-8.423072
-8.193015
-8.438269
-8.345686
-8.325813
-8.387068
-7.769376
-7.611096
-7.710928
-7.804914
-8.377718
-8.439908
-8.160988
-7.859390
-7.110538
-6.634293
-6.095858
-4.961474
-3.899801
-2.870158
-2.024514
-1.368245
-0.145018
1.316214
2.699826
4.042991
4.747890
5.057203
5.286792
5.337058
5.860296
6.465597
6.430293
6.220576
5.575062
4.565291
3.948767
3.253454
2.303068
1.301246
-0.056648
-1.114114
-1.485150
-1.968643
-2.374048
-2.396025
-2.402104
-1.936614
-1.169292
-0.604438
0.348519
1.433806
2.128417
2.564215
2.757331
3.142863
3.803807
4.266492
4.405835
4.512212
4.893067
4.857062
3.767567
2.031154
0.118459
-1.364985
-2.206656
-2.803774
-3.414219
-4.471685
-5.846179
-6.808723
-7.071277
-6.618880
-6.133050
-5.804798
-4.817707
-3.555669
-2.136988
-0.274793
1.124951
2.447542
4.014217
4.936079
5.470306
5.215700
4.209904
3.660714
2.725525
1.451095
0.716504
-0.501112
-1.643446
-2.276102
-3.658078
-5.106686
-6.525836
-8.550520
-9.945355
-10.745877
-11.069920
-10.060852
-9.116779
-8.756731
-7.930024
-7.506384
-7.359560
-6.439100
-5.665231
-4.882245
-3.392956
-2.166456
-0.931773
0.565464
1.272467
1.349853
0.652670
-0.688158
-1.435608
-2.201996
-3.295700
-3.922744
-4.239306
-4.099496
-3.818472
-3.817303
-3.569478
-3.257827
-2.797714
-1.770409
-0.902320
-0.378381
0.666693
2.357514
4.249401
5.845769
6.555577
6.622443
5.907724
4.104913
2.500596
1.360367
0.359948
-0.221740
-1.011975
-1.564672
-1.518147
-1.636215
-1.814836
-2.313058
-2.917191
-2.924906
-2.810580
-2.800761
-2.934493
-3.515713
-4.109793
-3.797907
-2.917661
-2.193123
-1.515813
-1.664275
-2.241988
-2.099138
-1.843832
-1.007773
0.071201
0.337262
0.898375
1.360124
1.134276
1.042160
0.964539
1.225924
1.921236
2.478843
2.923525
2.744903
1.572410
0.407631
0.214281
0.496941
0.524062
0.425399
0.359701
0.673457
1.351001
1.874941
2.482813
2.807557
2.140767
1.399863
1.288108
1.442648
1.947182
2.912297
4.020495
5.083571
6.030684
6.709864
6.987615
7.023620
6.732542
5.958205
5.312691
4.881802
4.730769
5.278321
5.422574
4.934405
4.507725
3.766587
3.307175
3.131593
2.836073
3.510812
4.701073
5.418363
5.702426
5.230156
4.326763
3.624903
3.069634
2.625887
2.490752
2.732264
3.261581
3.859634
4.358089
4.963624
5.508137
5.871926
6.370615
6.940378
7.795141
8.851904
9.772598
10.645830
11.022010
11.011488
11.062923
10.778158
9.888559
8.507986
6.738140
4.455344
2.090718
-0.121005
-2.447989
-4.104677
-5.475898
-7.128845
-7.867878
-8.344124
-9.409304
-10.339350
-11.134027
-11.257940
-10.506049
-9.712775
-8.585171
-7.596442
-7.531447
-7.384857
-7.237565
-7.212549
-6.240887
-5.087332
-4.149338
-3.250621
-3.268390
-3.353727
-3.314449
-4.149105
-4.854706
-5.204233
-5.814210
-5.823329
-4.842316
-3.562510
-1.958895
-0.160293
1.419943
4.007143
6.928440
8.565721
10.499926
12.151002
12.638703
13.772152
14.705704
15.424162
16.657677
16.460118
15.333682
14.111156
11.757051
9.272019
6.921421
3.924608
1.588973
0.149483
-1.289306
-2.357292
-3.555270
-4.929296
-5.493216
-5.903063
-6.005232
-5.315297
-4.820348
-3.899187
-2.352385
-1.330224
-0.344067
0.327398
0.095237
0.281573
1.029257
1.626842
2.290826
2.636846
2.376863
2.022894
1.509708
0.894587
0.665466
0.198572
-0.762802
-1.221279
-1.009693
0.005922
1.723163
2.974913
4.110934
5.254202
5.333459
5.040043
4.561226
3.829908
4.045235
4.351509
4.275525
4.676720
4.636273
4.177095
3.604058
2.308353
0.752198
-1.517039
-4.259948
-6.165163
-7.780468
-9.325401
-11.042174
-12.724814
-13.406801
-14.323520
-14.742719
-13.394176
-12.253480
-11.279247
-10.251942
-9.553590
-8.310256
-7.902280
-7.880771
-6.862117
-6.595355
-6.292354
-4.788804
-2.880317
-0.775674
0.447787
1.430202
2.795110
3.115412
3.343131
4.025351
4.615689
5.556021
6.318901
7.357896
9.085190
10.339512
11.277038
12.392953
13.620388
14.786101
15.435589
15.532615
15.209974
14.773241
14.326688
13.510969
12.332630
10.949018
9.679031
8.720929
7.714899
6.317025
4.536425
2.703688
0.768080
-1.217327
-2.853674
-4.220220
-5.016767
-5.428251
-5.820095
-5.532992
-5.130861
-5.075686
-4.911794
-4.469684
-3.220739
-2.191330
-1.640738
-0.533708
0.253955
1.454036
2.924387
3.004345
3.197227
3.021645
1.825538
1.422939
0.589685
-0.850740
-1.471940
-2.313142
-3.099637
-3.179829
-3.815525
-4.662105
-4.727101
-4.504526
-3.765259
-2.990689
-3.271948
-3.460155
-3.813657
-4.814777
-4.818518
-4.453561
-4.225375
-3.625217
-3.469041
-3.185212
-2.598147
-2.655194
-2.848077
-2.840362
-2.889226
-2.835920
-2.710371
-3.110399
-4.143549
-4.970023
-5.373090
-5.720045
-6.024917
-6.495551
-7.171927
-7.462771
-7.095008
-6.385668
-5.947064
-5.701811
-4.647854
-3.270554
-2.354303
-1.309697
-0.446518
0.270538
1.195907
1.611599
2.064464
2.637500
2.243084
1.699739
1.766838
1.563668
1.077837
0.826505
0.281523
-0.391112
-0.782021
-1.488323
-2.069076
-2.385871
-2.681859
-1.716510
-0.146328
0.724800
1.802605
2.864045
3.410896
4.175413
4.743774
4.975934
5.601341
6.172274
6.451895
6.742037
6.383626
5.363802
4.404298
3.390786
2.552856
2.216188
1.968363
1.519238
0.310740
-1.345013
-2.416506
-3.468127
-4.414538
-4.866235
-5.800021
-6.298010
-6.003659
-6.511234
-6.769814
-5.993841
-5.080161
-3.483560
-1.976270
-1.438536
-0.353016
0.865769
1.096293
1.284032
1.178121
0.207395
-0.685945
-1.438538
-2.513305
-3.407813
-4.203893
-5.517367
-6.260609
-5.811251
-5.466400
-5.107755
-4.662372
-4.989454
-5.137682
-4.838422
-4.699547
-3.968930
-2.748743
-1.902865
-1.084808
-0.073635
0.425288
0.823912
1.436460
1.174607
0.745355
0.578190
-0.074807
0.096333
0.664927
0.527454
0.876747
0.900828
0.131868
-0.147286
-0.367289
-0.628675
-0.669356
-1.088555
-1.540953
-1.217144
-0.612077
-0.407271
0.017772
0.355843
0.206212
0.457544
0.337840
-0.435796
-1.096507
-1.886041
-2.225749
-2.625308
-3.484981
-3.459264
-3.337923
-3.446172
-2.753197
-1.890252
-1.174131
-0.931216
-1.712099
-2.405074
-2.488073
-2.532962
-1.988682
-0.537269
1.197506
2.979976
4.769460
6.599157
7.623423
7.143437
6.374243
5.457992
4.084432
3.224292
2.926434
3.019251
3.186650
2.899313
2.517288
2.323703
2.140640
1.461224
0.977264
1.456782
1.754873
1.860549
2.072369
2.002931
1.917361
1.276288
0.677767
0.654387
-0.048174
-0.687376
-0.963491
-1.405134
-0.686675
0.571387
1.304809
2.488057
3.553471
3.876110
4.697206
5.977246
6.592834
6.484585
5.938435
5.615560
5.864788
5.639641
5.179060
5.092087
4.540325
3.887095
3.032566
1.780348
1.236769
0.153586
-1.285203
-1.635432
-2.329108
-2.337993
-1.514559
-1.623977
-1.041588
-1.032003
-2.444606
-2.748309
-3.192992
-4.141040
-4.725300
-5.557852
-5.757048
-5.451007
-4.911170
-4.354265
-4.450823
-4.363150
-4.675036
-5.447970
-5.915564
-6.785057
-7.033584
-6.617892
-6.162456
-4.232927
-1.998994
-0.783015
0.407480
0.844915
0.602233
0.964384
0.752096
0.240080
0.760278
0.553368
0.011893
0.591944
0.606906
0.234935
0.207112
-0.023178
0.111722
0.161521
-0.274044
-0.463420
0.015631
0.954560
1.489254
1.898399
2.419767
2.883620
3.726225
4.469934
5.509163
6.867524
7.470721
8.210689
8.583362
7.964032
8.162292
8.339978
7.786813
7.968473
8.212791
8.485165
8.801024
7.860925
7.139193
6.829645
5.471750
3.963524
2.551154
1.629759
1.267840
0.547277
0.039469
-0.691615
-1.674499
-2.132976
-2.391089
-2.195868
-1.951550
-1.340872
-0.307021
-0.360795
-0.513465
-0.195734
0.060040
0.870147
1.651029
2.147848
2.956786
3.687403
3.994612
4.445373
4.846335
4.340631
3.728082
3.125118
2.102489
1.713917
1.496018
0.857751
0.468479
-0.127237
-1.204108
-1.862715
-2.016086
-2.946833
-4.646774
-6.059845
-7.347600
-8.048525
-7.596595
-6.773395
-5.610722
-4.235526
-3.450669
-2.551719
-1.363328
-1.027361
-0.726465
0.285176
1.290738
2.484974
3.919553
5.593775
7.258645
8.200848
8.909020
9.034802
8.411031
7.824433
6.684437
5.461210
4.587275
3.292272
2.245795
1.685149
1.228309
0.977210
0.713954
0.591678
0.909408
1.490628
1.985810
2.542715
3.393971
4.026392
4.433433
5.195144
5.969714
6.192055
6.478690
6.782392
6.521240
6.800628
7.036529
6.221511
5.583011
4.166199
1.972245
0.713247
-0.925439
-2.931186
-4.025825
-4.743816
-5.156703
-5.075575
-4.565430
-3.669987
-2.223951
-0.786098
-0.319205
0.392707
1.530598
2.186399
3.462464
4.659974
5.035218
6.059250
7.473489
9.010939
10.642610
11.446639
12.036977
12.296959
11.603750
10.913112
9.999666
8.690401
7.665200
6.499252
5.464699
5.197936
5.166140
5.192792
5.551203
5.741981
5.553540
5.534836
5.240251
4.433183
3.796319
3.490512
3.820633
4.467316
5.044328
5.862150
6.172165
