EVENT_NAME: 202302060117
EVENT_ID: 13194
EVENT_DATE_YYYYMMDD: 2023/02/06
EVENT_TIME_HHMMSS: 01:17:32.00000
EVENT_LATITUDE_DEGREE: 37.288
EVENT_LONGITUDE_DEGREE: 37.043
EVENT_DEPTH_KM: 8.6
HYPOCENTER_REFERENCE: AFAD
MAGNITUDE_W: 7.7
MAGNITUDE_W_REFERENCE: AFAD
MAGNITUDE_L: 
MAGNITUDE_L_REFERENCE: 
FOCAL_MECHANISM: 
NETWORK: TK
STATION_CODE: 6603
STATION_NAME: 
STATION_LATITUDE_DEGREE: 40.0674
STATION_LONGITUDE_DEGREE: 35.4998
STATION_ELEVATION_M: 918.0
LOCATION: Kahramanmaras_Pazarck_Turkiye
SENSOR_DEPTH_M: 
VS30_M/S: 361
SITE_CLASSIFICATION_EC8: unknown
MORPHOLOGIC_CLASSIFICATION: 
EPICENTRAL_DISTANCE_KM: 336.82
EARTHQUAKE_BACKAZIMUTH_DEGREE: 
DATE_TIME_FIRST_SAMPLE_YYYYMMDD_HHMMSS: 2023/02/06 01:17:57.6470850
DATE_TIME_FIRST_SAMPLE_PRECISION: millisecond
SAMPLING_INTERVAL_S: 0.01
NDATA: 18251
DURATION_S: 
STREAM: HNN
UNITS: cm/s^2
INSTRUMENT: sensor = GMS+/GEOSIG | digitizer = 
INSTRUMENT_ANALOG/DIGITAL: 
INSTRUMENTAL_FREQUENCY_HZ: 
INSTRUMENTAL_DAMPING: 
FULL_SCALE_G: 
N_BIT_DIGITAL_CONVERTER: 
PGA_CM/S^2: 5.750
TIME_PGA_S: 
BASELINE_CORRECTION: BASELINE REMOVED
FILTER_TYPE: BUTTERWORTH
FILTER_ORDER: 
LOW_CUT_FREQUENCY_HZ: 
HIGH_CUT_FREQUENCY_HZ: 
LATE/NORMAL_TRIGGERED: 
DATABASE_VERSION: 
HEADER_FORMAT: DYNA 1.2
DATA_TYPE: Acceleration
PROCESSING: Automatic Paolucci et al., 2011
DATA_TIMESTAMP_YYYYMMDD_HHMMSS: 
DATA_LICENSE: U (unknown license)
DATA_CITATION: Turkish Accelerometric Archive v 1.0 - Disaster And Emergency Management Presidency, Earthquake Department
DATA_CREATOR: AFAD
ORIGINAL_DATA_MEDIATOR_CITATION: : AFAD - Disaster And Emergency Management Presidency
ORIGINAL_DATA_MEDIATOR: AFAD PROCESS SERVICE
ORIGINAL_DATA_CREATOR_CITATION: AFAD PROCESS SERVICE
ORIGINAL_DATA_CREATOR: network: TK
USER1: GuestUser
USER2: 
USER3: 
USER4: 
USER5: 
[...]
-1.880845
-1.966049
-2.055408
-2.162432
-2.287899
-2.417523
-2.540653
-2.642741
-2.704045
-2.720670
-2.693913
-2.618061
-2.493112
-2.331276
-2.135151
-1.904216
-1.645227
-1.364937
-1.073477
-0.764353
-0.443019
-0.117529
0.208220
0.513708
0.791660
1.039479
1.256126
1.445497
1.614607
1.771247
1.917757
2.065565
2.213893
2.350792
2.469506
2.562244
2.623290
2.640955
2.616277
2.557570
2.470289
2.362485
2.239616
2.099601
1.943481
1.771775
1.581106
1.368616
1.124435
0.859472
0.583080
0.297076
0.014449
-0.257008
-0.508723
-0.733162
-0.933442
-1.102810
-1.235811
-1.336081
-1.408815
-1.457911
-1.490901
-1.516617
-1.541814
-1.571947
-1.612990
-1.671957
-1.738197
-1.814308
-1.900811
-1.975623
-2.020562
-2.035888
-2.020042
-1.961594
-1.876129
-1.789107
-1.690914
-1.538949
-1.351656
-1.139165
-0.877838
-0.617031
-0.370770
-0.117236
0.137597
0.387754
0.627260
0.841569
1.017433
1.159526
1.269928
1.361887
1.452027
1.523463
1.562429
1.571781
1.541129
1.466836
1.349681
1.184729
0.993541
0.806248
0.627788
0.463096
0.320224
0.195796
0.090590
-0.003445
-0.096701
-0.190477
-0.285032
-0.369196
-0.436216
-0.487130
-0.518301
-0.531549
-0.530769
-0.529989
-0.542977
-0.574928
-0.625063
-0.686887
-0.747153
-0.789235
-0.802742
-0.773907
-0.705068
-0.616487
-0.516735
-0.399060
-0.277748
-0.156955
-0.021096
0.125413
0.286470
0.459996
0.642093
0.833023
1.024733
1.216702
1.396981
1.561415
1.704288
1.821963
1.921974
2.003802
2.085889
2.184601
2.305134
2.450605
2.613220
2.785706
2.951698
3.101066
3.220819
3.295113
3.331481
3.332521
3.307064
3.248357
3.158738
3.053013
2.921571
2.783634
2.641282
2.488799
2.335017
2.183573
2.044078
1.914974
1.798079
1.683262
1.555716
1.413883
1.257244
1.091512
0.922144
0.750438
0.580810
0.415598
0.251685
0.086993
-0.063152
-0.194335
-0.315905
-0.424488
-0.535149
-0.647887
-0.745040
-0.835698
-0.924798
-0.992078
-1.020132
-1.033380
-1.064292
-1.100918
-1.141182
-1.197811
-1.257037
-1.318602
-1.382764
-1.444328
-1.504334
-1.542779
-1.562261
-1.567976
-1.559143
-1.534465
-1.492122
-1.441726
-1.364835
-1.261447
-1.141953
-0.996742
-0.828931
-0.648392
-0.471749
-0.298224
-0.143921
-0.045728
0.025968
0.089871
0.133253
0.175596
0.225991
0.276387
0.320808
0.371983
0.436406
0.496412
0.547587
0.597204
0.631753
0.652795
0.668641
0.667603
0.650199
0.627340
0.597727
0.543955
0.471481
0.388615
0.282111
0.162618
0.041047
-0.077406
-0.181573
-0.258464
-0.300805
-0.322885
-0.330678
-0.311714
-0.271449
-0.222353
-0.152734
-0.079999
-0.024668
0.021571
0.054562
0.067811
0.058980
0.032484
-0.003104
-0.039731
-0.075838
-0.095320
-0.083370
-0.036871
0.052230
0.167048
0.299010
0.435649
0.556701
0.658011
0.722694
0.739579
0.707629
0.639050
0.543196
0.423704
0.295639
0.163677
0.023403
-0.122846
-0.271433
-0.422617
-0.574061
-0.707062
-0.814865
-0.900068
-0.945008
-0.946046
-0.921368
-0.872271
-0.815641
-0.778234
-0.756933
-0.745502
-0.746281
-0.761347
-0.780050
-0.787583
-0.782387
-0.760046
-0.716924
-0.666269
-0.616133
-0.562101
-0.506250
-0.448581
-0.379742
-0.305188
-0.243882
-0.200241
-0.176602
-0.183355
-0.219982
-0.276351
-0.353501
-0.450394
-0.550404
-0.635608
-0.705485
-0.755100
-0.775621
-0.771984
-0.740551
-0.680285
-0.596119
-0.492991
-0.373757
-0.246470
-0.117365
0.003428
0.101361
0.171758
0.207347
0.208906
0.181631
0.126301
0.056424
-0.017350
-0.095799
-0.182301
-0.285169
-0.409597
-0.556625
-0.720278
-0.894322
-1.065249
-1.212797
-1.324497
-1.382944
-1.378787
-1.315923
-1.198507
-1.034593
-0.838727
-0.627795
-0.401797
-0.155536
0.109947
0.393095
0.699102
1.034203
1.391904
1.770127
2.160558
2.538781
2.892066
3.216257
3.503820
3.749561
3.956857
4.128304
4.264683
4.365213
4.427298
4.445483
4.424702
4.373009
4.288585
4.172209
4.026480
3.849319
3.642284
3.407454
3.142492
2.854929
2.551521
2.237981
1.919506
1.593758
1.266711
0.941741
0.617811
0.295440
-0.023035
-0.336055
-0.643879
-0.929104
-1.187053
-1.420064
-1.613071
-1.762697
-1.866604
-1.941416
-1.994409
-2.013891
-2.011292
-1.978821
-1.912320
-1.815686
-1.682684
-1.517211
-1.327840
-1.131455
-0.930134
-0.725696
-0.522817
-0.318119
-0.113162
0.093354
0.304806
0.519375
0.730047
0.929549
1.121518
1.306473
1.482077
1.646251
1.797436
1.941868
2.084741
2.222418
2.345029
2.452054
2.547649
2.628178
2.679353
2.697537
2.689744
2.657014
2.604282
2.530508
2.433356
2.321656
2.203202
2.078774
1.953566
1.837710
1.731985
1.643665
1.575866
1.530407
1.516120
1.520797
1.530149
1.537683
1.536125
1.516383
1.469365
1.397410
1.303634
1.189597
1.059194
0.913205
0.757345
0.599406
0.436013
0.267164
0.093899
-0.078846
-0.239122
-0.373681
-0.470574
-0.530061
-0.555777
-0.545386
-0.505381
-0.451609
-0.396537
-0.339648
-0.275484
-0.207425
-0.130273
-0.040653
0.066113
0.196776
0.341208
0.493173
0.647995
0.803856
0.961276
1.111682
1.253516
1.384699
1.509129
1.633298
1.751493
1.861895
1.964764
2.065554
2.164526
2.247133
2.308958
2.352860
2.381435
2.396502
2.394684
2.370526
2.324288
2.255710
2.164272
2.051533
1.915675
1.760334
1.595642
1.432248
1.279246
1.143388
1.029350
0.942848
0.885440
0.844916
0.807510
0.769325
0.724905
0.658405
0.562551
0.440980
0.288497
0.111596
-0.083490
-0.297278
-0.523535
-0.756287
-0.979427
-1.190098
-1.387262
-1.555591
-1.686773
-1.770937
-1.802888
-1.782626
-1.714306
-1.605983
-1.463110
-1.297117
-1.118916
-0.938637
-0.760435
-0.593664
-0.446635
-0.320647
-0.222973
-0.149199
-0.096465
-0.063474
-0.044251
-0.033340
-0.024248
-0.016974
-0.010479
-0.003984
0.006927
0.027708
0.060440
0.108757
0.164088
0.225134
0.290856
0.356838
0.421780
0.482307
0.544392
0.603619
0.660769
0.714281
0.754286
0.785199
0.802344
0.803384
0.779486
0.726494
0.659734
0.575050
0.478157
0.376588
0.266707
0.152410
0.038112
-0.076705
-0.197236
-0.312313
-0.420376
-0.510515
-0.572339
-0.608966
-0.612602
-0.591301
-0.542204
-0.465052
-0.364781
-0.236715
-0.089686
0.075527
0.247234
0.420759
0.605455
0.795086
0.985496
1.173829
1.358005
1.541661
1.713109
1.861956
1.983268
2.068992
2.123024
2.145625
2.144326
2.131079
2.109519
2.094193
2.091076
2.100948
2.131341
2.172385
2.209273
2.249537
2.279931
2.282269
2.252656
2.186935
2.096277
1.980161
1.832094
1.663765
1.484785
1.303727
1.126306
0.953561
0.800039
0.669116
0.555339
0.460524
0.380776
0.323367
0.290637
0.272974
0.274273
0.292717
0.323630
0.366232
0.416108
0.477154
0.543396
0.616391
0.701076
0.795112
0.900319
1.002668
1.100341
1.187884
1.264256
1.330497
1.377775
1.417520
1.447654
1.470514
1.484542
1.480646
1.463242
1.432071
1.382715
1.307643
1.214906
1.108142
0.989169
0.864741
0.737974
0.613806
0.487819
0.368846
0.254029
0.138433
0.037383
-0.052236
-0.131465
-0.196926
-0.250697
-0.305508
-0.368890
-0.442664
-0.531764
-0.631514
-0.746331
-0.865564
-0.980121
-1.091042
-1.182739
-1.250278
-1.287165
-1.292360
-1.274435
-1.232612
-1.172865
-1.100649
-1.012327
-0.908160
-0.788926
-0.651248
-0.500842
-0.341344
-0.173533
-0.004684
0.151957
0.288076
0.398218
0.475370
0.523167
0.546547
0.548106
0.536157
0.516675
0.496154
0.472516
0.446020
0.419784
0.382897
0.330425
0.269380
0.197684
0.117417
0.034551
-0.046236
-0.114554
-0.169885
-0.210148
-0.235085
-0.241319
-0.229110
-0.207548
-0.173518
-0.134552
-0.095327
-0.052205
-0.017136
0.012219
0.032741
0.031702
0.012480
-0.029082
-0.090127
-0.154549
-0.220270
-0.287030
-0.344438
-0.384961
-0.413016
-0.428082
-0.429380
-0.417690
-0.401844
-0.385997
-0.360799
-0.332484
-0.294038
-0.237927
-0.160256
-0.055569
0.068600
0.214850
0.373569
0.541639
0.718282
0.895964
1.076503
1.257042
1.438621
1.617861
1.790088
1.950105
2.083886
2.189612
2.267283
2.312483
2.333265
2.335084
2.310926
2.270923
2.213255
2.134026
2.036354
1.908289
1.752429
1.574228
1.371350
1.143534
0.902990
0.660627
0.420602
0.191487
-0.028017
-0.244662
-0.454814
-0.659771
-0.883690
-1.119559
-1.360883
-1.618832
-1.878339
-2.143302
-2.397095
-2.620235
-2.820775
-2.979493
-3.092751
-3.163408
-3.188345
-3.172758
-3.114310
-3.018974
-2.890129
-2.732969
-2.546715
-2.331886
-2.106147
-1.880668
-1.667139
-1.480365
-1.319048
-1.180072
-1.069151
-0.978491
-0.899002
-0.825227
-0.747816
-0.669365
-0.589096
-0.509087
-0.430897
-0.354524
-0.282568
-0.212430
-0.138656
-0.065401
0.003698
0.073836
0.138259
0.196448
0.243986
0.268664
0.278536
0.278796
0.269445
0.259055
0.251522
0.246067
0.245029
0.251264
0.267110
0.284775
0.298024
0.308415
0.312312
0.301662
0.274387
0.229188
0.162948
0.078523
-0.029799
-0.154487
-0.282812
-0.409578
-0.524135
-0.623366
-0.698698
-0.741040
-0.748573
-0.721556
-0.661809
-0.570630
-0.449318
-0.302289
-0.132920
0.057231
0.262448
0.480654
0.707432
0.937846
1.159689
1.370101
1.561810
1.724426
1.867039
1.977441
2.058229
2.118755
2.156422
2.185517
2.206039
2.221626
2.246304
2.285270
2.331249
2.382164
2.434898
2.474643
2.499841
2.509453
2.496205
2.462696
2.418795
2.358789
2.281379
2.185266
2.069929
1.940046
1.787303
1.623649
1.452463
1.276081
1.104635
0.928253
0.759404
0.593673
0.434695
0.292603
0.159602
0.045045
-0.063018
-0.167444
-0.274728
-0.405650
-0.555016
-0.722566
-0.908819
-1.105203
-1.302626
-1.493555
-1.672015
-1.833331
-1.970228
-2.070498
-2.134920
-2.165312
-2.169208
-2.154141
-2.125566
-2.095952
-2.063740
-2.030749
-1.998277
-1.957234
-1.913852
-1.868652
-1.813580
-1.747079
-1.682396
-1.620571
-1.553291
-1.495882
-1.434056
-1.368334
-1.321576
-1.285987
-1.265465
-1.267542
-1.290142
-1.324171
-1.367811
-1.425479
-1.480030
-1.539516
-1.614329
-1.694337
-1.783177
-1.880589
-1.985795
-2.094377
-2.198804
-2.293878
-2.364534
-2.410513
-2.427917
-2.409213
-2.361155
-2.274392
-2.160613
-2.036184
-1.892792
-1.740307
-1.584706
-1.422091
-1.244149
-1.049842
-0.848521
-0.638628
-0.424839
-0.215206
-0.007910
0.185877
0.354467
0.495781
0.595013
0.640213
0.634239
0.575272
0.463573
0.311349
0.135227
-0.055442
-0.252086
-0.442755
-0.616539
-0.768243
-0.886177
-0.975017
-1.034764
-1.056324
-1.064636
-1.065674
-1.062037
-1.077623
-1.112951
-1.158929
-1.230105
-1.330375
-1.437399
-1.552735
-1.670409
-1.775615
-1.864974
-1.927838
-1.964465
-1.973816
-1.958229
-1.919263
-1.856399
-1.777169
-1.672482
-1.535584
-1.383879
-1.224381
-1.056570
-0.894215
-0.743029
-0.596520
-0.460920
-0.335192
-0.213101
-0.099322
0.015236
0.123300
0.220974
0.299424
0.349560
0.366965
0.329818
0.251889
0.136812
-0.018269
-0.198028
-0.400646
-0.617292
-0.838354
-1.059156
-1.284894
-1.505437
-1.696885
-1.859759
-1.984967
-2.051207
-2.063156
-2.018215
-1.927296
-1.802347
-1.635836
-1.447243
-1.243585
-1.024080
-0.792886
-0.541171
-0.279584
-0.010464
0.268268
0.546999
0.821834
1.085239
1.333838
1.576461
1.814150
2.038330
2.257315
2.465909
2.669308
2.851406
2.991681
3.109096
3.177156
3.188067
3.152739
3.085979
2.987008
2.837902
2.650869
2.430587
2.190822
1.941705
1.679080
1.393595
1.106812
0.826783
0.547533
0.284648
0.024101
-0.220599
-0.432829
-0.604276
-0.757278
-0.920412
-1.073415
-1.220183
-1.357860
-1.500991
-1.647500
-1.764655
-1.868042
-1.958960
-2.054814
-2.148590
-2.216388
-2.274316
-2.309904
-2.313280
-2.270418
-2.170667
-2.032470
-1.857126
-1.648272
-1.408505
-1.141204
-0.870006
-0.586079
-0.292281
-0.001860
0.299732
0.592231
0.863949
1.113066
1.329194
1.506356
1.637280
1.731316
1.783790
1.801455
1.817041
1.826653
1.828472
1.849514
1.889259
1.929264
1.972126
2.012390
2.024600
2.023302
2.015769
1.968751
1.892120
1.794708
1.661967
1.505587
1.327907
1.139056
0.950725
0.766810
0.587051
0.399758
0.209609
0.014783
-0.197966
-0.427340
-0.673340
-0.932328
-1.183264
-1.431341
-1.682536
-1.911391
-2.121283
-2.306757
-2.461838
-2.596138
-2.695628
-2.781611
-2.851748
-2.900843
-2.939808
-2.936171
-2.918766
-2.897724
-2.845250
-2.760046
-2.652761
-2.547295
-2.429100
-2.307009
-2.175306
-2.013989
-1.854231
-1.704085
-1.551601
-1.401454
-1.256503
-1.108175
-0.957509
-0.803207
-0.627863
-0.435374
-0.237431
-0.035590
0.159496
0.346529
0.529406
0.697736
0.846584
0.994652
1.152072
1.337547
1.548999
1.779153
2.051910
2.350384
2.665743
2.990973
3.305293
3.600909
3.859119
4.079662
4.249811
4.352160
4.402296
4.390347
4.311378
4.170844
3.964329
3.697548
3.361928
2.966043
2.513268
2.006461
1.464326
0.893097
0.312776
-0.272221
-0.843450
-1.400652
-1.944346
-2.451932
-2.952764
-3.415929
-3.851040
-4.273422
-4.631902
-4.964923
-5.229886
-5.422634
-5.563427
-5.622134
-5.597196
-5.470169
-5.306774
-5.101038
-4.843088
-4.552407
-4.234710
-3.947406
-3.663999
-3.369162
-3.088612
-2.825207
-2.581544
-2.346973
-2.124611
-1.918355
-1.713138
-1.506622
-1.293352
-1.065794
-0.829665
-0.577689
-0.303114
0.003672
0.347865
0.702449
1.079633
1.491106
1.901799
2.311454
2.720069
3.102448
3.446901
3.748752
3.985920
4.157368
4.247508
4.245430
4.183086
4.058398
3.878380
3.660954
3.401706
3.102714
2.778784
2.433293
2.060007
1.667239
1.253429
0.811824
0.355412
-0.118144
-0.609105
-1.108638
-1.607392
-2.099392
-2.587755
-3.055337
-3.494344
-3.901140
-4.271049
-4.597577
-4.883061
-5.126204
-5.317133
-5.474032
-5.601837
-5.688080
-5.735357
-5.749903
-5.712496
-5.641319
-5.527540
-5.363626
-5.211402
-5.034239
-4.837335
-4.652639
-4.468983
-4.291301
-4.090500
-3.900349
-3.736695
-3.582652
-3.427051
-3.268332
-3.150656
-3.046229
-2.940763
-2.858156
-2.780745
-2.710087
-2.637871
-2.574747
-2.526430
-2.473177
-2.426158
-2.367970
-2.290559
-2.204575
-2.086120
-1.942468
-1.788165
-1.606327
-1.413579
-1.229143
-1.046526
-0.870662
-0.712463
-0.564655
-0.436848
-0.333200
-0.253711
-0.195003
-0.149283
-0.154478
-0.189806
-0.232667
-0.304363
-0.393722
-0.492693
-0.612446
-0.747784
-0.884681
-1.051712
-1.223678
-1.391747
-1.572285
-1.737237
-1.884785
-1.984535
-2.054152
-2.090519
-2.090259
-2.033369
-1.907122
-1.857246
-1.737232
-1.491751
-1.275884
-1.013777
-0.758944
-0.510086
-0.219665
0.051273
0.328966
0.612113
0.904353
1.202307
1.458958
1.662617
1.823414
1.955636
2.047075
2.082664
2.058506
1.979537
1.864980
1.703924
1.506761
1.309078
1.102563
0.878124
0.642255
0.403789
0.174934
-0.045349
-0.251344
-0.453443
-0.652685
-0.839977
-1.022593
-1.196897
-1.353536
-1.488096
-1.602653
-1.668373
-1.673049
-1.631226
-1.531214
-1.367560
-1.150394
-0.888027
-0.593450
-0.274455
0.075453
0.443285
0.812156
1.169857
1.497945
1.785768
2.021898
2.203216
2.335698
2.408694
2.425059
2.404279
2.354404
2.286865
2.210234
2.132823
2.054893
1.974106
1.892280
1.802141
1.695896
1.578741
1.450157
1.304687
1.142073
0.962314
0.770086
0.562532
0.346666
0.123266
-0.109745
-0.341977
-0.569793
-0.786699
-0.984122
-1.152191
-1.292985
-1.408322
-1.497681
-1.565220
-1.616654
-1.668607
-1.723677
-1.791736
-1.884992
-1.994614
-2.128913
-2.288150
-2.464013
-2.656240
-2.859119
-3.057581
-3.249029
-3.435542
-3.603611
-3.754016
-3.876107
-3.963908
-4.034824
-4.084179
-4.103661
-4.097686
-4.060799
-3.987024
-3.874284
-3.715825
-3.511907
-3.273699
-3.012632
-2.733381
-2.452052
-2.173060
-1.902901
-1.658979
-1.433240
-1.221788
-1.025923
-0.846682
-0.693419
-0.564573
-0.455210
-0.356238
-0.271294
-0.203494
-0.140110
-0.079324
-0.014381
0.050821
0.101217
0.140962
0.177330
0.201229
0.212399
0.217336
0.211361
0.196036
0.180970
0.165384
0.149279
0.138109
0.132915
0.136812
0.138890
0.129279
0.115253
0.084341
0.035245
-0.028138
-0.121394
-0.222703
-0.320375
-0.424542
-0.531825
-0.633913
-0.728468
-0.812892
-0.887705
-0.948490
-0.977844
-0.981480
-0.950307
-0.885624
-0.808992
-0.711319
-0.601696
-0.494152
-0.395180
-0.317509
-0.254125
-0.190221
-0.128136
-0.070467
-0.007343
0.062795
0.146440
0.245932
0.350359
0.462580
0.580255
0.698710
0.822879
0.941334
1.047839
1.148110
1.244485
1.335664
1.413075
1.480875
1.541921
1.588680
1.626606
1.656740
1.675184
1.675704
1.664535
1.645312
1.612582
1.576215
1.543225
1.519587
1.509976
1.508418
1.512055
1.528941
1.553359
1.579077
1.605054
1.629473
1.669737
1.722731
1.781698
1.855993
1.932105
2.011075
2.095500
2.172912
2.248505
2.321760
2.399950
2.476582
2.544123
2.615819
2.684138
2.740509
2.778695
2.793243
2.785710
2.763111
2.740511
2.725705
2.723887
2.730122
2.746228
2.772725
2.796105
2.817926
2.824161
2.821823
2.816369
2.792471
2.760520
2.717659
2.665965
2.608297
2.534004
2.443865
2.340478
2.222284
2.092401
1.955244
1.808995
1.671319
1.545591
1.420644
1.299073
1.165553
1.018265
0.858768
0.683425
0.497432
0.304944
0.112457
-0.072238
-0.237450
-0.387335
-0.520856
-0.627879
-0.715161
-0.785817
-0.834393
-0.847381
-0.825820
-0.771528
-0.677232
-0.542931
-0.366808
-0.161850
0.060771
0.296641
0.528614
0.740326
0.922423
1.070492
1.181413
1.251291
1.277528
1.256747
1.191286
1.085821
0.941910
0.764230
0.560572
0.335613
0.086756
-0.184701
-0.479537
-0.798271
-1.136489
-1.500423
-1.894231
-2.301546
-2.707303
-3.115398
-3.506089
-3.859632
-4.178627
-4.445668
-4.650624
-4.800509
-4.900000
-4.947797
-4.943640
-4.911169
-4.846486
-4.739980
-4.607238
-4.443584
-4.247459
-4.014187
-3.746106
-3.454126
-3.147599
-2.840553
-2.530649
-2.228279
-1.933182
-1.636267
-1.341949
-1.042436
-0.738248
-0.428344
-0.105971
0.219518
0.540592
0.844001
1.126629
1.382501
1.587978
1.744359
1.842552
1.880219
1.871647
1.814499
1.723321
1.610842
1.487972
1.359127
1.230283
1.113388
1.006364
0.914926
0.836217
0.761664
0.691787
0.626846
0.563983
0.501119
0.437996
0.373055
0.304477
0.223170
0.134330
0.046269
-0.048026
-0.132710
-0.198691
-0.256099
-0.297142
-0.333509
-0.377149
-0.421049
-0.472743
-0.537684
-0.617432
-0.716663
-0.839013
-0.987860
-1.152293
-1.328674
-1.510252
-1.674944
-1.813140
-1.905357
-1.935490
-1.898083
-1.775212
-1.572592
-1.310226
-0.999283
-0.660546
-0.308040
0.047583
0.392295
0.713109
1.008726
1.276287
1.506442
1.704386
1.870638
2.001561
2.104170
2.178724
2.239251
2.291724
2.331210
2.366798
2.387840
2.387841
2.367060
2.322380
2.253282
2.156130
2.043651
1.922859
1.798431
1.685952
1.586721
1.504895
1.438395
1.390078
1.366959
1.355790
1.359687
1.384365
1.426968
1.493469
1.580492
1.683360
1.799217
1.916893
2.026515
2.131982
2.224200
2.290701
2.341616
2.386297
2.423704
2.440589
2.434615
2.406301
2.344477
2.246025
2.103673
1.917420
1.698436
1.456592
1.199942
0.942253
0.700150
0.486102
0.314136
0.186850
0.102946
0.069436
0.079048
0.124768
0.201140
0.295436
0.405319
0.528709
0.659892
0.789257
0.901218
0.989279
1.053183
1.095785
1.117087
1.124621
1.134233
1.149819
1.172939
1.197618
1.230089
1.271133
1.303085
1.332179
1.352182
1.356339
1.349326
1.321791
1.279449
1.226457
1.165412
1.105926
1.046699
0.993967
0.947209
0.899672
0.854993
0.813170
0.783817
0.767712
0.766414
0.789274
0.825902
0.875258
0.930070
0.981244
1.030861
1.079438
1.127495
1.176332
1.232443
