EVENT_NAME: 202302060117
EVENT_ID: 13194
EVENT_DATE_YYYYMMDD: 2023/02/06
EVENT_TIME_HHMMSS: 01:17:32.00000
EVENT_LATITUDE_DEGREE: 37.288
EVENT_LONGITUDE_DEGREE: 37.043
EVENT_DEPTH_KM: 8.6
HYPOCENTER_REFERENCE: AFAD
MAGNITUDE_W: 7.7
MAGNITUDE_W_REFERENCE: AFAD
MAGNITUDE_L: 
MAGNITUDE_L_REFERENCE: 
FOCAL_MECHANISM: 
NETWORK: TK
STATION_CODE: 0125
STATION_NAME: 
STATION_LATITUDE_DEGREE: 37.01519
STATION_LONGITUDE_DEGREE: 35.79577
STATION_ELEVATION_M: 25.0
LOCATION: Kahramanmaras_Pazarck_Turkiye
SENSOR_DEPTH_M: 
VS30_M/S: 208
SITE_CLASSIFICATION_EC8: C
MORPHOLOGIC_CLASSIFICATION: 
EPICENTRAL_DISTANCE_KM: 114.62
EARTHQUAKE_BACKAZIMUTH_DEGREE: 
DATE_TIME_FIRST_SAMPLE_YYYYMMDD_HHMMSS: 2023/02/06 01:17:31.8047210
DATE_TIME_FIRST_SAMPLE_PRECISION: millisecond
SAMPLING_INTERVAL_S: 0.01
NDATA: 12501
DURATION_S: 
STREAM: HNN
UNITS: cm/s^2
INSTRUMENT: sensor = CMG-5T/GURALP | digitizer = 
INSTRUMENT_ANALOG/DIGITAL: 
INSTRUMENTAL_FREQUENCY_HZ: 
INSTRUMENTAL_DAMPING: 
FULL_SCALE_G: 
N_BIT_DIGITAL_CONVERTER: 
PGA_CM/S^2: 128.551
TIME_PGA_S: 
BASELINE_CORRECTION: BASELINE REMOVED
FILTER_TYPE: BUTTERWORTH
FILTER_ORDER: 
LOW_CUT_FREQUENCY_HZ: 
HIGH_CUT_FREQUENCY_HZ: 
LATE/NORMAL_TRIGGERED: 
DATABASE_VERSION: 
HEADER_FORMAT: DYNA 1.2
DATA_TYPE: Acceleration
PROCESSING: Automatic Paolucci et al., 2011
DATA_TIMESTAMP_YYYYMMDD_HHMMSS: 
DATA_LICENSE: U (unknown license)
DATA_CITATION: Turkish Accelerometric Archive v 1.0 - Disaster And Emergency Management Presidency, Earthquake Department
DATA_CREATOR: AFAD
ORIGINAL_DATA_MEDIATOR_CITATION: : AFAD - Disaster And Emergency Management Presidency
ORIGINAL_DATA_MEDIATOR: AFAD PROCESS SERVICE
ORIGINAL_DATA_CREATOR_CITATION: AFAD PROCESS SERVICE
ORIGINAL_DATA_CREATOR: network: TK
USER1: GuestUser
USER2: 
USER3: 
USER4: 
USER5: 
[...]
-3.767207
-2.959026
-2.672496
-2.847329
-3.334391
-3.850011
-4.081008
-3.908708
-3.182391
-2.008039
-0.794340
-0.015033
0.006863
-0.902216
-2.731484
-5.219162
-7.994954
-10.666035
-12.829109
-14.273167
-14.941728
-14.847169
-13.951093
-12.420723
-10.360451
-7.728076
-4.692088
-1.572966
1.447792
4.294983
6.777272
8.583381
9.576552
9.742189
9.238944
8.302576
7.203747
6.141408
5.267232
4.698622
4.530135
4.839511
5.580424
6.609450
7.749851
8.708753
9.205975
9.043516
8.070341
6.430188
4.595209
2.937604
1.613170
0.488322
-0.554661
-1.589711
-2.659030
-3.827349
-5.284734
-7.285982
-10.017985
-13.354775
-16.828958
-20.001700
-22.780030
-25.048450
-26.878035
-28.221507
-28.893559
-28.743470
-27.782030
-26.196131
-24.408425
-22.846324
-21.714173
-20.931693
-20.358953
-19.914722
-19.411472
-18.607098
-17.210314
-15.137667
-12.680128
-10.146435
-7.715233
-5.529308
-3.876457
-3.063516
-3.092706
-3.796171
-4.920067
-6.206424
-7.534347
-9.032982
-10.833375
-12.826373
-14.625813
-15.784930
-16.245022
-16.237404
-16.084460
-15.983554
-15.987359
-15.948328
-15.852816
-15.815371
-15.990839
-16.515978
-17.407923
-18.508021
-19.468822
-20.053615
-20.049487
-19.296200
-17.769954
-15.669702
-13.355585
-11.137612
-9.163965
-7.403548
-5.945523
-4.813372
-4.069921
-3.637113
-3.277285
-2.550017
-1.178300
0.845799
3.350617
5.970299
8.314560
9.950276
10.653746
10.572201
9.949332
8.910474
7.754847
6.868614
6.427878
6.445967
6.972698
7.947148
9.362653
11.271253
13.265525
14.861895
16.014988
16.617872
16.725124
16.872992
18.014027
20.278010
23.425055
27.141982
31.258398
35.285651
38.660205
41.140273
42.573865
42.872135
42.075699
40.484729
38.344183
35.928217
33.509711
31.311417
29.437409
28.038091
27.201040
26.746025
26.345905
25.690035
24.600409
22.920275
20.811460
18.548752
16.234324
14.052211
12.200732
10.855357
9.957700
9.472859
9.293901
9.396076
9.868865
10.630719
11.544564
12.116035
11.830779
10.899488
9.599170
7.708662
5.035360
2.202453
-0.224620
-2.453693
-4.656430
-6.725899
-8.389533
-9.774254
-10.996833
-11.934153
-12.604935
-12.720749
-12.249547
-11.429308
-10.625569
-10.012848
-9.690462
-9.914478
-10.363781
-10.893362
-11.290310
-11.449912
-11.418497
-11.198601
-10.579534
-9.183067
-7.212910
-5.257667
-3.669546
-2.457434
-1.631801
-1.213272
-1.043827
-1.063815
-1.145995
-1.034618
-0.560877
0.297756
1.214139
2.223492
3.436874
4.837783
6.127636
7.288979
8.382736
9.602781
11.150286
13.180413
15.727115
18.336644
20.529233
21.913325
22.205566
21.186064
18.926212
15.866431
12.393834
9.084968
6.349474
4.314909
2.791207
1.577514
0.739828
0.344467
0.218499
0.176617
0.415551
0.957513
1.798694
2.912441
4.161361
5.285579
6.214972
6.987615
7.420741
7.163408
5.952253
3.810756
0.857907
-2.569949
-5.926729
-8.739963
-10.932547
-12.648536
-14.037383
-15.212682
-16.261694
-17.393840
-18.666870
-19.823131
-20.747441
-21.591156
-22.233064
-22.718857
-23.237333
-23.748828
-24.075016
-24.295224
-24.631566
-24.965687
-25.091020
-24.878740
-24.256182
-23.261742
-21.983630
-20.630317
-19.377272
-18.532600
-18.289541
-18.480557
-18.513237
-18.177525
-17.546400
-16.530700
-15.064426
-13.273230
-11.113641
-8.821419
-6.562196
-4.480347
-2.939506
-2.480679
-3.206673
-4.632961
-6.281682
-7.649904
-8.455224
-8.509798
-7.795539
-6.469514
-4.819202
-3.076237
-1.473520
0.021629
1.509798
3.302263
5.872446
9.472604
13.692779
17.599773
20.811866
23.133598
24.290817
24.175002
23.167240
21.705096
19.906290
18.021494
16.544436
15.820980
15.952982
16.823038
18.045622
19.358320
20.378462
20.787472
20.341025
19.378638
18.272194
17.448787
16.739293
15.866386
14.903999
13.975563
12.791697
11.042707
8.751759
6.181899
3.548260
0.908910
-1.660951
-3.828150
-5.428639
-6.627737
-7.368327
-7.470814
-6.702931
-5.209685
-3.419124
-1.791023
-0.143250
1.740917
3.985544
6.541448
9.338505
11.888062
13.750335
14.980851
15.806484
16.224379
16.085719
15.395263
14.338319
13.005635
11.756403
10.962506
10.559847
10.115621
9.417232
8.487528
7.051403
5.016520
2.661159
0.428913
-1.619614
-3.533285
-5.342245
-7.075686
-8.826896
-10.388040
-11.492581
-12.093873
-12.434657
-12.546981
-12.368970
-11.978363
-11.512555
-11.024536
-10.396584
-9.830190
-9.407219
-8.822103
-7.570010
-5.811814
-3.632553
-1.085533
1.566197
3.662324
5.081003
6.159529
6.823336
6.959463
6.817947
6.890613
7.026423
7.009291
6.829698
6.393722
5.526844
4.287766
3.118495
2.096454
1.217836
0.534996
0.273855
0.543568
1.328269
2.513410
3.952714
5.357113
6.543841
7.547483
8.479097
9.374220
10.437198
11.957098
13.530622
14.496504
14.536487
14.014839
13.023259
11.587451
9.933971
8.391231
7.315566
6.715860
6.556574
6.602586
6.514378
6.125363
5.239764
3.843302
2.249476
0.851427
-0.289286
-1.304981
-2.135686
-2.626873
-2.638928
-2.186447
-1.510582
-0.733814
-0.047796
0.259677
0.064219
-0.470757
-1.158992
-2.051254
-2.985084
-3.809760
-4.517350
-5.482593
-6.877786
-8.450353
-10.044497
-11.918504
-14.192001
-16.631131
-19.045828
-21.362161
-23.442735
-25.007052
-25.918036
-26.276907
-26.362894
-26.552958
-26.998770
-27.435381
-27.580388
-27.462030
-26.915626
-25.713033
-23.970702
-21.944065
-19.803197
-17.702945
-15.914922
-14.719310
-14.494337
-15.551281
-17.464318
-19.443989
-21.076526
-22.274672
-22.783311
-22.292436
-21.271342
-20.068115
-18.390831
-15.751793
-12.296326
-8.131045
-3.792198
0.067200
2.670383
3.678150
3.013079
1.330724
-0.668303
-2.684781
-4.450905
-5.503724
-5.854345
-5.930179
-5.973330
-5.913991
-5.631903
-5.189576
-4.609855
-4.002211
-3.326980
-2.385848
-1.096947
0.359491
2.114196
4.278227
6.530469
8.439386
10.135390
11.565492
12.514874
12.845193
12.611341
12.147759
11.970705
12.280398
12.898513
13.667031
14.181070
13.781267
12.220440
9.907280
7.700418
6.341398
6.367737
7.932377
10.902683
14.564716
18.185500
21.182777
23.327769
24.900658
25.963002
26.466570
26.578581
26.757862
26.867652
26.530993
25.956989
25.712031
26.005224
26.533225
27.200522
27.651734
27.639362
26.756618
25.141215
23.109823
20.804596
18.007862
14.618083
10.808190
6.971643
3.603440
0.570630
-2.116633
-4.241948
-5.720275
-6.650931
-7.244291
-7.356615
-6.494174
-4.717257
-2.562111
-0.636377
0.620158
0.803247
-0.111545
-1.743131
-3.533052
-5.064052
-6.217775
-6.935519
-7.299467
-7.500319
-7.534903
-7.040537
-5.942338
-4.448140
-2.761021
-1.156083
-0.088028
0.165185
-0.375185
-1.425466
-2.430372
-2.911406
-2.674693
-1.985818
-1.126551
-0.044534
1.309414
2.408248
2.873422
2.731906
2.332420
1.941818
1.753024
1.986246
2.754764
3.570561
3.639737
2.478398
0.078614
-3.334963
-7.584643
-12.280137
-17.040045
-21.423627
-25.211626
-27.989322
-29.541581
-29.861424
-29.142088
-27.791630
-26.346615
-25.278560
-24.664887
-24.631885
-25.271254
-26.250776
-27.005010
-27.321044
-27.105591
-26.368803
-25.157643
-22.979651
-19.045051
-13.561363
-7.495101
-1.568770
4.323291
9.888527
14.721738
18.740741
22.104189
24.727044
26.871402
28.994501
30.905956
32.354461
33.126470
33.329548
32.864697
31.827108
30.236455
28.252977
26.035643
23.701224
21.401392
19.093309
16.749371
14.421298
12.228397
10.188121
8.224950
6.234491
3.860408
0.980222
-2.287077
-5.671780
-8.765195
-11.209719
-12.583970
-12.576352
-10.855281
-7.907504
-4.732218
-2.121103
-0.061783
1.507933
2.737180
3.203940
2.792397
2.623910
3.324842
4.912010
6.106036
6.351633
5.453025
3.680237
1.662173
-0.851842
-3.844671
-6.825761
-9.257593
-11.103360
-12.482370
-13.605632
-14.736191
-15.990817
-17.376174
-19.067413
-20.935392
-23.040716
-25.039743
-26.800472
-27.902157
-27.828856
-25.989747
-22.400060
-17.825771
-12.786629
-7.661814
-2.758796
1.359207
4.640473
7.626644
10.843179
14.413194
18.230707
21.666184
24.410251
26.289658
26.840187
25.812435
23.532592
20.669224
17.559625
14.252663
11.433717
9.608257
8.217189
6.696661
5.112036
3.611180
1.850768
-0.630247
-4.013363
-8.378859
-13.207939
-17.957693
-22.092825
-25.006962
-26.156243
-25.649820
-23.868143
-20.801693
-16.297529
-10.830658
-5.018558
0.825273
6.377499
11.792015
16.963157
22.366566
27.795678
32.864012
37.316456
40.312781
41.365288
40.763360
39.881886
39.816207
40.963271
43.171090
46.550721
50.931453
55.375646
59.339120
62.470618
64.556909
64.896112
63.051296
59.776381
55.310616
50.088394
44.645643
39.495766
35.200077
31.570731
28.028328
24.062637
19.339537
14.044651
8.757063
3.886416
-0.862386
-5.712092
-10.154058
-13.758020
-16.404985
-17.757976
-18.734960
-19.450800
-20.262784
-21.125220
-22.592441
-25.359983
-29.420230
-34.231224
-39.341438
-43.926828
-47.873162
-50.645781
-51.711293
-51.457763
-50.196785
-48.996096
-47.522841
-45.976288
-44.334226
-42.718817
-40.922544
-38.696004
-36.029360
-33.272919
-29.986576
-25.848266
-21.075343
-16.152653
-11.252490
-6.685500
-2.696958
0.011887
1.137058
0.654120
-0.988889
-3.964266
-8.161273
-12.915786
-17.501810
-21.928229
-25.985304
-29.121238
-30.782968
-30.655726
-29.023500
-26.057637
-22.033557
-16.928415
-11.489467
-6.736535
-3.051655
-0.189868
1.764423
3.100602
4.170244
5.326828
6.790247
8.860989
11.311548
14.098768
16.638807
18.680992
19.986392
21.183591
22.581962
23.589729
23.908942
22.984314
20.953557
18.068611
14.800678
11.088832
7.363025
4.147130
1.775903
0.162721
-1.432375
-3.069990
-4.581951
-5.790250
-6.729157
-6.979826
-6.370278
-5.095022
-3.350788
-1.023344
1.721674
4.404501
6.745906
8.675130
10.932132
13.541978
16.786754
20.001385
22.753702
25.255981
27.506319
29.427611
30.964327
32.533409
33.872761
34.783115
34.981434
34.414728
32.831055
30.352579
26.868877
22.250170
16.152182
8.724681
0.283387
-8.942923
-18.391029
-27.437744
-35.435444
-42.600850
-49.058663
-54.898681
-60.196105
-65.227945
-69.966275
-74.518348
-78.788017
-82.737525
-86.250102
-89.254354
-91.640494
-93.362195
-94.520678
-94.836077
-94.050425
-92.322055
-89.906401
-87.065556
-83.793492
-80.205073
-76.377406
-72.196577
-67.472202
-62.060860
-55.752810
-48.506803
-40.724549
-33.297995
-27.191435
-22.902404
-20.052992
-18.126941
-16.249437
-13.650062
-9.989298
-4.847983
1.290308
7.886471
14.178973
19.907622
25.038466
29.578168
33.268124
36.776581
40.217770
43.097643
45.137290
45.958164
45.759215
44.898684
43.689115
42.198730
40.979642
40.903809
41.850970
43.380706
44.841586
46.020699
46.868226
47.321025
47.395277
47.247098
46.844439
46.132089
45.294086
44.582370
44.250788
44.007734
43.687892
42.754380
40.970487
38.036359
33.605815
27.254934
19.271513
10.505614
2.119531
-4.937356
-9.999022
-12.804958
-13.619163
-13.153038
-12.365164
-12.001528
-12.523812
-14.282003
-17.210102
-20.861976
-24.578264
-28.174927
-31.437784
-33.961952
-35.433616
-35.478671
-34.198972
-31.803308
-28.973886
-26.021349
-23.831299
-23.047868
-23.935053
-25.791609
-27.957539
-29.733499
-30.431887
-29.683360
-27.668463
-25.148414
-22.831442
-21.161457
-19.917297
-18.986635
-17.877330
-16.524334
-15.014588
-13.707284
-13.153582
-13.632712
-14.758512
-16.318069
-18.431643
-20.907581
-23.236289
-24.764115
-25.522475
-25.875634
-26.101553
-25.974311
-25.598618
-25.592269
-26.080918
-26.720288
-27.369493
-28.234468
-29.264124
-30.062463
-30.773544
-31.412279
-31.932024
-32.147789
-32.414641
-33.065751
-34.152522
-35.457917
-36.564044
-36.934655
-35.999869
-33.760002
-30.441294
-26.480992
-22.346807
-18.368102
-14.848222
-11.608523
-8.247614
-4.669032
-0.868018
3.154475
7.377823
11.544373
15.644607
19.332659
22.354051
24.763994
26.751920
28.291810
29.879295
31.940836
34.511019
37.191942
39.557462
41.605041
43.553621
45.873132
48.613391
51.892436
55.422787
58.893168
62.150001
65.171711
67.811383
70.175000
72.275569
74.311091
76.346613
78.217136
79.574574
80.334842
80.824766
80.933604
80.401802
78.925696
76.597940
73.184363
68.641810
62.813215
56.018105
48.473201
40.350165
32.357859
25.016348
18.270103
11.962376
5.881523
-0.238994
-6.460414
-12.488595
-17.855192
-22.137871
-24.807048
-25.752301
-25.237945
-23.542575
-21.334121
-19.366503
-18.817561
-20.141677
-23.584764
-29.048457
-35.980326
-43.521105
-50.601790
-56.971075
-62.301499
-66.850398
-70.852896
-74.572991
-77.814589
-80.644957
-83.249721
-85.695832
-87.887146
-89.567597
-90.514754
-90.677529
-90.202837
-88.955821
-86.992327
-84.247309
-80.828649
-76.715724
-71.739408
-65.938096
-59.758556
-53.319458
-46.394565
-39.136501
-31.848610
-24.454103
-16.791473
-8.923546
-1.176830
6.484848
14.031661
21.402686
28.645520
35.598971
42.494037
48.797327
54.137910
58.705853
62.285069
64.437995
65.706270
67.117333
69.505065
72.771735
76.655248
80.619991
84.630744
88.489508
92.133772
95.470566
98.459911
100.901902
102.622338
104.122565
105.486984
106.553770
107.084626
107.812211
108.920247
109.809659
109.933411
109.036706
107.605658
105.121470
101.115799
95.634337
89.121948
81.607505
72.592521
61.921199
49.639865
36.012201
21.454830
6.097847
-9.685912
-25.770161
-41.638007
-56.794769
-70.610596
-82.698056
-92.635766
-100.210814
-106.120005
-110.964633
-114.976968
-118.668188
-122.282938
-125.377622
-127.736474
-128.550997
-127.600662
-124.782028
-120.300393
-114.152583
-106.268156
-96.518286
-85.882814
-75.070286
-64.476064
-54.591021
-45.562388
-37.289261
-29.468930
-22.427268
-16.062421
-9.895255
-3.734118
2.259799
7.510902
12.192757
15.546686
17.060874
16.029314
12.667140
7.606426
0.876364
-6.679646
-14.286742
-20.936525
-26.297411
-29.899468
-31.264517
-31.497734
-31.617991
-31.717940
-30.600702
-29.237235
-28.237083
-27.212499
-24.882200
-22.468131
-21.859536
-21.744034
-21.304879
-21.140829
-22.235216
-23.695139
-24.733680
-25.433020
-26.123476
-26.420789
-26.087298
-25.021781
-23.454286
-21.474610
-19.039917
-16.009005
-13.016805
-10.492315
-8.152496
-6.146484
-4.085578
-1.847932
0.692107
3.546279
5.887684
7.428843
7.461210
6.490891
5.180736
4.167580
3.403192
2.707659
2.811103
3.459997
4.140939
4.597862
4.731768
4.802847
4.720668
4.982448
6.558193
10.053958
15.096590
20.949623
27.391576
34.064211
40.352905
46.077429
51.504954
56.180463
59.893900
62.169305
63.995722
65.012374
65.092972
64.153749
61.829166
57.891716
51.869247
43.567885
32.425997
19.337754
5.086901
-8.886627
-21.529373
-32.036330
-40.559172
-47.155014
-51.803229
-54.825568
-57.047027
-59.419522
-62.842619
-67.492104
-73.452381
-80.264308
-86.894101
-93.101560
-98.629666
-103.083056
-105.658628
-106.859312
-106.749521
-105.769994
-103.938183
-101.849988
-99.300748
-96.615700
-94.229872
-91.539748
-88.500269
-85.120638
-81.312961
-76.333473
-69.011630
-58.516725
-44.994401
-28.966628
-10.778634
8.788055
28.623820
47.122774
63.704564
77.352858
87.288987
93.451075
96.179277
96.249721
93.854062
90.036554
85.067859
79.674925
74.291828
69.699458
66.440726
64.538160
63.727763
64.000649
65.398703
67.545916
70.411511
73.760998
77.629280
81.331611
84.782636
88.037883
91.289322
94.543935
96.743186
98.265941
99.114738
99.382864
98.482986
96.056549
92.405626
88.310158
84.309564
80.204259
76.359462
73.288258
70.835166
68.253566
64.997055
60.965047
56.024910
50.437150
44.271893
38.335731
33.065913
27.686941
21.531203
14.194769
5.848984
-3.098414
-12.346617
-21.593869
-30.614247
-38.892129
-45.935689
-51.579929
-55.940349
-59.321244
-62.094497
-64.492695
-66.815691
-68.475517
-69.446154
-69.628285
-68.922277
-66.815678
-63.364653
-58.838912
-53.837847
-48.998925
-45.037354
-42.194923
-40.236824
-39.679949
-39.897936
-40.419902
-41.046579
-42.229494
-43.629446
-45.130619
-46.466793
-47.789323
-49.313977
-50.395353
-50.173554
-48.051090
-44.195817
-38.716571
-31.478497
-22.854112
-13.345077
-3.741168
5.279850
13.228690
19.408865
23.666482
26.357559
28.368965
30.249642
32.300394
34.868673
38.127728
42.002039
45.996926
50.251688
54.397613
58.338559
62.142111
65.784471
68.762710
70.480291
71.173925
70.470459
68.586932
66.126543
63.501154
61.040764
58.777739
57.165826
56.291967
56.542642
57.968301
60.022544
62.194825
63.618263
63.795322
62.247505
58.320209
51.325514
41.446188
30.049186
17.819891
5.919324
-3.815627
-10.514276
-14.217554
-14.968932
-13.131092
-9.250118
-4.514955
-0.373472
2.407085
3.492592
3.043924
1.246070
-1.972999
-6.651359
-12.957817
-19.335035
-25.263581
-29.916239
-33.982198
-37.833976
-40.682748
-42.694150
-43.128222
-42.593558
-41.236120
-39.378924
-37.627074
-37.041324
-38.171884
-41.044137
-44.848318
-48.763874
-52.024827
-54.090488
-55.119510
-54.722557
-52.974515
-50.330082
-46.781010
-42.584315
-38.704610
-35.442700
-33.117795
-31.273926
-29.847949
-28.610770
-27.204149
-25.579538
-23.832448
-21.936858
-19.510732
-16.819339
-13.829677
-10.327883
-6.042661
-0.981942
4.408459
9.902301
15.080423
19.086417
22.461922
25.263421
26.695110
26.316566
24.182684
20.659319
16.004122
10.040989
4.119106
-1.340779
-5.975985
-9.610408
-12.664477
-14.795186
-16.265898
-16.025060
-14.082191
-10.390966
-5.572668
-0.112778
6.070570
12.306274
18.126624
22.825614
26.036121
28.189998
29.461447
30.045293
30.926772
31.819991
32.720826
32.892174
32.518390
31.290735
29.161295
26.405176
22.849446
18.555978
13.615206
8.454858
2.929608
-3.255957
-10.128807
-17.073367
-23.380460
-29.071979
-33.630080
-36.361449
-37.323519
-37.395545
-37.146139
-36.407131
-34.759674
-32.104136
-28.866024
-25.604114
-22.267319
-19.513416
-17.473452
-15.900880
-14.782056
-13.403358
-12.357831
-11.569640
-11.261533
-12.257555
-14.096342
-15.164074
-15.448061
-15.529606
-15.514055
-15.732359
-16.122644
-17.050762
-18.084543
-19.177025
-20.741342
-22.753378
-25.258825
-28.277039
-30.935428
-32.990301
-34.307436
-34.645682
-33.784193
-32.117698
-30.673001
-29.273043
-27.670644
-25.774420
-22.998623
-17.995970
-11.176423
-3.795878
3.191207
9.919370
15.991026
20.698584
23.869744
25.849420
27.387723
28.511307
29.909996
32.158430
35.031957
38.518838
42.641917
47.508127
53.458890
59.649220
65.276330
69.984205
73.078577
74.522640
75.177880
75.690332
75.805834
75.329243
74.108569
72.249157
70.101631
67.984250
65.514658
62.427589
58.707493
55.127965
52.266817
49.891466
47.933689
46.029220
43.824896
41.180469
38.320908
36.154027
34.539575
33.641918
33.398864
33.566722
34.233702
34.856260
35.352846
35.498492
35.690783
36.275580
37.116762
38.295240
39.626976
40.352975
40.037258
38.714094
36.657952
33.342105
28.418468
22.522286
15.979752
8.823231
1.470932
-5.062400
-9.756308
-13.117530
-15.497007
-17.424322
-19.726376
-22.848667
-27.510527
-33.214103
-39.585291
-45.979009
-51.250731
-55.081567
-56.613201
-56.420594
-55.596229
-54.161051
-51.451888
-47.653096
-43.968534
-40.326491
-36.252594
-31.908352
-27.377534
-22.454843
-17.294807
-12.629769
-8.659314
-5.406606
