EVENT_NAME: 202302060117
EVENT_ID: 13194
EVENT_DATE_YYYYMMDD: 2023/02/06
EVENT_TIME_HHMMSS: 01:17:32.00000
EVENT_LATITUDE_DEGREE: 37.288
EVENT_LONGITUDE_DEGREE: 37.043
EVENT_DEPTH_KM: 8.6
HYPOCENTER_REFERENCE: AFAD
MAGNITUDE_W: 7.7
MAGNITUDE_W_REFERENCE: AFAD
MAGNITUDE_L: 
MAGNITUDE_L_REFERENCE: 
FOCAL_MECHANISM: 
NETWORK: TK
STATION_CODE: 0141
STATION_NAME: 
STATION_LATITUDE_DEGREE: 37.56256
STATION_LONGITUDE_DEGREE: 35.52789
STATION_ELEVATION_M: 312.0
LOCATION: Kahramanmaras_Pazarck_Turkiye
SENSOR_DEPTH_M: 
VS30_M/S: None
SITE_CLASSIFICATION_EC8: unknown
MORPHOLOGIC_CLASSIFICATION: 
EPICENTRAL_DISTANCE_KM: 137.23
EARTHQUAKE_BACKAZIMUTH_DEGREE: 
DATE_TIME_FIRST_SAMPLE_YYYYMMDD_HHMMSS: 2023/02/06 01:17:35.6902440
DATE_TIME_FIRST_SAMPLE_PRECISION: millisecond
SAMPLING_INTERVAL_S: 0.01
NDATA: 12501
DURATION_S: 
STREAM: HNN
UNITS: cm/s^2
INSTRUMENT: sensor = ACEBOX/SARA | digitizer = 
INSTRUMENT_ANALOG/DIGITAL: 
INSTRUMENTAL_FREQUENCY_HZ: 
INSTRUMENTAL_DAMPING: 
FULL_SCALE_G: 
N_BIT_DIGITAL_CONVERTER: 
PGA_CM/S^2: 13.211
TIME_PGA_S: 
BASELINE_CORRECTION: BASELINE REMOVED
FILTER_TYPE: BUTTERWORTH
FILTER_ORDER: 
LOW_CUT_FREQUENCY_HZ: 
HIGH_CUT_FREQUENCY_HZ: 
LATE/NORMAL_TRIGGERED: 
DATABASE_VERSION: 
HEADER_FORMAT: DYNA 1.2
DATA_TYPE: Acceleration
PROCESSING: Automatic Paolucci et al., 2011
DATA_TIMESTAMP_YYYYMMDD_HHMMSS: 
DATA_LICENSE: U (unknown license)
DATA_CITATION: Turkish Accelerometric Archive v 1.0 - Disaster And Emergency Management Presidency, Earthquake Department
DATA_CREATOR: AFAD
ORIGINAL_DATA_MEDIATOR_CITATION: : AFAD - Disaster And Emergency Management Presidency
ORIGINAL_DATA_MEDIATOR: AFAD PROCESS SERVICE
ORIGINAL_DATA_CREATOR_CITATION: AFAD PROCESS SERVICE
ORIGINAL_DATA_CREATOR: network: TK
USER1: GuestUser
USER2: 
USER3: 
USER4: 
USER5: 
[...]
3.452985
2.145829
0.025760
-2.176371
-3.503166
-3.383223
-2.272681
-0.871530
0.323647
0.780024
0.358960
-0.512865
-0.957075
-0.142989
1.503183
2.660718
2.757281
2.196640
1.672705
1.725782
2.240140
2.429755
1.538057
-0.674596
-3.226722
-4.159568
-2.780160
-0.257716
1.839216
2.615428
2.387247
1.702225
0.558728
-0.572145
-0.807808
0.233998
2.338412
4.641553
5.965786
5.733396
4.268661
2.376311
1.032215
0.889604
1.476206
1.591005
0.607658
-1.056272
-2.212628
-1.905180
-0.757932
-0.292905
-1.035908
-2.364807
-3.229384
-2.885697
-1.566608
0.195059
2.107993
3.484128
3.443452
2.073405
0.677173
0.356875
0.903030
1.708700
2.491692
2.985944
3.209927
3.463134
3.954815
4.781994
5.410446
5.029829
3.937299
3.153615
3.142865
3.676863
4.218342
4.223958
3.330858
1.814687
0.654356
0.506367
1.350380
2.873574
4.083713
3.538971
1.017472
-2.026330
-3.874259
-3.531975
-0.989191
2.851869
6.604086
8.636491
7.935805
5.000017
1.254590
-1.719774
-2.704991
-1.532493
0.917707
3.370947
4.866787
5.141503
4.498565
3.582085
3.188609
3.640544
4.331186
4.430788
3.684044
2.426687
1.340470
0.878492
0.841323
0.721389
0.163554
-0.756200
-1.480967
-1.505978
-0.966603
-0.390756
-0.075826
0.076381
0.290310
0.399031
-0.086094
-1.164830
-2.164074
-2.243327
-1.073167
0.596150
1.567817
1.188602
-0.565574
-2.984903
-5.118065
-6.857979
-8.379527
-9.089097
-8.165827
-5.555475
-2.292362
0.065020
0.533321
-0.643610
-2.275042
-3.264701
-3.190816
-2.062506
-0.264133
1.464803
2.348094
1.906455
0.016209
-2.955817
-5.450195
-5.449956
-2.601132
1.622420
5.077014
6.134951
4.971113
2.936614
1.119079
0.174776
0.235569
1.070463
2.652107
5.085707
7.887071
9.532541
8.547324
4.840239
0.050439
-2.894700
-2.292433
0.630271
3.529596
4.823902
4.390680
3.008242
0.821073
-2.184152
-5.084636
-6.572283
-5.907593
-3.668044
-1.392490
-0.346243
-0.854280
-2.338887
-4.043499
-5.432717
-6.033104
-5.710693
-4.600618
-2.849472
-0.887207
0.628038
1.201314
0.659143
-1.036117
-3.272149
-4.173666
-2.380670
1.304447
4.941402
6.831424
6.555080
4.916634
2.593161
0.068156
-1.935950
-3.109607
-3.585146
-3.217846
-1.771337
0.395734
2.220293
2.461810
0.828507
-1.546167
-3.429165
-4.572896
-4.960761
-4.149012
-2.036416
0.590769
2.515393
2.723945
1.249157
-0.656520
-1.667689
-1.325638
-0.119474
1.075235
1.812870
2.101615
1.924869
1.159188
-0.170179
-1.723757
-3.233849
-4.660942
-5.546562
-5.211993
-3.669628
-1.698244
-0.464024
-0.593777
-1.437078
-2.077211
-2.362205
-2.550173
-2.509020
-1.424897
0.954930
3.198687
3.568793
1.729047
-1.548318
-5.150428
-7.791865
-8.390615
-6.663549
-3.183940
0.847899
3.772240
4.551958
3.774353
2.628518
1.866811
1.762075
1.787797
1.400634
0.955021
0.872028
1.226001
1.923190
2.415104
2.141098
1.218305
0.182354
-0.374546
0.104276
1.347848
2.056960
1.638701
0.912298
0.646943
0.771328
0.726911
-0.013520
-1.306648
-2.229441
-1.984650
-0.949391
-0.459348
-1.149512
-2.014791
-1.856272
-0.911726
-0.284443
-0.513092
-1.073266
-1.071391
-0.445744
-0.105798
-0.763699
-2.187520
-3.736655
-5.030251
-5.914701
-6.270536
-6.102898
-5.716427
-5.453166
-5.063889
-3.904016
-2.031295
-0.516518
-0.538724
-2.212708
-4.084016
-4.517939
-3.782642
-3.409964
-3.805077
-3.982290
-3.168203
-1.498419
0.195447
0.808469
0.057049
-1.335677
-2.827065
-4.157834
-4.755649
-4.031340
-1.738719
1.851944
5.473702
7.225316
6.230513
3.249837
-0.332400
-3.379709
-5.245406
-5.481303
-3.767097
-0.421453
3.329595
5.752909
5.818844
3.894931
1.094279
-1.372979
-2.734142
-2.952738
-2.351172
-1.348645
-0.286733
0.846721
2.296502
3.850558
4.479009
3.341824
0.924833
-1.241060
-1.881426
-1.018476
0.476897
1.964320
3.188253
3.990650
4.072016
2.977382
0.738311
-1.662081
-3.046390
-3.238099
-2.870097
-2.148828
-0.868316
0.644825
1.664887
1.729186
0.917681
-0.184902
-1.061637
-1.603341
-1.798790
-1.434997
-0.204050
1.326158
1.516708
-0.397620
-3.197571
-4.888154
-4.445571
-2.693490
-1.251423
-0.773069
-0.795977
-0.727002
-0.613371
-0.786143
-0.847627
-0.183404
0.875001
1.429105
0.888337
-0.431911
-1.300463
-0.728824
1.153482
3.208799
4.095129
3.385793
1.814446
0.654817
0.620453
1.140423
1.459094
1.707157
2.328595
3.464387
4.725027
5.164570
4.010318
1.661128
-0.259979
-0.537492
0.268646
0.967003
1.342720
1.793252
2.117534
1.347644
-1.233473
-5.027998
-7.987165
-8.044908
-5.005305
-0.486233
3.652685
6.246670
6.863900
5.593450
2.780172
-0.816560
-3.629838
-4.001337
-1.487544
2.814097
6.726699
8.147022
6.505536
2.598789
-2.342745
-6.247623
-7.032475
-4.723489
-0.805977
2.949046
4.692243
3.786283
0.780590
-3.189750
-5.895949
-5.424608
-1.817813
3.244370
7.156972
7.885957
5.327985
1.070776
-2.561728
-3.888756
-2.642612
0.417565
3.906994
6.464975
7.321145
6.280752
3.698466
0.440272
-1.945390
-1.873843
0.892684
5.104079
8.463283
8.998918
6.865522
3.588157
0.435873
-2.006368
-3.564155
-3.797947
-2.127461
1.055694
3.784346
3.988690
1.545981
-2.025268
-4.916400
-5.966145
-5.073034
-2.548253
1.128681
4.739685
6.661971
6.230620
4.028254
1.184817
-0.586427
-0.088434
2.014344
4.378974
5.973944
6.256843
5.453053
3.991825
2.553743
2.113507
2.966171
4.717083
6.581387
7.393136
6.765161
5.715417
5.118771
4.666378
3.678355
2.042481
0.652561
0.642045
1.925363
3.607539
5.108054
5.899229
5.521651
3.976957
1.432313
-1.500202
-3.759847
-5.011593
-5.528982
-5.081021
-3.193571
-0.434993
1.354497
0.871009
-1.394716
-3.902654
-5.232021
-5.096648
-4.103238
-2.520893
0.015578
3.599928
6.639531
6.832653
3.954146
-0.348654
-4.432620
-7.180902
-7.839037
-5.859237
-1.122967
5.235856
10.148409
10.647804
6.871750
0.918808
-4.927989
-8.088222
-7.271329
-3.267780
2.079402
6.317917
7.892079
7.242127
5.716605
4.567496
4.346329
4.850400
5.850122
7.273719
8.704329
9.267785
8.517768
6.823678
4.735406
2.732236
1.045861
-0.023757
0.367624
2.409848
4.947722
6.550174
6.528903
5.068844
2.371763
-1.129580
-3.828063
-4.083365
-1.668234
2.237354
5.875945
8.044186
8.426917
7.067390
4.136980
0.626052
-1.710747
-1.692740
0.289164
2.345416
2.911210
1.589325
-1.478792
-5.270511
-9.157853
-12.469587
-12.933436
-10.065440
-5.634510
-1.246364
1.280989
1.179760
-0.948726
-4.004451
-6.088983
-6.039413
-3.854339
-0.109370
3.532495
5.576590
6.035538
5.289964
3.131552
-0.366752
-4.500984
-7.802197
-8.201985
-5.485724
-1.555119
1.796136
3.219030
2.383210
0.469117
-1.289034
-2.509685
-3.012110
-2.045821
0.907744
4.937712
7.830023
7.152951
2.422302
-4.035641
-9.245341
-11.310000
-9.631097
-4.850873
1.324886
6.207279
7.676700
5.879973
1.940961
-2.986545
-7.144859
-9.368266
-9.486796
-7.140168
-2.795743
1.515717
4.092636
4.530776
3.176861
0.682483
-2.451565
-5.665337
-7.560259
-6.738691
-3.671967
-0.102112
2.567390
3.395739
2.606444
1.285494
-0.119389
-1.243481
-1.454829
-0.118206
2.907370
5.939023
7.086973
6.183351
4.008340
1.966359
0.953554
0.756234
1.554423
3.345782
4.717476
4.050691
1.244427
-2.409586
-5.772053
-8.197228
-9.180808
-8.518923
-6.347175
-3.612210
-1.805420
-1.663734
-2.971124
-5.099609
-7.466100
-9.641345
-11.207315
-12.024665
-12.050144
-11.094143
-9.165778
-6.706693
-4.805216
-4.469478
-5.626770
-7.452020
-8.854331
-9.299476
-9.114772
-8.286423
-6.592791
-4.419641
-2.535932
-1.917533
-3.115272
-5.673009
-8.248749
-9.118002
-7.596211
-4.672805
-1.773948
0.357820
1.523772
1.428387
-0.288147
-3.674462
-7.731541
-9.886446
-8.134364
-3.282833
2.086093
5.124994
3.993420
-0.509744
-5.962359
-10.114828
-10.717552
-6.968141
-0.940609
4.545215
7.584818
7.494344
4.843789
0.195670
-5.158516
-7.952155
-5.831843
0.196157
6.810988
10.453086
9.754505
6.052564
0.990156
-4.582397
-9.183756
-10.810513
-8.667990
-3.542214
1.788836
3.586508
1.119017
-3.440493
-8.299029
-11.956081
-13.034583
-11.369942
-7.915115
-4.499566
-2.851758
-3.163872
-4.378444
-5.766728
-7.527216
-9.368131
-9.822161
-7.961597
-4.558440
-1.227993
0.779162
1.220342
0.835282
0.067965
-1.517176
-3.285614
-3.267607
-0.524926
3.913018
7.447336
7.794062
5.056769
0.753735
-3.560755
-6.621624
-7.962914
-7.719293
-6.370044
-4.741641
-3.611460
-3.316871
-3.644416
-4.231476
-4.773881
-4.792113
-4.121811
-3.354951
-3.044931
-3.047264
-2.886407
-2.191089
-0.918526
0.588068
1.738823
2.010734
1.269602
-0.383340
-2.287147
-3.074337
-2.037442
0.167505
1.911638
1.568896
-0.733301
-3.299221
-4.782660
-4.976006
-4.269933
-2.869717
-1.071577
0.161708
-0.243224
-2.459150
-5.348412
-7.413070
-7.992181
-7.287979
-5.964448
-4.545294
-3.078913
-1.806116
-1.369378
-1.987065
-3.059722
-3.724403
-3.707565
-3.324600
-2.479886
-0.716816
1.723097
4.332981
6.692935
7.652678
6.450029
3.936947
1.387627
-0.174836
-0.053023
1.592447
4.113254
6.623774
7.837187
6.724083
3.232793
-1.488271
-5.425178
-7.202968
-7.208106
-6.599995
-6.168400
-6.083059
-5.945582
-5.729782
-5.861405
-6.142892
-6.003545
-5.593226
-5.841046
-6.963736
-8.106532
-8.519413
-7.389934
-4.468632
-0.736522
2.708720
4.595702
4.014487
1.301742
-2.278391
-4.588770
-4.304936
-1.807742
1.726809
4.283387
4.650220
3.408294
1.206863
-1.353679
-3.058758
-2.794329
-0.670042
2.048558
4.047529
4.385838
2.930455
0.596228
-1.479887
-2.512331
-2.156253
-0.475480
2.080397
4.605646
5.952791
5.330661
3.003214
0.228980
-1.739120
-2.451730
-2.246217
-1.887333
-2.014514
-2.448905
-2.491451
-2.000940
-1.561864
-1.707047
-2.259973
-2.685713
-3.027052
-3.880875
-5.453624
-7.044844
-7.548672
-6.373836
-3.917791
-1.419429
-0.244826
-0.974269
-3.193702
-5.998797
-8.219632
-8.656594
-7.137609
-4.861821
-3.127508
-2.497654
-2.647279
-2.387058
-0.978191
0.817611
1.621644
0.912776
-0.672365
-2.661274
-4.836519
-5.978380
-4.958084
-2.102947
1.214641
3.224134
3.091809
1.581951
-0.070289
-1.144349
-1.690261
-1.940419
-1.596733
-0.243042
2.202483
5.266868
7.573517
7.618644
5.036124
0.739871
-3.453746
-5.699832
-5.435636
-3.309479
-0.163264
3.054960
5.174337
5.363016
3.270068
-1.030862
-6.399310
-10.420151
-11.008146
-8.704770
-6.055141
-4.618686
-4.425565
-5.066165
-6.062136
-7.201192
-8.205814
-8.587366
-8.086801
-6.382648
-3.147591
1.311863
5.707256
8.584137
9.647919
9.423011
8.496243
7.276060
5.775320
4.349629
3.791326
4.374187
5.589470
6.355395
6.038838
5.223592
4.645650
4.391050
4.436879
5.152771
6.812035
8.500991
8.377784
5.788952
2.249968
-0.336527
-1.280829
-0.823984
0.271828
1.101579
1.191362
0.242618
-1.805675
-4.105534
-5.478621
-5.570498
-4.905574
-4.076290
-3.280206
-2.658534
-2.261542
-1.758171
-0.977985
-0.216269
0.107311
-0.287334
-1.169212
-1.878315
-2.018354
-1.619959
-0.869465
-0.076186
0.323612
0.062231
-0.596371
-0.967870
-0.562227
0.402659
1.256024
1.541963
1.273568
0.904875
0.957017
1.502938
2.175110
2.577714
2.970498
4.094132
5.986492
7.979852
9.367444
9.577632
8.588908
6.976180
5.512380
4.844660
4.950575
5.418641
6.034234
6.325551
5.872222
4.886538
3.527947
1.971563
0.687320
-0.157619
-0.568396
-0.640401
-0.545708
-0.173264
0.385750
0.815708
1.221117
1.758154
2.319974
2.818434
3.206776
3.644917
4.565382
5.930763
6.928380
6.882795
5.945039
4.712464
3.815856
3.839007
4.863044
6.400500
7.734084
7.882316
6.487954
4.478471
2.877666
2.066395
1.923315
1.877262
1.355899
0.350342
-0.604482
-1.155771
-1.668250
-2.647855
-3.878092
-4.605430
-4.278343
-2.696700
-0.182205
2.398687
4.304607
5.071000
4.426425
2.496901
-0.054290
-1.899881
-1.849376
0.223710
3.636687
7.272940
9.755638
9.896623
7.303582
2.838293
-1.394134
-3.119553
-1.580695
2.159599
6.016323
7.772847
6.537934
3.170323
-0.931645
-4.708869
-7.459722
-8.577269
-7.566324
-4.559921
-0.813081
1.784178
2.143061
0.680898
-1.179656
-1.961937
-1.205364
0.336300
1.573092
1.700049
0.483607
-1.116731
-1.485425
-0.268973
1.534077
2.855036
2.951365
2.151550
1.536901
1.163298
0.838559
1.172893
2.261224
3.652791
5.001104
5.499097
4.364951
1.960117
-0.396788
-1.489318
-0.679439
2.058565
5.573712
8.072776
8.525880
6.860780
4.018278
1.194713
-1.235371
-2.866102
-3.196687
-2.346829
-1.037793
-0.581650
-1.581362
-3.609549
-6.106499
-7.764117
-7.543173
-5.890690
-3.547569
-1.153947
0.733736
1.451031
-0.066074
-3.714476
-7.632446
-9.845800
-9.347339
-6.210944
-1.607939
2.557866
4.753461
4.494418
2.093559
-1.510421
-4.916375
-6.727598
-6.299043
-4.161429
-1.413372
0.850726
1.675801
0.533005
-2.470116
-6.340859
-9.290908
-9.788658
-7.484113
-3.178264
1.466591
4.670553
5.722646
5.091164
3.484047
1.164081
-1.511022
-3.286240
-3.107614
-1.145349
1.685005
3.894394
4.679958
4.982730
5.730886
6.824361
7.658554
7.327736
5.434450
2.631927
0.084711
-1.137343
-0.526426
1.487509
3.563166
4.307113
3.235625
0.761120
-2.258601
-4.651277
-5.178485
-3.240535
0.775172
5.484087
8.469683
7.840305
4.089033
-0.816029
-4.761820
-5.859260
-3.583940
1.047588
6.359467
10.079420
10.447422
7.903478
4.226787
0.706507
-2.050893
-3.703368
-4.273594
-3.953287
-2.753435
-1.186287
-0.445379
-0.793498
-1.059788
-0.430168
0.268190
-0.554772
-3.538020
-7.461134
-9.757252
-8.969584
-6.116318
-2.692352
0.450356
2.542846
3.057906
1.990393
0.408759
0.066017
1.899226
5.591124
9.695439
12.480905
13.211292
11.904838
8.740864
4.487863
0.551189
-1.877492
-2.248290
-0.693533
2.147810
5.499299
8.010286
8.056583
5.351553
0.868261
-4.161882
-7.893281
-8.414645
-5.641103
-1.085558
3.576364
6.702004
7.265694
5.640574
2.824023
-0.499166
-3.429576
-4.570268
-3.299342
-0.393003
2.351080
2.989585
1.263231
-1.576466
-4.469936
-6.445752
-6.407638
-3.821836
0.545502
4.475171
5.863698
4.347995
1.203427
-1.889005
-4.141169
-5.719997
-6.906981
-7.397483
-6.297462
-3.419179
-0.023035
2.392095
3.412859
3.831828
4.440875
4.801161
4.183707
3.045353
2.515340
3.123451
4.250593
4.619062
3.351184
0.430827
-3.335642
-6.579808
-8.141569
-7.751824
-6.071752
-4.030464
-2.072641
-0.271929
1.376346
2.835012
3.532200
2.629982
-0.056578
-3.844557
-7.207959
-8.548548
-7.418367
-4.236382
0.223774
4.498528
6.793720
6.089294
2.923216
-0.764931
-2.656112
-1.520554
1.964900
6.262332
9.984156
11.728054
10.943903
8.390140
4.906566
1.488455
-0.582751
-1.096632
-0.576662
0.884108
3.024293
5.000118
5.998671
5.569424
3.789063
1.416493
-0.571013
-1.691832
-1.891724
-1.165779
0.421943
2.728826
4.855450
4.959027
2.460441
-1.503353
-5.818311
-9.251385
-11.006263
-11.326560
-10.082754
-7.192080
-3.338395
0.413355
2.703170
2.810955
0.948297
-1.796712
-3.760370
-4.191487
-2.874035
0.131667
3.429383
5.487738
5.926581
5.133078
3.713933
2.165966
0.904635
0.334642
0.737479
1.666360
1.964924
0.988825
-1.114176
-3.581901
-5.303814
-5.809512
-5.195790
-3.833214
-2.653936
-2.279388
-2.627741
-3.542118
-4.572224
-5.247659
-5.714548
-6.042327
-5.802212
-4.837793
-3.559385
-2.253389
-1.234496
-1.098421
-1.539592
-1.558758
-0.505964
1.590968
3.574509
4.592701
4.682951
3.835675
2.899322
2.662256
2.611994
2.287488
1.829952
1.519240
0.950884
-0.325177
-1.802303
-2.939021
-2.929664
-1.295183
1.120649
3.457925
4.939737
5.181722
4.510729
3.196092
2.352088
3.042730
4.765353
6.859012
8.883468
9.982787
9.616198
8.552659
7.980796
8.094192
8.734801
9.448355
9.638203
9.950795
10.963844
11.746368
10.994714
8.217441
4.149374
0.204050
-2.176002
-2.410963
-1.604592
-1.261372
-1.985905
-3.405985
-4.785618
-6.020063
-7.361821
-8.587147
-8.824447
-7.364378
-4.028086
0.602507
3.983220
4.711270
4.818120
5.432544
5.790025
5.271467
3.901888
2.649440
2.463343
3.690082
5.072296
5.156935
4.536676
2.972577
0.514671
-1.027685
-1.767415
-2.150136
-1.672483
-0.602388
0.632767
1.099899
0.274132
-1.049390
-2.256714
-3.276065
-4.002469
-3.968096
-3.664388
-4.209365
-4.970604
-5.136595
-4.734459
-3.264337
-0.629203
2.337922
5.081304
7.714100
9.422929
8.600669
5.598951
1.939794
-1.142818
-2.130139
-0.686904
2.071441
4.846620
6.625822
7.544883
7.729822
6.602456
4.724368
2.787128
0.544316
-1.115406
-0.833442
0.968672
3.071917
4.554664
4.965451
4.921502
4.892749
4.394298
3.322343
1.902497
0.479611
-0.031465
0.830317
2.356784
3.274209
3.013764
2.137730
1.120016
0.334695
0.461652
1.720889
3.844007
5.977178
6.903721
6.371369
4.948250
3.251588
1.975294
1.501158
1.772367
2.544604
3.435143
4.041384
3.838219
2.692383
1.347586
0.458226
0.216251
0.844235
2.518228
5.229580
8.514203
11.359286
12.693104
11.970676
9.704016
7.008572
4.589009
2.675383
1.419897
0.940617
1.039518
1.307922
1.519046
1.443768
0.817430
-0.336589
-1.809039
-3.412650
-5.047823
-6.377190
-6.665223
-5.790115
-4.679106
-4.108636
-4.148610
-4.637008
-5.199753
-5.410634
-5.043099
-3.774745
-1.727611
0.075672
0.831076
0.521299
-0.452228
-1.364500
-1.545922
-0.885907
0.291734
1.679326
2.879646
3.132853
2.042194
0.335245
-0.609759
0.186091
2.471698
4.737432
5.455429
4.441455
2.681200
1.071510
-0.216474
-1.309004
-2.164463
-2.691671
-3.050312
-3.546425
-4.087660
-4.156392
-3.528408
-2.446857
-1.271787
-0.429878
-0.355292
-1.168668
-2.622181
-4.227896
-5.220828
-4.973700
-3.563196
-1.578954
0.148345
0.849976
0.269462
-1.366880
-3.411199
-5.031877
-5.833563
-5.913517
-5.606302
-5.233859
-4.690275
-3.669511
-2.262047
-0.881236
0.129708
0.756524
1.189989
1.483643
1.586518
1.201693
0.028737
-1.212722
-1.262048
0.195916
2.565924
5.206201
7.492977
8.471891
7.355981
4.143144
-0.347863
-4.359352
-6.002708
-4.660005
-1.034039
3.483163
7.211299
8.716724
7.508465
4.204680
0.072552
-3.280563
-4.472925
-3.299491
-0.854435
1.348174
2.374783
2.072955
0.597699
-1.781183
-4.595396
-7.373137
-9.503493
-9.948170
-8.300830
-5.756877
-3.885793
-3.106308
-2.920902
-3.075905
-3.790384
-4.825634
-5.403810
-5.103609
-3.925968
-2.048805
0.065429
1.998002
3.428378
3.866987
3.110424
1.663457
0.587059
0.669828
1.676096
2.964792
3.905831
3.873104
2.681678
0.611875
-1.316714
-1.809320
-0.784582
0.869539
2.345740
3.054150
2.464051
0.621733
-1.448771
-2.963772
-3.662821
-3.206912
-1.923360
-0.481762
0.893906
1.982939
2.472281
2.165544
1.228489
0.110242
-0.850193
-1.322458
-1.113205
-0.380479
0.456286
0.814468
0.432916
-0.312425
-1.062676
-2.092314
-3.869169
-6.256234
-8.274835
-8.810226
-7.682149
-5.465746
-2.665786
0.044865
1.644978
1.446956
-0.588010
-3.624097
-5.886080
-6.009521
-4.012653
-0.827862
2.362306
4.779307
5.770612
4.816958
2.520606
0.183106
-0.789720
0.340461
2.449551
3.876888
4.184102
3.766077
2.765664
1.139141
-0.628829
-2.082810
-2.819032
-2.424144
-1.645828
-1.529392
-2.278474
-3.668862
-4.997059
-5.612409
-5.368787
-4.229488
-2.642701
-1.520937
-1.149195
-1.157607
-1.187528
-0.682755
0.831555
2.978286
4.830433
5.562690
4.912505
3.148743
0.751391
-1.470380
-2.525502
-2.025171
-0.745126
0.268156
0.833248
1.135086
1.193306
0.861319
-0.082049
-1.295452
-1.967146
-1.782909
-1.259666
-1.054388
-1.314833
-1.738001
-1.639334
-0.478993
