EVENT_NAME: 202302060117
EVENT_ID: 13194
EVENT_DATE_YYYYMMDD: 2023/02/06
EVENT_TIME_HHMMSS: 01:17:32.00000
EVENT_LATITUDE_DEGREE: 37.288
EVENT_LONGITUDE_DEGREE: 37.043
EVENT_DEPTH_KM: 8.6
HYPOCENTER_REFERENCE: AFAD
MAGNITUDE_W: 7.7
MAGNITUDE_W_REFERENCE: AFAD
MAGNITUDE_L: 
MAGNITUDE_L_REFERENCE: 
FOCAL_MECHANISM: 
NETWORK: TK
STATION_CODE: 3303
STATION_NAME: 
STATION_LATITUDE_DEGREE: 37.1659
STATION_LONGITUDE_DEGREE: 34.60043
STATION_ELEVATION_M: 1225.0
LOCATION: Kahramanmaras_Pazarck_Turkiye
SENSOR_DEPTH_M: 
VS30_M/S: 612
SITE_CLASSIFICATION_EC8: B
MORPHOLOGIC_CLASSIFICATION: 
EPICENTRAL_DISTANCE_KM: 216.68
EARTHQUAKE_BACKAZIMUTH_DEGREE: 
DATE_TIME_FIRST_SAMPLE_YYYYMMDD_HHMMSS: 2023/02/06 01:17:49.3613140
DATE_TIME_FIRST_SAMPLE_PRECISION: millisecond
SAMPLING_INTERVAL_S: 0.01
NDATA: 9664
DURATION_S: 
STREAM: HNZ
UNITS: cm/s^2
INSTRUMENT: sensor = CMG-5T/GURALP | digitizer = 
INSTRUMENT_ANALOG/DIGITAL: 
INSTRUMENTAL_FREQUENCY_HZ: 
INSTRUMENTAL_DAMPING: 
FULL_SCALE_G: 
N_BIT_DIGITAL_CONVERTER: 
PGA_CM/S^2: 11.459
TIME_PGA_S: 
BASELINE_CORRECTION: BASELINE REMOVED
FILTER_TYPE: BUTTERWORTH
FILTER_ORDER: 
LOW_CUT_FREQUENCY_HZ: 
HIGH_CUT_FREQUENCY_HZ: 
LATE/NORMAL_TRIGGERED: 
DATABASE_VERSION: 
HEADER_FORMAT: DYNA 1.2
DATA_TYPE: Acceleration
PROCESSING: Automatic Paolucci et al., 2011
DATA_TIMESTAMP_YYYYMMDD_HHMMSS: 
DATA_LICENSE: U (unknown license)
DATA_CITATION: Turkish Accelerometric Archive v 1.0 - Disaster And Emergency Management Presidency, Earthquake Department
DATA_CREATOR: AFAD
ORIGINAL_DATA_MEDIATOR_CITATION: : AFAD - Disaster And Emergency Management Presidency
ORIGINAL_DATA_MEDIATOR: AFAD PROCESS SERVICE
ORIGINAL_DATA_CREATOR_CITATION: AFAD PROCESS SERVICE
ORIGINAL_DATA_CREATOR: network: TK
USER1: GuestUser
USER2: 
USER3: 
USER4: 
USER5: 
[...]
-2.068231
-2.441892
-2.814247
-3.061177
-3.236903
-3.359389
-3.270875
-2.972668
-2.667275
-2.463462
-2.320401
-2.245279
-2.348821
-2.677408
-3.134685
-3.608947
-3.963337
-4.027684
-3.691915
-3.068715
-2.454334
-2.152533
-2.083943
-1.812846
-1.240926
-0.524311
0.288985
1.228032
2.120371
2.603449
2.654727
2.428701
2.057653
1.635324
1.156817
0.599918
-0.062153
-0.770932
-1.364739
-1.664909
-1.600892
-1.283740
-1.019175
-1.096260
-1.525775
-2.096391
-2.526885
-2.646432
-2.554325
-2.510885
-2.530158
-2.558902
-2.649379
-2.715032
-2.542576
-1.988294
-1.125677
-0.211780
0.566893
1.075121
1.176373
0.830475
0.163178
-0.578264
-1.086495
-1.245563
-1.198857
-1.041425
-0.728519
-0.327751
-0.104668
-0.137005
-0.361072
-0.699457
-1.079978
-1.452659
-1.742377
-1.869436
-1.694367
-1.167848
-0.560979
-0.090966
0.264074
0.613888
0.916342
0.973173
0.824230
0.839254
1.130929
1.482050
1.720158
1.875630
1.893593
1.776006
1.727011
1.779923
1.754771
1.573492
1.314803
1.039130
0.733080
0.420824
0.137965
-0.037434
0.011231
0.303233
0.637369
0.781736
0.770303
0.816029
0.912708
0.930671
0.883309
0.828108
0.797403
0.886244
1.124679
1.334371
1.352661
1.213190
0.944376
0.612196
0.231349
-0.125001
-0.365072
-0.529040
-0.641074
-0.742003
-0.827254
-0.779895
-0.503244
-0.016901
0.433841
0.647126
0.637652
0.502101
0.271502
0.043842
-0.065579
-0.164548
-0.336354
-0.430424
-0.375879
-0.305983
-0.170762
0.145737
0.480853
0.538338
0.338115
0.083999
-0.151827
-0.271047
-0.088138
0.293359
0.657872
1.011932
1.372852
1.536816
1.386567
0.957053
0.240435
-0.731604
-1.634725
-2.346444
-2.979446
-3.406020
-3.470040
-3.317508
-3.137865
-2.768453
-2.086134
-1.205553
-0.124751
1.046853
2.023789
2.587869
2.821078
2.921677
2.924942
2.738437
2.246864
1.599164
1.073949
0.659460
0.227986
-0.152208
-0.422002
-0.623858
-0.747978
-0.837475
-0.947222
-0.952450
-0.720547
-0.370080
-0.116293
-0.038231
-0.192073
-0.526213
-0.890729
-1.205924
-1.308812
-1.104346
-0.680388
-0.154196
0.324636
0.635582
0.774396
0.825021
0.924314
1.109182
1.353823
1.425353
1.213698
0.858981
0.452984
0.013344
-0.214969
0.005829
0.573829
1.282605
1.966557
2.342502
2.147831
1.549778
1.002026
0.786778
1.052976
1.714065
2.287944
2.387563
1.979933
1.247311
0.338963
-0.557952
-1.153718
-1.403915
-1.477081
-1.511378
-1.596956
-1.762556
-1.968005
-2.144385
-2.291694
-2.391317
-2.342324
-2.128386
-1.953316
-1.929474
-2.006233
-2.066334
-2.056536
-1.979128
-1.790013
-1.504871
-1.229200
-1.008403
-0.843459
-0.750698
-0.692561
-0.515205
-0.205565
0.042015
0.241255
0.548282
0.980733
1.394566
1.785535
2.219292
2.704656
3.225949
3.745282
4.142130
4.257754
4.008211
3.440860
2.762784
2.032448
1.340327
0.888602
0.609009
0.211831
-0.314691
-0.853951
-1.309595
-1.592128
-1.577105
-1.421959
-1.414775
-1.680650
-2.251266
-2.987808
-3.521516
-3.620158
-3.344815
-2.918897
-2.508003
-2.132712
-1.815887
-1.684912
-1.725741
-1.751873
-1.658133
-1.348820
-0.831773
-0.429046
-0.350984
-0.477389
-0.565253
-0.443097
-0.086423
0.361052
0.519464
0.209168
-0.343811
-0.837343
-1.080028
-1.027442
-0.814158
-0.565924
-0.282088
0.028858
0.265334
0.331310
0.258471
0.210782
0.232338
0.250628
0.258465
0.284920
0.461623
0.895380
1.421572
1.822014
2.005249
2.089843
2.102907
1.979768
1.777258
1.613291
1.539472
1.551229
1.633210
1.617204
1.364067
1.057038
0.806841
0.542600
0.189842
-0.229220
-0.735817
-1.293042
-1.717657
-1.862680
-1.776779
-1.617061
-1.499151
-1.446566
-1.367197
-1.237202
-1.069971
-0.922664
-0.826638
-0.711667
-0.584285
-0.517655
-0.542154
-0.463438
-0.054505
0.521335
0.873762
0.908056
0.855468
0.934510
1.109579
1.352261
1.686397
1.983951
2.057114
1.882367
1.559987
1.193838
0.848920
0.559201
0.367797
0.385433
0.554624
0.680373
0.622232
0.327614
-0.134236
-0.672516
-1.217329
-1.686365
-2.022464
-2.322308
-2.610720
-2.711649
-2.638160
-2.593087
-2.613666
-2.636531
-2.628367
-2.436313
-1.924166
-1.242826
-0.557241
0.070532
0.419693
0.324317
-0.154518
-0.775434
-1.250350
-1.576977
-1.854937
-2.097948
-2.207369
-2.199858
-2.061044
-1.609975
-0.887481
-0.060140
0.757402
1.457686
1.898302
2.081537
2.195855
2.334342
2.435268
2.407503
2.327805
2.452248
2.881106
3.425915
3.778669
3.731307
3.240387
2.504825
1.896647
1.585698
1.535722
1.607579
1.690213
1.633379
1.357379
0.973919
0.692693
0.608748
0.761934
1.114361
1.539300
1.759444
1.666027
1.345933
0.842275
0.209273
-0.363630
-0.705282
-0.786940
-0.631468
-0.420469
-0.479590
-0.784333
-1.054454
-1.190332
-1.316737
-1.593391
-2.018332
-2.501086
-3.046226
-3.546618
-3.747167
-3.462678
-2.810408
-2.095427
-1.566295
-1.326880
-1.307611
-1.340275
-1.264499
-1.057747
-0.698134
-0.195785
0.402918
1.001621
1.597711
2.184002
2.610247
2.790869
2.915965
3.197515
3.649237
4.146686
4.569338
4.839129
4.862644
4.614407
4.074494
3.278506
2.349908
1.389300
0.522435
-0.117426
-0.501213
-0.700456
-0.729527
-0.550538
-0.178513
0.230747
0.554758
0.757264
0.851658
0.883665
0.895422
0.859165
0.805597
0.770320
0.686376
0.507057
0.262413
0.005030
-0.229162
-0.395089
-0.579634
-0.860534
-1.195000
-1.463814
-1.645420
-1.834211
-1.894638
-1.655550
-1.174432
-0.708339
-0.533922
-0.728266
-0.998713
-1.041830
-0.813520
-0.471871
-0.256953
-0.440192
-1.096384
-2.009630
-2.947701
-3.723438
-4.206518
-4.392370
-4.333906
-4.063461
-3.655834
-3.182882
-2.606063
-1.940401
-1.198310
-0.341246
0.600414
1.506798
2.396851
3.374113
4.425193
5.390696
6.098492
6.355545
6.121353
5.625207
5.100318
4.578369
4.112599
3.794465
3.646828
3.490700
3.187916
2.781919
2.304065
1.749453
1.140948
0.655254
0.296618
-0.145308
-0.713638
-1.244406
-1.676533
-1.936202
-1.956781
-1.830052
-1.700710
-1.614156
-1.563530
-1.607953
-1.776167
-2.027017
-2.274600
-2.376509
-2.302040
-2.121418
-1.972478
-1.887557
-1.783038
-1.541337
-1.115745
-0.622869
-0.250844
-0.064669
-0.136528
-0.460869
-0.961261
-1.546249
-2.117845
-2.468969
-2.502613
-2.316438
-1.980669
-1.477014
-0.938736
-0.562792
-0.329256
-0.129363
0.097967
0.480770
1.079147
1.892116
2.751793
3.468081
4.014198
4.491069
5.018568
5.602573
6.143790
6.559256
6.935854
7.304286
7.562318
7.589100
7.284030
6.648089
5.826624
4.963025
4.115103
3.343939
2.645285
1.823167
0.727337
-0.526907
-1.796828
-2.940346
-3.669049
-3.957134
-4.049898
-4.107712
-4.155401
-4.261229
-4.380449
-4.288342
-3.887574
-3.358769
-2.893002
-2.577810
-2.406334
-2.318473
-2.279279
-2.257724
-2.151899
-1.868389
-1.465661
-1.175946
-1.115195
-1.220697
-1.383031
-1.505191
-1.500293
-1.248140
-0.774208
-0.278392
0.072076
0.210564
0.216768
0.293197
0.538818
0.799463
0.931418
0.900061
0.732174
0.631245
0.819706
1.401425
2.169646
2.684080
2.751690
2.417224
1.922385
1.510182
1.432117
1.757107
2.176166
2.308775
2.045840
1.436028
0.617830
-0.125245
-0.645561
-0.898697
-0.734406
-0.281052
0.046226
0.047204
-0.088021
-0.088349
0.153353
0.717107
1.471937
2.110488
2.458669
2.437111
2.129754
1.734536
1.310901
0.828147
0.363357
0.058614
-0.146508
-0.354244
-0.473464
-0.535524
-0.713537
-0.952301
-1.181921
-1.535004
-2.048461
-2.630510
-3.257632
-3.922643
-4.487707
-4.807802
-4.867576
-4.709817
-4.441333
-4.150637
-3.886072
-3.654496
-3.392871
-2.942456
-2.301945
-1.731005
-1.396542
-1.296269
-1.259362
-1.029746
-0.491795
0.131078
0.604357
0.970176
1.235068
1.322928
1.336645
1.380738
1.379103
1.351992
1.542086
2.035942
2.483418
2.517059
2.165935
1.640393
1.067490
0.595841
0.295017
0.151954
0.062457
-0.024754
-0.073749
-0.070484
-0.038150
0.080740
0.358044
0.619343
0.597784
0.302513
-0.021828
-0.227277
-0.297830
-0.314163
-0.423910
-0.697298
-1.146409
-1.659213
-2.125309
-2.449323
-2.596306
-2.664246
-2.687764
-2.623094
-2.525108
-2.419283
-2.264791
-1.952212
-1.496570
-1.111154
-0.930532
-1.010230
-1.382584
-1.882323
-2.224302
-2.280809
-2.049233
-1.521081
-0.776050
-0.035265
0.459244
0.710745
0.889407
1.135681
1.482556
1.867646
2.269067
2.647951
2.889979
3.029773
3.217908
3.422701
3.486391
3.479204
3.528523
3.629448
3.791127
3.942679
3.927653
3.785569
3.621928
3.374671
2.995784
2.509437
1.907791
1.283935
0.804774
0.482393
0.309280
0.361538
0.647007
1.093503
1.671628
2.223951
2.510073
2.407184
1.975711
1.305800
0.513732
-0.282256
-0.904480
-1.219022
-1.213797
-1.087395
-1.077597
-1.333673
-1.870321
-2.625807
-3.453151
-4.151152
-4.609735
-4.906640
-5.083019
-5.165657
-5.220531
-5.251889
-5.232293
-5.147372
-4.946172
-4.636533
-4.245890
-3.863087
-3.478323
-3.009291
-2.499430
-1.977810
-1.394132
-0.670331
0.102790
0.780863
1.316527
1.647397
1.788824
1.907388
2.105321
2.246749
2.077229
1.573244
0.963106
0.482965
0.175282
-0.080141
-0.328051
-0.615810
-1.088765
-1.843925
-2.802573
-3.816420
-4.771801
-5.457716
-5.772911
-5.815048
-5.733066
-5.715103
-5.799374
-5.884625
-5.841512
-5.555716
-4.984123
-4.144697
-3.153064
-2.137586
-1.162937
-0.222911
0.695232
1.521593
2.174843
2.648122
3.051503
3.308555
3.307574
3.114210
2.804241
2.455076
2.046793
1.534643
0.906867
0.302281
-0.164795
-0.465618
-0.638078
-0.728882
-0.833077
-1.044732
-1.383771
-1.645726
-1.749268
-1.857709
-2.008938
-2.072958
-2.009921
-1.903116
-1.799577
-1.560162
-1.055854
-0.283713
0.570411
1.358557
1.954974
2.359008
2.634678
2.866581
2.934191
2.782308
2.555629
2.302492
1.899435
1.459469
1.102792
0.713126
0.204569
-0.168113
-0.370622
-0.597628
-0.787726
-1.076464
-1.362917
-1.722533
-2.014864
-2.205942
-2.378728
-2.343128
-2.064191
-1.640886
-1.143763
-0.633249
-0.069168
0.660185
1.505163
2.319766
2.837139
2.864574
2.430161
1.834068
1.341188
1.041671
0.963606
0.993654
1.003124
0.898929
0.596146
0.009851
-0.736816
-1.372104
-1.690239
-1.730089
-1.685016
-1.745117
-2.115185
-2.730876
-3.305412
-3.663395
-3.920124
-4.270268
-4.635111
-4.728854
-4.483886
-4.075606
-3.524917
-2.768780
-1.863376
-0.900485
0.072204
1.016804
1.921555
2.770126
3.528876
4.218054
4.901680
5.403375
5.557541
5.450079
5.211968
4.903305
4.563613
4.210203
3.838501
3.348561
2.742996
2.091377
1.502796
1.054011
0.757107
0.477840
0.103526
-0.268176
-0.694097
-1.302928
-1.934624
-2.376876
-2.537904
-2.379819
-1.939529
-1.435548
-1.141586
-1.072670
-1.190257
-1.493040
-1.896098
-2.225664
-2.336719
-2.172754
-1.790277
-1.368605
-1.117758
-0.973065
-0.697721
-0.079094
0.945529
2.120726
3.117912
3.791739
4.150699
4.234314
4.250317
4.397297
4.629199
4.874167
5.120767
5.203729
4.879388
4.177795
3.308969
2.449289
1.666366
1.035324
0.585886
0.336343
0.362798
0.729270
1.358349
2.011925
2.503169
2.804969
3.063002
3.415756
3.797906
4.000739
3.793657
3.169474
2.419540
1.754202
1.125446
0.555157
0.164184
-0.110183
-0.346661
-0.552110
-0.833663
-1.391867
-2.083335
-2.682695
-3.275848
-3.989853
-4.728028
-5.292112
-5.645196
-5.782054
-5.768337
-5.713466
-5.592289
-5.346342
-5.097128
-4.924671
-4.836810
-4.773447
-4.618628
-4.271753
-3.737395
-2.980605
-1.966108
-0.730159
0.582548
1.838422
2.985855
3.896813
4.488003
4.915881
5.290846
5.523728
5.578273
5.470485
5.208856
4.876677
4.594471
4.325656
3.873932
3.274899
2.705262
2.252558
1.864198
1.494130
1.193960
0.997330
0.832709
0.692911
0.594269
0.409397
0.015485
-0.583547
-1.263583
-1.823748
-2.036382
-1.928924
-1.628104
-1.246607
-0.865763
-0.509089
-0.161888
0.207524
0.568770
0.849340
1.053806
1.183148
1.150811
1.004154
0.914984
0.925108
0.909102
0.827444
0.696465
0.462926
0.253231
0.267275
0.460962
0.737612
1.171369
1.635503
1.866425
1.740673
1.320958
0.840163
0.521375
0.499163
0.807169
1.266730
1.577676
1.598578
1.417626
1.052457
0.532141
0.037629
-0.200483
-0.129280
0.172520
0.517109
0.721248
0.672579
0.355424
-0.201147
-0.959573
-1.677171
-2.151759
-2.394117
-2.493413
-2.619492
-2.840946
-2.980090
-2.934037
-2.885698
-2.926854
-2.930122
-2.877537
-2.860881
-2.865782
-2.857291
-2.856313
-2.880811
-2.864808
-2.832800
-2.852726
-2.798508
-2.313144
-1.183021
0.341339
1.796781
2.930823
3.610856
3.823487
3.793763
3.825444
4.081844
4.564595
5.265205
6.092546
6.832678
7.413743
7.905639
8.247615
8.346907
8.088218
7.391851
6.213058
4.790276
3.511535
2.557134
1.922172
1.475347
1.000758
0.356978
-0.545817
-1.734082
-3.061816
-4.294829
-5.383147
-6.314358
-6.961405
-7.370668
-7.770786
-8.292082
-8.760464
-9.001189
-9.007397
-8.746098
-8.210760
-7.479774
-6.656026
-5.708160
-4.719139
-3.822880
-3.000439
-2.253774
-1.676302
-1.237319
-0.798336
-0.352820
0.040109
0.437611
0.852423
1.214976
1.454718
1.610190
1.716668
1.881613
2.116128
2.246777
2.136049
1.878340
1.687263
1.602339
1.627160
1.805496
2.070715
2.290206
2.444371
2.593638
2.712201
2.662226
2.546925
2.559662
2.671040
2.737343
2.660912
2.402223
1.904770
1.195338
0.484599
-0.053681
-0.407091
-0.513573
-0.375739
-0.242150
-0.377375
-0.794151
-1.291276
-1.846541
-2.460272
-2.957398
-3.209228
-3.289906
-3.297746
-3.243201
-3.185064
-3.116147
-2.877385
-2.461266
-1.967410
-1.327552
-0.294764
1.144674
2.712148
4.116636
5.237940
6.120807
6.835462
7.469114
8.175604
8.956237
9.590543
10.022667
10.375747
10.688980
10.971836
11.289967
11.459158
11.160294
10.444003
9.632990
8.819037
7.951845
6.977520
5.711517
4.069896
2.267248
0.557688
-0.996071
-2.379005
-3.652846
-4.930933
-6.307661
-7.722931
-9.015064
-10.003761
-10.547594
-10.608348
-10.310140
-9.753245
-9.008214
-8.170421
-7.262403
-6.201525
-5.023715
-3.883794
-2.804624
-1.760078
-0.725329
0.278063
1.200125
1.924905
2.402104
2.715336
2.929601
3.055350
3.194491
3.406143
3.594931
3.747790
3.868967
3.942456
3.976750
3.876148
3.609293
3.318921
3.078197
2.776067
2.446826
2.211328
2.047360
1.938266
1.973866
2.172453
2.319760
2.250514
2.085240
2.043430
2.158727
2.201514
2.145006
2.111362
1.978750
1.489137
0.555640
-0.726041
-2.313116
-3.934486
-5.272673
-6.238833
-6.912989
-7.351649
-7.581268
-7.741643
-7.871315
-7.924556
-7.815465
-7.455852
-6.782351
-5.843958
-4.824561
-3.922423
-3.264274
-2.855340
-2.554520
-2.149506
-1.517160
-0.797933
-0.236465
0.218850
0.760393
1.387186
2.036516
2.725041
3.397235
3.862348
3.942043
3.686294
3.331250
3.132987
3.084645
2.976857
2.695957
2.234107
1.721957
1.268599
0.890365
0.576476
0.310928
0.077063
-0.036278
-0.091152
-0.155499
-0.181304
-0.108142
-0.056863
-0.143420
-0.291710
-0.525902
-0.833258
-1.060918
-1.134737
-1.055695
-1.027933
-1.235669
-1.713850
-2.339339
-3.025255
-3.847373
-4.723384
-5.412892
-5.744092
-5.820524
-5.821178
-5.854822
-5.864623
-5.616062
-5.039570
-4.347452
-3.722292
-3.210145
-2.778674
-2.441272
-2.069900
-1.480342
-0.689910
0.096276
0.775002
1.410614
1.999845
2.480963
2.916680
3.416742
4.092855
4.931955
5.792285
6.482769
6.828011
6.781955
6.435077
5.925213
5.311809
4.677174
4.023268
3.322328
2.626941
1.933187
1.179660
0.335658
-0.569423
-1.346140
-2.001026
-2.742467
-3.483582
-4.029375
-4.508863
-5.072947
-5.599795
-6.060012
-6.506837
-6.928186
-7.396895
-8.050148
-8.740309
-9.207058
-9.363187
-9.271080
-8.968300
-8.608687
-8.254626
-7.723861
-6.938002
-6.051868
-5.194478
-4.320429
-3.493742
-2.763735
-2.165686
-1.615976
-0.984611
-0.284001
0.554119
1.514723
2.366234
2.752957
2.654968
2.282614
1.843301
1.567627
1.597675
1.852115
2.212708
2.464535
2.322778
1.699574
0.868638
0.102046
-0.502866
-0.741958
-0.678920
-0.631235
-0.764173
-0.988566
-1.321399
-1.716618
-2.036059
-2.253920
-2.322513
-2.128499
-1.678737
-1.207091
-0.770068
-0.221992
0.341109
0.829739
1.129253
1.160935
1.086789
1.056085
0.955482
0.694834
0.368207
0.154592
0.123888
0.128785
0.008259
-0.114554
-0.154730
-0.196213
-0.228877
-0.217120
-0.125667
0.152943
0.639940
1.206307
1.649863
1.868374
1.765159
1.407829
0.911683
0.356092
-0.036187
-0.065258
0.314932
0.784292
0.961321
0.682055
0.141814
-0.391893
-0.835779
-1.152934
-1.299590
-1.293713
-1.186581
-0.924629
-0.599638
-0.368062
-0.149224
0.086924
0.188177
0.181316
0.163023
0.120887
0.019958
0.030735
0.274070
0.645115
0.918172
0.948873
0.788172
0.605913
0.552999
0.593172
0.691158
0.880273
1.198731
1.655352
2.176645
2.696304
3.101645
3.320156
3.407690
3.376006
3.186888
2.810941
2.397104
1.951259
1.445314
1.018087
0.804145
0.627439
0.390308
0.174407
-0.011771
-0.214934
-0.427569
-0.645756
-0.914571
-1.130145
-1.228134
-1.188614
-0.943647
-0.521648
0.021202
0.510812
0.863240
1.171573
1.494604
1.737938
1.734997
1.646480
1.679141
1.811096
2.100485
2.543714
2.829183
2.798805
2.710942
2.749482
2.952968
3.352756
3.849879
4.282656
4.661866
4.989144
5.059693
4.819949
4.443348
4.083405
3.756124
3.409573
2.920613
2.163167
1.221177
0.353658
-0.312006
-0.845060
-1.158622
-1.220683
-1.282743
-1.484599
-1.666531
-1.768440
-1.810576
-1.881782
-2.044770
-2.309665
-2.706843
-3.236631
-3.799735
-4.310906
-4.751852
-5.183979
-5.573645
-5.812736
-5.865324
-5.636035
-5.113109
-4.255392
-3.189941
-2.177730
-1.326219
-0.691587
-0.256197
0.042991
0.270647
0.550890
0.980401
1.598702
2.230067
2.825178
3.401344
3.763570
3.885726
3.883112
3.735149
3.572814
3.518266
3.510752
3.544393
3.773029
4.196661
4.414192
4.234547
3.896814
3.598277
3.400014
3.279487
3.201096
2.953512
2.449854
1.918106
1.508842
1.096639
0.569791
-0.023036
-0.654405
-1.210976
-1.539236
-1.621548
-1.620243
-1.550020
-1.271410
-0.859537
-0.450603
-0.020112
0.460353
0.936571
1.402011
1.967725
2.531805
2.831319
2.967847
3.039377
2.966538
2.763702
2.537022
2.262982
2.009519
1.794924
1.515658
1.162901
0.964311
1.150159
1.585549
2.088878
2.700972
3.319926
3.666148
3.640996
3.414970
3.191883
3.056005
3.056330
3.208536
3.460689
3.755304
3.965976
3.994391
3.798414
3.465254
3.160184
2.996217
2.958000
2.885161
2.761368
2.556899
2.183238
1.735106
1.305919
0.953162
0.778415
0.775801
0.973081
1.292193
1.678589
2.062046
2.416433
2.810995
3.166036
3.406757
3.574968
3.572026
3.318237
2.852141
2.305695
1.774273
1.314056
0.996248
0.858411
0.861349
1.016168
1.107621
0.937448
0.602982
0.274395
0.059474
-0.081304
-0.140751
-0.084246
-0.015003
0.079717
0.014390
-0.368743
-0.896898
-1.333598
-1.484501
-1.344707
-1.135341
-0.987708
-0.920425
-1.024620
-1.337202
-1.724908
-1.993396
-2.110330
-1.935586
-1.390123
-0.704211
0.109085
1.072629
1.992078
2.789369
3.542566
4.100441
4.300987
4.247093
3.922099
3.368794
2.701496
1.977366
1.174518
0.359260
-0.388388
-1.122970
-1.848407
-2.504273
-3.183002
-3.834295
-4.233106
-4.301046
-4.198161
-4.061633
-3.863373
-3.719006
-3.715088
-3.642252
-3.407410
-3.194778
-2.996844
-2.681326
-2.319099
-1.992802
-1.672057
-1.302972
-0.874768
-0.212373
0.685846
1.422712
1.728758
1.727777
1.618356
1.517100
1.554661
1.735610
1.853520
1.862011
1.831306
1.661133
1.317194
0.898459
0.502587
0.235079
0.053801
-0.183984
-0.508325
-0.725859
