EVENT_NAME: 202302060117
EVENT_ID: 13194
EVENT_DATE_YYYYMMDD: 2023/02/06
EVENT_TIME_HHMMSS: 01:17:32.00000
EVENT_LATITUDE_DEGREE: 37.288
EVENT_LONGITUDE_DEGREE: 37.043
EVENT_DEPTH_KM: 8.6
HYPOCENTER_REFERENCE: AFAD
MAGNITUDE_W: 7.7
MAGNITUDE_W_REFERENCE: AFAD
MAGNITUDE_L: 
MAGNITUDE_L_REFERENCE: 
FOCAL_MECHANISM: 
NETWORK: TK
STATION_CODE: 4210
STATION_NAME: 
STATION_LATITUDE_DEGREE: 38.30882
STATION_LONGITUDE_DEGREE: 32.85895
STATION_ELEVATION_M: 204.0
LOCATION: Kahramanmaras_Pazarck_Turkiye
SENSOR_DEPTH_M: 
VS30_M/S: None
SITE_CLASSIFICATION_EC8: unknown
MORPHOLOGIC_CLASSIFICATION: 
EPICENTRAL_DISTANCE_KM: 384.71
EARTHQUAKE_BACKAZIMUTH_DEGREE: 
DATE_TIME_FIRST_SAMPLE_YYYYMMDD_HHMMSS: 2023/02/06 01:18:01.0682120
DATE_TIME_FIRST_SAMPLE_PRECISION: millisecond
SAMPLING_INTERVAL_S: 0.01
NDATA: 21001
DURATION_S: 
STREAM: HNE
UNITS: cm/s^2
INSTRUMENT: sensor = ACEBOX/SARA | digitizer = 
INSTRUMENT_ANALOG/DIGITAL: 
INSTRUMENTAL_FREQUENCY_HZ: 
INSTRUMENTAL_DAMPING: 
FULL_SCALE_G: 
N_BIT_DIGITAL_CONVERTER: 
PGA_CM/S^2: 3.382
TIME_PGA_S: 
BASELINE_CORRECTION: BASELINE REMOVED
FILTER_TYPE: BUTTERWORTH
FILTER_ORDER: 
LOW_CUT_FREQUENCY_HZ: 
HIGH_CUT_FREQUENCY_HZ: 
LATE/NORMAL_TRIGGERED: 
DATABASE_VERSION: 
HEADER_FORMAT: DYNA 1.2
DATA_TYPE: Acceleration
PROCESSING: Automatic Paolucci et al., 2011
DATA_TIMESTAMP_YYYYMMDD_HHMMSS: 
DATA_LICENSE: U (unknown license)
DATA_CITATION: Turkish Accelerometric Archive v 1.0 - Disaster And Emergency Management Presidency, Earthquake Department
DATA_CREATOR: AFAD
ORIGINAL_DATA_MEDIATOR_CITATION: : AFAD - Disaster And Emergency Management Presidency
ORIGINAL_DATA_MEDIATOR: AFAD PROCESS SERVICE
ORIGINAL_DATA_CREATOR_CITATION: AFAD PROCESS SERVICE
ORIGINAL_DATA_CREATOR: network: TK
USER1: GuestUser
USER2: 
USER3: 
USER4: 
USER5: 
[...]
-0.626969
-0.634216
-0.640060
-0.643567
-0.624863
-0.608029
-0.609197
-0.607560
-0.586752
-0.567580
-0.561033
-0.525963
-0.473125
-0.466812
-0.467279
-0.445769
-0.467979
-0.480370
-0.448106
-0.465172
-0.494397
-0.496500
-0.518477
-0.528530
-0.528763
-0.552376
-0.569677
-0.569443
-0.554713
-0.548634
-0.548399
-0.507251
-0.458854
-0.444125
-0.420978
-0.381232
-0.339382
-0.295895
-0.269008
-0.241186
-0.200972
-0.174319
-0.146964
-0.110024
-0.089449
-0.082201
-0.066770
-0.049936
-0.046195
-0.045259
-0.046428
-0.052740
-0.054844
-0.069806
-0.100199
-0.131060
-0.161687
-0.175247
-0.187638
-0.213823
-0.218498
-0.223174
-0.239773
-0.232759
-0.237434
-0.245617
-0.232056
-0.263852
-0.290504
-0.273670
-0.300790
-0.320429
-0.310843
-0.322532
-0.332351
-0.357835
-0.369758
-0.368822
-0.404125
-0.412074
-0.403891
-0.406930
-0.389628
-0.384017
-0.380977
-0.356895
-0.338425
-0.325565
-0.294704
-0.255425
-0.224330
-0.181311
-0.147410
-0.108599
-0.056929
-0.034251
0.013445
0.051788
0.054828
0.107666
0.139463
0.149049
0.187392
0.218254
0.267352
0.288862
0.315047
0.393604
0.422595
0.473563
0.563809
0.605660
0.673929
0.745004
0.793166
0.875463
0.934381
0.982777
1.048942
1.084480
1.117680
1.156257
1.182910
1.204654
1.204654
1.215409
1.222423
1.201382
1.217047
1.225464
1.190395
1.168886
1.131245
1.092669
1.085656
1.041702
0.974135
0.936728
0.898853
0.860043
0.836664
0.802530
0.765824
0.719767
0.674177
0.662020
0.605208
0.531562
0.534368
0.520107
0.473581
0.446461
0.403677
0.367906
0.350138
0.317407
0.279766
0.246334
0.216408
0.202147
0.175728
0.125930
0.118682
0.114942
0.076366
0.067248
0.032647
-0.012242
-0.004058
-0.028139
-0.065079
-0.074898
-0.108330
-0.153219
-0.166311
-0.157894
-0.194366
-0.219382
-0.200444
-0.236448
-0.251878
-0.233408
-0.263567
-0.257254
-0.236680
-0.250707
-0.228963
-0.207454
-0.216571
-0.198101
-0.161160
-0.159991
-0.147599
-0.110659
-0.112996
-0.098267
-0.066704
-0.081199
-0.063430
-0.037244
-0.062260
-0.061558
-0.052673
-0.064830
-0.059219
-0.080260
-0.112991
-0.108081
-0.126317
-0.174011
-0.201832
-0.205105
-0.231758
-0.297922
-0.319898
-0.323171
-0.374372
-0.408506
-0.433054
-0.476073
-0.498984
-0.523766
-0.581981
-0.636456
-0.653990
-0.689994
-0.754990
-0.798008
-0.828167
-0.853885
-0.880069
-0.904851
-0.939687
-0.990187
-0.996966
-0.996498
-1.012396
-0.997433
-1.000004
-0.992756
-0.933371
-0.882169
-0.841020
-0.779531
-0.712898
-0.658189
-0.549941
-0.423690
-0.373657
-0.273357
-0.147808
-0.105022
-0.009866
0.100954
0.141401
0.210138
0.295942
0.344573
0.363277
0.384319
0.407465
0.420091
0.455629
0.455863
0.425703
0.441836
0.441836
0.431316
0.417990
0.399053
0.421030
0.400456
0.386663
0.422434
0.396951
0.403731
0.448621
0.445816
0.457740
0.474807
0.513852
0.562015
0.558742
0.588201
0.642676
0.652496
0.680085
0.721701
0.724741
0.753264
0.806337
0.805636
0.807039
0.824341
0.792778
0.778050
0.791376
0.760282
0.742981
0.739241
0.693885
0.684533
0.659050
0.588911
0.600134
0.573715
0.475053
0.439049
0.413799
0.397200
0.356754
0.275159
0.249675
0.211801
0.172991
0.160132
0.126466
0.124830
0.087656
0.039261
0.047678
0.015181
-0.004224
-0.019654
-0.066180
-0.042332
-0.054489
-0.128836
-0.127666
-0.132576
-0.196870
-0.233575
-0.273554
-0.334107
-0.352577
-0.390218
-0.469708
-0.495893
-0.496594
-0.517402
-0.512024
-0.491683
-0.487708
-0.451469
-0.386005
-0.328725
-0.235673
-0.168573
-0.129996
-0.015434
0.064057
0.120636
0.227950
0.286867
0.356773
0.431121
0.474374
0.543345
0.552931
0.565556
0.629149
0.637800
0.656738
0.673105
0.638269
0.631022
0.645752
0.667729
0.663054
0.611151
0.630323
0.680823
0.645521
0.613257
0.614426
0.595957
0.571876
0.539613
0.514597
0.483035
0.421312
0.370579
0.315169
0.258591
0.211364
0.140524
0.073191
0.009131
-0.059605
-0.109637
-0.173697
-0.264176
-0.342264
-0.395102
-0.457525
-0.522754
-0.569046
-0.636613
-0.694594
-0.718207
-0.773850
-0.840248
-0.866199
-0.878356
-0.885837
-0.881862
-0.894253
-0.925348
-0.934699
-0.930257
-0.941011
-0.967430
-0.998524
-1.010915
-1.035697
-1.084326
-1.088768
-1.085728
-1.119395
-1.125473
-1.116354
-1.121030
-1.112145
-1.119392
-1.154929
-1.160774
-1.129211
-1.125937
-1.142069
-1.115415
-1.088762
-1.084787
-1.057432
-1.048080
-1.057431
-1.015581
-0.960872
-0.944974
-0.938661
-0.920190
-0.894472
-0.873196
-0.851920
-0.821994
-0.797444
-0.773129
-0.742034
-0.723095
-0.701820
-0.669555
-0.643603
-0.626535
-0.617885
-0.602921
-0.585386
-0.563876
-0.540963
-0.554991
-0.559666
-0.554756
-0.583279
-0.577200
-0.583044
-0.632609
-0.629569
-0.620451
-0.650610
-0.688485
-0.706487
-0.699005
-0.735477
-0.774053
-0.764700
-0.784806
-0.800470
-0.789014
-0.790884
-0.771946
-0.747864
-0.724250
-0.682400
-0.650136
-0.601505
-0.553343
-0.530664
-0.464499
-0.393892
-0.387813
-0.374486
-0.338714
-0.330063
-0.316970
-0.305280
-0.312060
-0.312994
-0.338945
-0.352038
-0.341750
-0.383833
-0.416564
-0.445087
-0.506342
-0.540008
-0.598691
-0.671401
-0.733357
-0.818225
-0.851891
-0.904495
-1.010405
-1.060905
-1.111171
-1.157696
-1.171723
-1.228302
-1.276464
-1.298908
-1.339588
-1.369514
-1.411597
-1.454147
-1.486411
-1.560290
-1.618505
-1.666901
-1.737507
-1.754107
-1.794085
-1.878486
-1.896488
-1.907710
-1.950026
-1.976913
-1.979250
-1.973872
-1.977379
-1.938334
-1.891107
-1.892042
-1.851127
-1.777012
-1.735162
-1.678583
-1.595351
-1.527081
-1.476347
-1.415793
-1.350563
-1.282528
-1.184332
-1.103204
-1.051768
-0.968770
-0.894188
-0.828958
-0.722113
-0.635140
-0.572715
-0.487846
-0.420045
-0.373519
-0.313199
-0.256619
-0.199105
-0.119613
-0.056955
-0.000376
0.089403
0.170297
0.250256
0.347517
0.421163
0.499252
0.593706
0.665716
0.720893
0.778875
0.832415
0.872629
0.913777
0.922195
0.905362
0.946510
0.979243
0.954227
0.943239
0.939031
0.914950
0.881985
0.855800
0.822601
0.755268
0.708509
0.683727
0.644450
0.605874
0.553036
0.531527
0.524280
0.461389
0.433567
0.436841
0.412059
0.395693
0.369742
0.379095
0.387512
0.310593
0.298904
0.347768
0.343793
0.348704
0.350341
0.370448
0.415337
0.384243
0.379100
0.424690
0.388686
0.364605
0.394298
0.359463
0.309898
0.317146
0.306626
0.258932
0.239293
0.211706
0.154426
0.141100
0.114681
0.038464
0.015552
0.007136
-0.050378
-0.095033
-0.118646
-0.156755
-0.211696
-0.267340
-0.324620
-0.376756
-0.410890
-0.470040
-0.545556
-0.582496
-0.627618
-0.693782
-0.741243
-0.800627
-0.850893
-0.874740
-0.940436
-0.997950
-1.005899
-1.036993
-1.065049
-1.077206
-1.119990
-1.126302
-1.115781
-1.177970
-1.217248
-1.200414
-1.226599
-1.248575
-1.232911
-1.254186
-1.285514
-1.292761
-1.315439
-1.345599
-1.353080
-1.357989
-1.381368
-1.393759
-1.389784
-1.383705
-1.378561
-1.391653
-1.385574
-1.353777
-1.354244
-1.347931
-1.305380
-1.287844
-1.293221
-1.267737
-1.219808
-1.203208
-1.200870
-1.174216
-1.172346
-1.173047
-1.146393
-1.166733
-1.169538
-1.130961
-1.169304
-1.196891
-1.171173
-1.182862
-1.177251
-1.151533
-1.155974
-1.161585
-1.141946
-1.103135
-1.092146
-1.073208
-1.011485
-0.963556
-0.899262
-0.825849
-0.769503
-0.665931
-0.559786
-0.485906
-0.366902
-0.233404
-0.143625
-0.039117
0.109578
0.221100
0.306670
0.443910
0.568524
0.665316
0.787827
0.885554
0.979074
1.095271
1.180374
1.267581
1.364140
1.442930
1.531539
1.613135
1.677430
1.751310
1.816306
1.850441
1.876393
1.921516
1.968510
1.987682
1.992124
2.018778
2.052912
2.045665
2.031404
2.045198
2.043796
2.025093
2.005922
1.981374
1.977633
1.966178
1.918250
1.908664
1.894403
1.828707
1.816316
1.785455
1.702457
1.688664
1.653828
1.579715
1.546516
1.489938
1.423306
1.387769
1.350596
1.283263
1.219203
1.190212
1.116099
1.038713
1.009021
0.941454
0.881836
0.831336
0.756989
0.737351
0.711400
0.640092
0.602217
0.584917
0.554523
0.516649
0.483450
0.473163
0.477138
0.453291
0.415417
0.415651
0.416587
0.381284
0.357671
0.352528
0.308340
0.255736
0.246385
0.204769
0.153101
0.140242
0.081326
0.024981
-0.018739
-0.100333
-0.146859
-0.201567
-0.262821
-0.305606
-0.406839
-0.450559
-0.446584
-0.523970
-0.581952
-0.628243
-0.690433
-0.686458
-0.702356
-0.762207
-0.783716
-0.787223
-0.791898
-0.803354
-0.793300
-0.768985
-0.796572
-0.787921
-0.751449
-0.777633
-0.764774
-0.757526
-0.784880
-0.742328
-0.731573
-0.743496
-0.727364
-0.761498
-0.758926
-0.718478
-0.705619
-0.675926
-0.653949
-0.632205
-0.600642
-0.559494
-0.487016
-0.439321
-0.391860
-0.325461
-0.289455
-0.244800
-0.188454
-0.133979
-0.084180
-0.056357
-0.010299
0.034824
0.060075
0.104497
0.141671
0.163415
0.195212
0.231217
0.260676
0.291771
0.316554
0.312814
0.324972
0.357704
0.353496
0.349054
0.370564
0.388333
0.411246
0.426443
0.421066
0.435328
0.462917
0.468762
0.482790
0.512717
0.536798
0.538903
0.538202
0.577013
0.582157
0.559713
0.591276
0.570702
0.532360
0.573275
0.562988
0.522541
0.532829
0.518802
0.498228
0.501268
0.502437
0.516699
0.524415
0.515765
0.537742
0.561122
0.558317
0.583100
0.616300
0.627990
0.659086
0.705846
0.733902
0.760555
0.827889
0.905744
0.955309
1.016331
1.090913
1.162221
1.244752
1.321204
1.400462
1.493046
1.569498
1.634728
1.717727
1.807973
1.890270
1.981218
2.059774
2.113782
2.194442
2.262010
2.274402
2.316953
2.372597
2.378209
2.397147
2.385925
2.333087
2.354831
2.345479
2.266690
2.247519
2.216425
2.162886
2.141143
2.073342
1.997592
1.972810
1.924648
1.856380
1.820376
1.760992
1.679397
1.633339
1.576059
1.510363
1.447238
1.351148
1.293166
1.255759
1.173229
1.099817
1.016352
0.929146
0.880984
0.795415
0.701897
0.660281
0.579388
0.477920
0.436539
0.386740
0.296495
0.250437
0.233604
0.181468
0.141489
0.123721
0.106654
0.105252
0.091458
0.104785
0.137517
0.138453
0.192227
0.231505
0.195033
0.222388
0.272421
0.268914
0.277565
0.285749
0.271487
0.266578
0.275463
0.283412
0.285049
0.290427
0.298844
0.308898
0.314510
0.311938
0.321992
0.347243
0.375532
0.394003
0.395172
0.409902
0.440530
0.448012
0.452688
0.478173
0.507164
0.540597
0.574031
0.619855
0.684384
0.735118
0.798945
0.882412
0.948109
1.027834
1.131173
1.219549
1.293897
1.375960
1.467609
1.549906
1.627294
1.705616
1.772716
1.850571
1.925387
1.967003
2.035039
2.108218
2.124350
2.171344
2.243354
2.259954
2.289179
2.331497
2.337576
2.351838
2.366100
2.364464
2.371011
2.368206
2.360023
2.360725
2.349737
2.339216
2.332203
2.302745
2.286613
2.301577
2.292693
2.269781
2.265106
2.253884
2.235882
2.210399
2.173225
2.157795
2.154289
2.118284
2.069187
2.038093
2.008635
1.963980
1.899686
1.824638
1.755902
1.694881
1.621235
1.540576
1.492180
1.423210
1.319872
1.274282
1.217938
1.125588
1.088649
1.048436
0.990221
0.957723
0.929434
0.903951
0.873558
0.861868
0.864207
0.851115
0.858830
0.850180
0.827736
0.878938
0.923126
0.896006
0.897877
0.925699
0.933181
0.949080
0.949548
0.955393
0.974098
0.974098
0.986490
0.963578
0.940433
0.968723
0.929679
0.899286
0.928511
0.886428
0.856268
0.875908
0.843878
0.803665
0.809277
0.816057
0.787067
0.767195
0.766727
0.737503
0.719501
0.709215
0.655909
0.632062
0.624581
0.576186
0.564029
0.573381
0.553743
0.553509
0.568005
0.568707
0.572448
0.602842
0.629963
0.631366
0.662929
0.706884
0.710625
0.723484
0.761126
0.791520
0.817472
0.815368
0.810927
0.853244
0.856284
0.827761
0.852544
0.844829
0.820749
0.816775
0.763002
0.731907
0.705488
0.639090
0.600982
0.539961
0.480811
0.454159
0.395944
0.344742
0.280215
0.216389
0.201660
0.143211
0.085230
0.078918
0.034497
-0.012263
-0.015068
-0.043824
-0.091752
-0.103675
-0.121677
-0.171943
-0.196024
-0.199531
-0.250030
-0.317597
-0.334664
-0.381657
-0.473071
-0.478448
-0.491306
-0.578980
-0.615920
-0.632519
-0.636960
-0.629011
-0.683953
-0.705228
-0.703591
-0.730243
-0.708266
-0.733048
-0.790328
-0.766013
-0.766012
-0.798276
-0.791963
-0.802249
-0.835682
-0.838955
-0.826563
-0.837083
-0.857657
-0.884310
-0.893895
-0.874957
-0.880801
-0.893192
-0.902310
-0.917272
-0.898334
-0.876824
-0.879863
-0.878694
-0.838013
-0.787746
-0.783537
-0.744960
-0.690485
-0.680431
-0.614032
-0.535944
-0.502510
-0.442891
-0.375324
-0.311029
-0.251644
-0.194597
-0.111832
-0.067177
-0.034678
0.046216
0.078948
0.103497
0.179716
0.198654
0.226476
0.301759
0.298486
0.301059
0.358106
0.374706
0.390604
0.440403
0.475240
0.486696
0.517558
0.566656
0.591205
0.606168
0.622768
0.641005
0.657605
0.650358
0.630953
0.600326
0.575310
0.565257
0.537202
0.516161
0.495353
0.465428
0.456778
0.434567
0.409084
0.413293
0.419606
0.423814
0.424750
0.415632
0.408151
0.438078
0.479460
0.460523
0.455380
0.500971
0.491386
0.468942
0.482269
0.451642
0.422651
0.422652
0.372152
0.323055
0.283076
0.201014
0.147241
0.091597
0.001586
-0.063409
-0.149212
-0.238523
-0.309129
-0.392360
-0.465071
-0.567006
-0.662862
-0.723182
-0.829325
-0.921441
-0.984566
-1.069434
-1.147288
-1.237065
-1.318660
-1.390435
-1.487461
-1.569757
-1.640130
-1.733181
-1.841428
-1.934245
-2.029868
-2.145363
-2.225555
-2.312527
-2.426620
-2.520139
-2.621840
-2.716294
-2.813085
-2.915956
-2.990536
-3.075872
-3.140166
-3.174767
-3.227138
-3.279508
-3.317149
-3.335618
-3.365544
-3.381675
-3.358763
-3.366711
-3.359697
-3.330940
-3.336316
-3.311300
-3.263605
-3.232275
-3.198140
-3.149043
-3.083813
-3.043132
-2.989124
-2.915711
-2.887421
-2.824062
-2.730776
-2.682380
-2.604992
-2.525968
-2.487158
-2.408835
-2.313212
-2.265984
-2.218757
-2.122198
-2.052994
-2.027042
-1.958539
-1.900089
-1.872033
-1.811713
-1.786930
-1.789969
-1.741104
-1.705333
-1.712814
-1.692473
-1.653662
-1.636829
-1.621164
-1.587263
-1.555700
-1.552426
-1.523902
-1.476441
-1.481584
-1.447449
-1.397884
-1.411677
-1.361644
-1.307403
-1.307870
-1.259240
-1.231184
-1.235859
-1.206634
-1.169460
-1.149587
-1.132052
-1.085993
-1.076173
-1.070795
-1.017957
-1.033621
-1.036192
-0.983353
-0.983353
-0.972364
-0.955296
-0.948983
-0.937994
-0.941735
-0.891234
-0.879310
-0.910405
-0.867619
-0.869489
-0.879542
-0.851252
-0.890530
-0.913675
-0.913207
-0.933079
-0.952484
-0.988255
-0.992696
-1.011867
-1.059562
-1.055353
-1.073355
-1.106320
-1.084576
-1.083874
-1.102344
-1.079197
-1.070780
-1.076157
-1.025423
-0.988950
-0.977961
-0.933305
-0.913900
-0.893559
-0.830199
-0.790220
-0.763099
-0.711897
-0.666539
-0.661396
-0.650640
-0.608089
-0.609725
-0.623752
-0.598502
-0.627960
-0.683369
-0.680797
-0.723114
-0.796526
-0.811255
-0.863859
-0.925113
-0.937504
-0.983795
-1.031957
-1.070066
-1.110278
-1.126410
-1.154933
-1.164986
-1.179013
-1.218057
-1.206366
-1.207301
-1.240734
-1.224835
-1.204027
-1.215950
-1.218755
-1.201921
-1.196777
-1.195140
-1.178540
-1.176435
-1.177136
-1.161238
-1.166848
-1.179239
-1.185318
-1.211736
-1.235115
-1.246571
-1.265274
-1.290056
-1.326295
-1.352246
-1.357155
-1.347101
-1.342659
-1.366038
-1.358790
-1.319979
-1.287948
-1.249839
-1.211262
-1.150240
-1.100909
-1.058825
-0.965773
-0.923455
-0.884177
-0.779903
-0.737118
-0.697138
-0.614841
-0.561067
-0.512670
-0.464508
-0.400681
-0.360233
-0.359531
-0.323292
-0.304354
-0.312771
-0.303652
-0.297339
-0.275829
-0.301780
-0.352280
-0.321185
-0.337316
-0.401844
-0.392725
-0.417741
-0.470579
-0.456083
-0.439015
-0.429897
-0.414232
-0.395294
-0.342222
-0.302008
-0.260859
-0.176224
-0.120580
-0.076158
-0.012565
0.047755
0.131221
0.192477
0.231288
0.300726
0.364553
0.418560
0.466957
0.514886
0.561412
0.581753
0.616589
0.643710
0.646516
0.656570
0.642776
0.637165
0.623839
0.579184
0.568196
0.534764
0.473509
0.450364
0.418802
0.380226
0.341883
0.294423
0.274551
0.275019
0.271045
0.261693
0.272448
0.295595
0.299336
0.332302
0.391219
0.416236
0.450371
0.504144
0.522147
0.543189
0.598834
0.636709
0.662895
0.697264
0.712461
0.732100
0.732568
0.715502
0.749870
0.737713
0.675757
0.680901
0.652612
0.579902
0.560029
0.536650
0.475162
0.405725
0.354991
0.294672
0.203725
0.138964
0.086360
0.043108
-0.006223
-0.117043
-0.177596
-0.201910
-0.299403
-0.355514
-0.364164
-0.405780
-0.430328
-0.434068
-0.434301
-0.431729
-0.424715
-0.398997
-0.382163
-0.366264
-0.350833
-0.355509
-0.345455
-0.336103
-0.350598
-0.349896
-0.344050
-0.354571
-0.355506
-0.355973
-0.381222
-0.414421
-0.442710
-0.474506
-0.493210
-0.499054
-0.527577
-0.550489
-0.545812
-0.563814
-0.583453
-0.570360
-0.538796
-0.488763
-0.455564
-0.435924
-0.379579
-0.308270
-0.240468
-0.152560
-0.050858
0.031673
0.124491
0.238584
0.322752
0.433572
0.575955
0.652875
0.729093
0.854643
0.941148
0.983232
1.046592
1.111120
1.138007
1.176584
1.204407
1.191081
1.219370
1.244153
1.224281
1.233633
1.245791
1.232232
1.221477
1.237376
1.254911
1.239715
1.265901
1.297931
1.271980
1.279930
1.302375
1.329028
1.381633
1.373217
1.379062
1.437979
1.452943
1.482168
1.531266
1.552074
1.589482
1.613330
1.639983
1.706382
1.725788
1.734672
1.773717
1.780264
1.814165
1.852976
1.830765
1.839884
1.861160
1.853211
1.859524
1.859057
1.866539
1.873320
1.861163
1.877996
1.891089
1.898805
1.929199
1.940422
1.963802
2.022018
2.074623
2.108290
2.152011
2.242023
2.320579
2.374119
2.461794
2.528427
2.563497
2.624986
2.701438
2.771110
2.824650
2.887308
2.938744
2.938744
2.967268
3.035537
3.051202
3.019874
2.992754
2.977323
2.939215
2.852009
2.773454
2.708692
2.594600
2.487521
2.387456
2.224967
2.089599
1.984625
1.825643
1.679286
1.565895
1.427488
1.282300
1.179897
1.099238
0.993328
0.897004
0.816578
0.734749
0.682613
0.629775
0.568287
0.529243
0.495109
0.458170
0.426140
0.405800
0.386629
0.366523
0.363718
0.341742
0.299658
0.279319
0.255472
0.209414
0.168500
0.116364
0.041549
0.000167
-0.031161
-0.103872
-0.166061
-0.209080
-0.238304
-0.252097
-0.289037
-0.302129
-0.294180
-0.309376
-0.295348
-0.274773
-0.282488
-0.277344
-0.261679
-0.234558
-0.195747
-0.170731
-0.142674
-0.102227
-0.066690
-0.036529
-0.015955
0.008127
0.041560
0.063538
0.091594
0.111000
0.121755
0.168281
0.198675
0.223925
0.284245
0.323758
0.365140
0.408393
0.445334
0.516408
0.558726
0.574157
0.616943
0.639388
0.635180
0.643597
0.650144
0.635415
0.632376
0.640092
0.638455
0.657160
0.660199
0.639392
0.645705
0.649680
0.655291
0.658799
0.640797
0.648279
0.631446
0.584453
0.585389
0.577440
0.537461
0.515718
0.489300
0.438800
0.399523
0.371000
0.334528
0.313253
0.280522
0.228619
0.221138
0.216229
0.190745
0.184433
0.173211
0.169237
0.183265
0.189812
0.185604
0.178825
0.204075
0.208752
0.168539
0.176255
0.188179
0.155681
0.147499
0.138615
0.118976
0.103312
0.070114
0.049774
0.003716
-0.066656
-0.081853
-0.108271
-0.162746
-0.211843
-0.282917
-0.313310
-0.328506
-0.385786
-0.413374
-0.433246
-0.465743
-0.476264
-0.492395
-0.489356
-0.480705
-0.489355
-0.454285
-0.433944
-0.436749
-0.372688
-0.327097
-0.302314
-0.213705
-0.151047
-0.105456
-0.007027
0.069893
