EVENT_NAME: 202302060117
EVENT_ID: 13194
EVENT_DATE_YYYYMMDD: 2023/02/06
EVENT_TIME_HHMMSS: 01:17:32.00000
EVENT_LATITUDE_DEGREE: 37.288
EVENT_LONGITUDE_DEGREE: 37.043
EVENT_DEPTH_KM: 8.6
HYPOCENTER_REFERENCE: AFAD
MAGNITUDE_W: 7.7
MAGNITUDE_W_REFERENCE: AFAD
MAGNITUDE_L: 
MAGNITUDE_L_REFERENCE: 
FOCAL_MECHANISM: 
NETWORK: TK
STATION_CODE: 2103
STATION_NAME: 
STATION_LATITUDE_DEGREE: 37.94406
STATION_LONGITUDE_DEGREE: 40.31274
STATION_ELEVATION_M: 730.0
LOCATION: Kahramanmaras_Pazarck_Turkiye
SENSOR_DEPTH_M: 
VS30_M/S: None
SITE_CLASSIFICATION_EC8: unknown
MORPHOLOGIC_CLASSIFICATION: 
EPICENTRAL_DISTANCE_KM: 297.07
EARTHQUAKE_BACKAZIMUTH_DEGREE: 
DATE_TIME_FIRST_SAMPLE_YYYYMMDD_HHMMSS: 2023/02/06 01:18:00.7020370
DATE_TIME_FIRST_SAMPLE_PRECISION: millisecond
SAMPLING_INTERVAL_S: 0.01
NDATA: 18251
DURATION_S: 
STREAM: HNN
UNITS: cm/s^2
INSTRUMENT: sensor = GMS+/GEOSIG | digitizer = 
INSTRUMENT_ANALOG/DIGITAL: 
INSTRUMENTAL_FREQUENCY_HZ: 
INSTRUMENTAL_DAMPING: 
FULL_SCALE_G: 
N_BIT_DIGITAL_CONVERTER: 
PGA_CM/S^2: 53.731
TIME_PGA_S: 
BASELINE_CORRECTION: BASELINE REMOVED
FILTER_TYPE: BUTTERWORTH
FILTER_ORDER: 
LOW_CUT_FREQUENCY_HZ: 
HIGH_CUT_FREQUENCY_HZ: 
LATE/NORMAL_TRIGGERED: 
DATABASE_VERSION: 
HEADER_FORMAT: DYNA 1.2
DATA_TYPE: Acceleration
PROCESSING: Automatic Paolucci et al., 2011
DATA_TIMESTAMP_YYYYMMDD_HHMMSS: 
DATA_LICENSE: U (unknown license)
DATA_CITATION: Turkish Accelerometric Archive v 1.0 - Disaster And Emergency Management Presidency, Earthquake Department
DATA_CREATOR: AFAD
ORIGINAL_DATA_MEDIATOR_CITATION: : AFAD - Disaster And Emergency Management Presidency
ORIGINAL_DATA_MEDIATOR: AFAD PROCESS SERVICE
ORIGINAL_DATA_CREATOR_CITATION: AFAD PROCESS SERVICE
ORIGINAL_DATA_CREATOR: network: TK
USER1: GuestUser
USER2: 
USER3: 
USER4: 
USER5: 
[...]
0.577297
-0.258899
-0.966510
-0.892998
-0.240724
0.324268
0.459085
0.141905
-0.664937
-2.024825
-3.792809
-5.455586
-6.309966
-6.134366
-5.516641
-5.057374
-4.712405
-4.122735
-3.058729
-1.704042
-0.401049
0.845314
2.234550
3.657556
4.428025
4.130328
3.402715
3.105797
3.427646
4.028746
4.487493
4.877922
5.795419
7.327787
8.789238
9.546199
9.568276
9.382279
9.419423
9.626975
9.769584
9.731655
9.721261
10.010120
10.448606
10.614075
10.256631
9.425890
8.357462
7.466195
6.890287
6.163972
4.880196
2.986485
0.687536
-1.540237
-3.276009
-4.267027
-4.299501
-3.509549
-2.426840
-1.557399
-1.369071
-2.215138
-3.917660
-5.902290
-7.760673
-9.290189
-10.450056
-11.182864
-11.292749
-11.042596
-10.972721
-11.349907
-12.054141
-12.660962
-12.862545
-12.393926
-11.182112
-9.515964
-7.762533
-6.238737
-4.949772
-3.750427
-2.672133
-1.981933
-1.804254
-1.932842
-2.030258
-1.814654
-1.733350
-2.552920
-4.397795
-6.724799
-8.662411
-9.770844
-10.316619
-10.604705
-10.512231
-9.725397
-8.124970
-6.029425
-3.984794
-2.067450
0.103167
2.489652
4.658971
6.388243
7.678508
8.759918
9.833796
10.725316
11.047685
10.573086
9.545961
8.438048
7.482099
6.668503
5.646053
4.176283
2.730152
1.570805
0.369116
-0.865045
-1.641494
-1.549539
-0.462673
1.266079
3.003404
4.633704
6.334402
7.832221
8.656721
8.718283
8.271479
7.604652
6.970815
6.507386
6.144228
6.047591
6.745065
8.213790
9.721220
10.748339
11.359570
11.862998
12.419158
12.857903
12.884136
12.507210
11.934678
11.166282
9.873934
7.877874
5.790376
4.388145
3.673001
3.218145
2.734454
2.173092
1.733302
1.313774
0.401466
-1.026481
-2.517552
-3.735347
-4.540631
-4.970809
-5.154988
-5.119143
-4.819893
-4.418295
-4.306598
-4.714437
-5.337623
-5.824950
-6.233828
-6.675696
-7.089510
-7.240957
-7.047953
-6.700386
-6.333078
-5.874850
-5.132956
-4.159349
-3.055857
-1.818586
-0.652231
0.129408
0.215648
-0.406499
-1.275426
-1.722230
-1.453113
-0.930463
-0.587053
-0.289102
0.072751
0.277186
0.086253
-0.408608
-0.792548
-0.757222
-0.375626
0.223655
1.024517
1.947729
2.979784
4.018593
4.792439
5.247809
5.434319
5.381323
5.055831
4.201971
2.837407
1.356987
-0.176426
-2.011170
-4.136075
-6.304101
-8.192617
-9.270397
-9.117656
-7.840640
-5.818610
-3.499665
-1.251376
0.904954
2.866459
4.266085
4.947973
4.920435
4.240100
3.215832
2.141948
0.918438
-0.560424
-2.115138
-3.710895
-5.553172
-7.696520
-10.018329
-12.256233
-13.926284
-14.714942
-14.821450
-14.688712
-14.562208
-14.550781
-14.797823
-15.272162
-15.758970
-16.081605
-16.158759
-15.965755
-15.475056
-14.582756
-13.218978
-11.457235
-9.478326
-7.525653
-5.642339
-3.677197
-1.645036
0.329717
2.019764
3.197289
4.143361
5.303221
6.754542
8.206122
9.099721
9.238953
9.015809
8.930603
9.131920
9.308819
9.162566
8.673680
8.086602
7.680581
7.396912
6.995048
6.518111
6.379132
6.676303
6.757348
5.985574
4.469306
2.725741
1.112579
-0.302640
-1.717339
-3.248674
-4.457117
-4.901583
-4.819759
-4.710919
-4.840806
-5.059794
-5.100840
-5.098505
-5.347885
-5.788455
-6.098880
-6.000951
-5.400630
-4.553790
-3.869564
-3.397569
-2.752308
-1.718175
-0.508179
0.572452
1.375652
2.065073
2.846971
3.662380
4.292054
4.501164
4.345300
4.271264
4.571552
4.887947
4.569728
3.572736
2.472875
1.748639
1.538224
1.634595
1.644983
1.464441
1.165185
0.313923
-1.658758
-4.743765
-8.514559
-12.429524
-16.158496
-19.638350
-22.790637
-25.438194
-27.379703
-28.470731
-28.614386
-27.746764
-25.880075
-23.076143
-19.415756
-15.040747
-10.295830
-5.796392
-2.103535
0.769755
3.177541
5.514410
8.261973
11.430359
14.452236
16.835085
18.417068
19.241828
19.280531
18.605910
17.502673
16.309296
15.348671
14.678207
14.010341
13.074134
12.019474
11.178082
10.614383
10.143680
9.698175
9.350863
9.128239
9.072385
8.875219
8.248136
7.452983
6.663545
5.742665
4.273415
1.854453
-1.435511
-5.067849
-8.349500
-10.924323
-12.661134
-13.436284
-13.252632
-12.376437
-11.505438
-11.346464
-12.043424
-13.305120
-14.779825
-16.216345
-17.755992
-19.695423
-22.147635
-25.115227
-28.125161
-30.502560
-31.776205
-31.654896
-30.134997
-27.476016
-24.261910
-21.008060
-17.840713
-14.761687
-11.854627
-9.256951
-6.930992
-4.602954
-1.989173
1.065176
4.486316
7.854984
10.579426
12.370783
13.344130
13.485961
12.707433
11.294033
9.844005
9.014044
9.128339
10.115973
11.807319
13.876368
15.787997
17.062675
17.330233
16.429615
14.785021
13.227190
12.070960
11.050588
10.067623
9.302604
9.170639
9.885517
10.849773
11.247215
10.857040
9.972268
9.000992
8.154925
7.404193
6.861275
6.819969
7.305992
7.911248
8.145036
8.101132
8.258808
8.648457
8.866659
8.430506
7.338438
6.340407
5.877498
5.467061
4.433701
2.735336
0.797984
-1.099364
-2.955409
-4.966016
-6.980779
-8.431326
-8.911900
-8.490559
-7.570724
-6.353454
-4.703152
-2.375634
0.669882
4.101933
7.615291
11.120856
14.439908
17.250074
19.092865
19.552391
18.717754
17.192913
15.521563
13.976720
12.841532
12.218345
11.988707
12.157294
12.618898
12.950619
12.856320
12.346133
11.662940
11.218994
11.429403
12.519646
14.413091
16.864778
19.415696
21.697754
23.541324
24.724304
25.457366
26.204975
27.240148
28.631462
29.894710
30.535295
30.650888
30.646469
30.894545
31.213796
31.129888
30.393184
29.019528
27.460138
26.039984
24.623986
23.035502
21.212967
19.450958
17.842472
16.039160
13.980237
11.879750
9.973310
8.114148
6.082241
3.708998
0.812063
-2.200209
-4.936347
-7.282834
-9.194209
-10.865559
-12.421312
-13.659109
-14.261514
-14.206706
-13.894988
-13.941489
-14.607797
-15.677005
-16.859212
-18.039860
-19.503136
-21.740779
-24.801368
-28.058861
-30.746942
-32.474922
-33.309559
-33.451655
-32.759117
-31.100242
-28.706224
-25.857871
-22.840930
-19.704755
-16.262053
-12.696482
-9.386782
-6.582850
-4.506268
-3.112097
-2.062377
-1.120462
-0.185560
0.977937
2.644865
4.769764
6.975970
8.746285
9.771586
10.035507
9.698325
9.088128
8.249594
6.998808
5.301222
3.227232
0.965949
-1.464183
-4.132522
-6.867881
-9.492320
-11.964534
-14.320113
-16.593345
-18.587067
-19.890845
-20.326998
-19.944363
-18.925296
-17.966236
-17.765439
-18.502144
-20.186742
-22.441530
-24.672420
-26.594446
-27.990442
-28.658308
-28.821186
-29.030562
-29.564388
-30.415390
-31.381990
-32.090640
-32.361581
-32.268067
-31.898161
-31.307711
-30.565557
-29.420763
-27.348338
-24.114750
-19.842090
-14.931959
-9.965460
-5.400041
-1.490277
1.475230
3.215932
3.812097
3.701952
3.425036
3.311255
3.401132
3.590759
3.826106
4.424348
5.889696
8.366321
11.521719
14.834276
17.911224
20.423437
21.968793
22.291941
21.549781
20.194829
18.648427
17.338415
16.720943
17.118385
18.586591
20.641871
22.424136
23.160835
22.306715
19.764623
15.786794
10.735084
5.442569
0.893511
-2.469448
-4.817753
-6.475595
-7.572598
-8.316057
-8.805722
-9.162387
-9.655429
-10.197308
-10.611901
-11.166768
-12.204024
-13.549365
-14.945361
-16.250698
-17.111832
-17.466678
-17.730345
-18.064929
-18.275864
-18.257683
-17.962070
-17.242516
-16.092007
-14.797586
-13.668898
-13.030651
-12.990390
-13.151189
-13.230681
-13.219774
-13.008586
-12.378132
-11.138782
-9.368986
-7.545938
-6.215929
-5.443123
-4.912680
-4.244819
-3.246534
-2.324361
-2.055764
-2.417624
-3.045226
-3.675166
-4.077550
-4.167433
-3.859611
-3.006016
-1.932658
-1.349482
-1.615228
-2.463373
-3.378798
-3.952109
-4.013677
-3.652863
-3.017733
-2.220508
-1.247421
0.115059
2.046171
4.431877
6.910839
9.083535
10.579535
11.282984
11.281422
10.715645
9.964652
9.359390
8.996491
8.781401
8.452012
7.843113
7.091601
6.509198
6.330995
6.696745
7.398895
7.933234
8.055582
7.890626
7.473696
6.594898
5.161755
3.368834
1.629425
0.497093
0.505923
1.538237
2.926694
4.321125
5.691658
6.990494
7.982545
8.399989
8.356085
8.162555
7.949023
7.801212
7.752892
7.747694
7.891602
8.449321
9.443450
10.556552
11.549642
12.475712
13.658432
15.179630
16.593544
17.334139
16.984748
15.498093
13.270321
10.896039
8.796851
7.227590
6.413474
6.295017
6.435549
6.277607
5.441151
3.965666
2.312500
1.156790
0.984041
1.840233
3.432088
5.274878
7.040518
8.737839
10.481658
12.262624
14.120481
16.278370
18.764606
21.335526
23.796824
26.069530
28.082989
29.935391
31.610891
32.646323
32.544750
31.081994
28.492105
25.513863
23.025023
21.393678
20.278491
19.117585
17.494552
15.367050
13.089142
11.002683
9.150275
7.574260
6.388936
5.517931
4.977351
4.870064
5.368036
6.740906
8.596945
9.876299
9.851878
8.571998
6.257983
3.315848
0.482556
-1.774570
-3.053151
-3.171608
-2.442702
-1.350121
-0.447431
0.008459
0.206139
0.421224
0.674235
0.732160
0.325620
-0.377315
-0.990630
-1.444188
-1.658239
-1.707598
-1.841641
-1.994648
-1.975948
-1.629940
-0.903632
0.048415
0.987473
1.627798
1.707544
1.062277
-0.124086
-1.243689
-1.641397
-0.862615
0.771062
2.381620
3.490307
3.940741
3.807477
3.317552
2.506294
1.448776
0.392556
-0.364670
-0.679512
-0.681593
-0.560544
-0.521582
-0.747324
-1.388174
-2.541287
-4.044827
-5.480567
-6.628225
-7.562093
-8.125533
-7.866547
-6.497054
-4.317864
-2.118412
-0.400310
0.963729
2.241005
3.501395
4.268487
3.994429
2.862357
1.542474
0.601072
-0.075107
-0.814670
-1.722302
-2.647598
-3.305593
-3.649269
-3.764609
-3.892418
-4.224664
-4.832524
-5.864325
-7.506062
-9.594599
-11.508312
-12.859888
-13.866232
-15.146371
-17.207113
-20.066381
-23.264647
-26.078196
-27.892159
-28.314545
-27.104029
-24.506353
-21.394076
-18.648592
-16.894642
-16.276138
-16.017152
-15.273180
-14.022660
-12.802793
-12.213123
-12.527185
-13.553012
-14.665601
-15.187737
-14.724314
-13.237925
-11.008860
-8.440277
-5.914817
-3.557945
-1.419799
0.508975
2.533863
4.867096
7.548157
10.295200
12.262939
12.650250
11.349589
8.820226
5.711580
2.547344
-0.613515
-3.914909
-7.444119
-11.233356
-14.998695
-18.077468
-19.791679
-19.803372
-18.315424
-15.966606
-13.458550
-11.520944
-10.469666
-10.087810
-9.969359
-9.800772
-9.695829
-9.803636
-10.382142
-11.487717
-12.787339
-14.160476
-15.536469
-16.957663
-18.430030
-19.687829
-20.492334
-20.643522
-19.864481
-17.987401
-15.152297
-11.809086
-8.521986
-5.769488
-3.834220
-2.602144
-1.805179
-1.265644
-0.879892
-0.668444
-0.713127
-0.859639
-0.660660
0.124096
1.502422
3.301831
5.106696
6.594643
7.693978
8.500295
8.961380
8.985276
8.679526
8.079719
7.384836
7.086100
7.465618
8.537937
10.127974
11.764249
12.984116
13.624701
13.659247
13.157632
12.634456
12.753946
13.456096
14.159804
14.342678
13.737935
12.450003
10.702022
8.747525
6.803938
4.944516
3.253424
1.708321
0.088925
-1.728934
-3.614073
-5.231391
-6.273842
-6.827671
-7.254472
-7.672442
-7.921043
-7.866495
-7.396837
-6.291008
-4.441463
-1.932888
1.140683
4.399469
7.295359
9.566507
11.382282
13.230268
15.628442
18.913724
22.895444
27.195379
31.410890
34.969188
37.479582
38.733219
38.599176
37.026278
34.418984
31.512958
28.831890
26.582816
24.755346
23.505340
23.113087
23.678339
24.888595
26.217824
27.393531
28.264789
28.609498
28.450517
27.976438
27.265190
26.538097
26.064537
25.929455
25.897500
25.525510
24.749060
24.039111
23.893119
24.468502
25.546795
26.752895
28.122908
29.673979
31.155952
32.555059
33.753885
34.672421
35.227283
35.231696
34.547724
32.940277
30.523653
27.463064
23.575375
18.571462
12.577314
6.258197
0.264828
-5.083277
-9.871063
-14.202436
-18.222607
-22.228491
-26.554410
-31.454675
-36.869021
-42.288042
-46.763067
-49.632727
-50.838572
-50.606862
-49.283348
-47.088052
-43.951617
-39.888850
-35.392790
-30.989207
-26.816558
-22.979009
-19.690870
-16.743806
-13.997802
-11.822249
-10.469380
-10.167273
-10.812540
-11.722510
-12.237633
-11.993454
-10.765794
-8.426846
-5.031682
-0.825004
3.324266
6.461480
8.124512
8.368950
8.047095
7.925520
7.939025
7.672760
7.024636
6.080896
4.745167
2.969910
1.403246
1.000603
1.912126
3.763748
6.015154
8.055109
9.799967
11.513912
12.954323
13.858831
14.468763
14.699175
14.279906
13.161602
11.248668
8.505776
5.448304
2.947775
1.275646
0.230597
-0.498055
-1.357630
-2.516718
-3.931157
-5.520680
-7.092799
-8.520746
-9.627620
-10.219374
-10.481743
-10.758659
-11.201046
-11.774357
-12.484306
-13.446230
-14.594667
-15.546459
-15.648032
-14.581947
-12.629015
-10.332669
-8.342330
-7.009984
-6.244191
-5.758688
-5.225387
-4.070982
-2.053887
0.238302
2.365799
4.102604
5.331044
6.293221
7.027322
7.506071
7.841689
8.010535
7.972346
7.564767
6.468803
4.777451
2.807628
0.452829
-2.492943
-5.917466
-9.288478
-11.958116
-13.720384
-14.824141
-15.502138
-15.727360
-15.644237
-15.624758
-15.919338
-16.678383
-17.924752
-19.591426
-21.867256
-24.970966
-28.675000
-32.573340
-36.340497
-39.822430
-43.041737
-45.902304
-48.102541
-49.566077
-50.428769
-50.648276
-50.202777
-49.020316
-46.851777
-43.531166
-39.351763
-34.938050
-30.359383
-25.220657
-19.760338
-14.817997
-10.621449
-6.849882
-3.400426
0.082539
4.214664
8.838790
13.227566
16.950037
19.822288
21.981217
23.728413
25.154016
26.411290
27.987818
30.330662
33.178495
35.966581
38.374886
40.132213
41.300906
42.467001
44.209522
46.589772
49.073150
51.178047
52.720806
53.551540
53.731297
53.055118
50.989440
47.444384
43.004168
38.481866
34.040091
29.413361
24.672594
19.895978
15.114167
10.727723
7.053303
3.942579
1.154487
-1.284997
-3.094283
-4.111018
-4.694979
-5.292189
-5.721329
-5.683665
-5.407275
-5.166993
-4.969832
-4.866967
-4.776830
-4.513429
-4.303539
-4.578377
-5.345474
-6.009704
-6.064258
-5.870994
-6.328189
-7.978757
-10.372781
-12.600034
-14.204884
-15.131998
-15.541396
-15.434114
-14.397903
-12.120001
-9.033702
-6.239381
-4.495822
-3.517799
-2.738498
-2.054272
-1.495774
-0.933639
-0.035365
1.398291
3.277969
5.173752
6.223731
5.852260
4.105058
1.556991
-1.126674
-3.810339
-6.479458
-9.029862
-11.196070
-12.619082
-13.244866
-13.204605
-12.990039
-12.890291
-12.603511
-11.814079
-10.336522
-8.438401
-6.387796
-4.010143
-1.287259
1.528623
4.156432
6.367833
8.350898
10.490344
12.510037
13.965773
14.811315
15.019905
14.487118
13.266206
11.685255
10.091836
8.745716
7.640400
6.271940
4.226005
1.795353
-0.400728
-2.072597
-3.361569
-4.208675
-4.218030
-3.360279
-1.962211
-0.401269
0.787426
1.001472
0.304252
-0.481289
-0.738462
-0.529872
-0.177889
0.158247
0.477499
0.825585
0.935464
0.440863
-0.408062
-0.917470
-0.630429
0.341360
1.455242
2.066472
1.912427
1.406396
1.033626
0.742164
0.448103
0.215868
0.444460
1.989297
4.818167
8.249958
12.125692
16.227165
19.974314
23.009700
24.923926
25.164728
24.110587
22.582889
20.852831
19.030816
17.541304
16.648219
15.761108
14.194965
11.584813
7.922862
4.052317
0.935359
-1.304104
-3.231325
-5.460916
-8.164584
-11.086196
-13.893252
-16.441058
-18.615579
-19.858571
-19.558283
-17.944347
-15.971673
-14.460606
-13.632728
-13.281265
-13.022799
-12.647698
-12.212329
-11.598241
-10.355255
-8.192949
-5.231858
-1.867087
1.467291
4.540083
7.262967
9.476706
11.061028
12.531311
14.394364
16.467569
18.620522
20.810103
22.759918
24.199029
25.292909
26.185728
26.586547
26.354312
25.412910
23.701815
21.530932
19.412522
17.813127
16.916665
16.587017
16.445960
15.777574
14.147008
11.786234
9.126727
6.614508
4.586237
3.176474
2.207536
1.328479
0.324213
-0.648361
-1.400652
-2.095794
-2.646505
-3.103700
-3.807674
-4.841813
-5.957519
-6.963863
-8.331284
-10.091735
-11.839976
-13.478335
-14.573000
-14.784974
-14.172184
-12.984528
-11.614515
-10.183976
-8.777856
-7.640595
-6.823368
-6.317603
-6.225908
-6.475807
-6.918974
-7.585022
-8.402515
-9.135064
-9.633821
-9.726561
-9.220277
-8.361227
-7.748697
-7.730517
-8.216805
-8.869085
-9.523963
-10.361978
-11.528598
-12.842767
-13.845475
-14.008872
-13.301007
-12.319087
-11.493028
-10.568257
-8.969908
-6.535367
-3.680260
-0.885680
1.695891
4.130952
6.409374
8.430885
9.882984
10.346407
9.856482
8.580239
6.383639
3.390589
0.255447
-2.187153
-3.506777
-3.889419
-3.627056
-3.116355
-2.772685
-2.429535
-1.824538
-1.362934
-1.690764
-2.866736
-4.569258
-6.432057
-7.683622
-7.786233
-6.987970
-5.748880
-4.400687
-2.906505
-1.396737
-0.377151
-0.001789
-0.251169
-0.644721
-0.376124
0.584495
1.517578
1.727987
1.252090
0.558246
-0.065459
-0.545254
-0.957768
-1.603814
-2.924737
-5.079775
-8.068667
-11.933498
-16.185122
-19.997999
-23.098332
-25.152060
-25.879413
-25.868246
-25.195450
-23.189525
-20.076989
-16.859247
-14.374830
-13.213410
-13.095219
-12.960143
-12.328909
-11.531425
-11.190093
-11.232958
-10.923577
-10.128171
-9.409656
-9.361602
-9.689172
-9.347061
-7.381919
-3.770109
0.045099
2.451586
2.702259
1.442122
0.512670
0.763343
1.726819
3.095273
4.832858
6.809689
8.757166
10.524104
12.190513
14.012522
16.093520
18.025411
19.256188
19.330219
18.163338
16.194554
14.088613
12.371024
10.951389
9.752557
9.157426
8.964675
8.774782
8.607229
8.231601
7.992612
8.463048
9.022586
9.126230
8.826714
8.064812
6.792726
5.196708
3.804869
2.955944
2.771506
3.578342
5.156429
6.760753
8.508469
10.639861
12.806063
14.762892
15.999124
16.332663
16.285902
16.485661
17.140533
17.775662
18.008411
17.903202
17.663174
17.530429
17.818509
18.214912
17.831491
16.464070
14.611662
12.840042
11.366635
9.897644
8.435927
7.258136
6.046056
4.471600
2.164858
-1.280447
-5.061372
-7.906873
-9.520295
-10.534432
-11.670920
-12.921445
-13.919736
-14.494606
-14.383168
-13.592178
-13.011340
-13.544387
-15.159107
-17.304534
-19.504251
-21.384714
-22.647969
-23.180236
-22.897872
-21.914393
-20.533730
-19.027339
-17.824616
-16.821915
-15.922342
-15.548798
-15.187724
-14.364003
-13.678478
-13.613539
-14.070994
-14.430775
-14.279074
-14.028401
-13.876440
-13.574073
-13.358468
-13.421075
-13.441600
-13.132219
-12.695553
-12.297851
-11.361391
-10.033979
-8.905291
-7.392405
-5.158924
-2.606707
-0.322830
0.824821
0.578818
-0.704179
-2.623347
-4.489783
-5.855646
-6.979145
-7.788325
-7.724945
-6.846672
-5.861895
-5.486014
-5.331975
-4.176790
-1.803033
1.228196
4.104863
6.083512
7.832266
10.158745
12.435868
14.117083
15.592821
17.261308
19.005127
20.392804
20.953380
20.490990
19.227476
18.004745
17.452735
16.870592
15.301331
12.722352
9.866980
7.443602
5.668865
4.350540
3.262888
2.516312
2.338109
2.747240
3.698247
5.137878
6.811820
8.473812
9.665624
9.932663
9.623796
9.342204
9.278038
9.308428
9.471040
9.971869
11.006522
12.902825
15.296324
17.541495
19.792121
21.858052
23.316646
24.189204
24.221672
23.395347
22.047148
20.287997
18.761598
18.291674
18.370901
18.118143
17.268439
15.701516
13.790401
12.070215
10.696559
9.782173
9.376152
9.302375
9.156383
8.679965
8.357590
8.439414
8.294980
7.965332
7.898309
7.738548
7.510729
7.988179
9.110893
10.273352
11.519975
12.632558
12.574886
10.654159
7.341596
3.709777
0.526578
-1.843547
-3.414886
