EVENT_NAME: 202302060117
EVENT_ID: 13194
EVENT_DATE_YYYYMMDD: 2023/02/06
EVENT_TIME_HHMMSS: 01:17:32.00000
EVENT_LATITUDE_DEGREE: 37.288
EVENT_LONGITUDE_DEGREE: 37.043
EVENT_DEPTH_KM: 8.6
HYPOCENTER_REFERENCE: AFAD
MAGNITUDE_W: 7.7
MAGNITUDE_W_REFERENCE: AFAD
MAGNITUDE_L: 
MAGNITUDE_L_REFERENCE: 
FOCAL_MECHANISM: 
NETWORK: TK
STATION_CODE: 2903
STATION_NAME: 
STATION_LATITUDE_DEGREE: 40.208409
STATION_LONGITUDE_DEGREE: 39.65864
STATION_ELEVATION_M: 1594.0
LOCATION: Kahramanmaras_Pazarck_Turkiye
SENSOR_DEPTH_M: 
VS30_M/S: 367
SITE_CLASSIFICATION_EC8: B
MORPHOLOGIC_CLASSIFICATION: 
EPICENTRAL_DISTANCE_KM: 396.07
EARTHQUAKE_BACKAZIMUTH_DEGREE: 
DATE_TIME_FIRST_SAMPLE_YYYYMMDD_HHMMSS: 2023/02/06 01:18:02.4729380
DATE_TIME_FIRST_SAMPLE_PRECISION: millisecond
SAMPLING_INTERVAL_S: 0.01
NDATA: 21001
DURATION_S: 
STREAM: HNZ
UNITS: cm/s^2
INSTRUMENT: sensor = ACEBOX/SARA | digitizer = 
INSTRUMENT_ANALOG/DIGITAL: 
INSTRUMENTAL_FREQUENCY_HZ: 
INSTRUMENTAL_DAMPING: 
FULL_SCALE_G: 
N_BIT_DIGITAL_CONVERTER: 
PGA_CM/S^2: 5.774
TIME_PGA_S: 
BASELINE_CORRECTION: BASELINE REMOVED
FILTER_TYPE: BUTTERWORTH
FILTER_ORDER: 
LOW_CUT_FREQUENCY_HZ: 
HIGH_CUT_FREQUENCY_HZ: 
LATE/NORMAL_TRIGGERED: 
DATABASE_VERSION: 
HEADER_FORMAT: DYNA 1.2
DATA_TYPE: Acceleration
PROCESSING: Automatic Paolucci et al., 2011
DATA_TIMESTAMP_YYYYMMDD_HHMMSS: 
DATA_LICENSE: U (unknown license)
DATA_CITATION: Turkish Accelerometric Archive v 1.0 - Disaster And Emergency Management Presidency, Earthquake Department
DATA_CREATOR: AFAD
ORIGINAL_DATA_MEDIATOR_CITATION: : AFAD - Disaster And Emergency Management Presidency
ORIGINAL_DATA_MEDIATOR: AFAD PROCESS SERVICE
ORIGINAL_DATA_CREATOR_CITATION: AFAD PROCESS SERVICE
ORIGINAL_DATA_CREATOR: network: TK
USER1: GuestUser
USER2: 
USER3: 
USER4: 
USER5: 
[...]
-0.675573
-0.684926
-0.695213
-0.694512
-0.694746
-0.700591
-0.701527
-0.698488
-0.679784
-0.659912
-0.651729
-0.650093
-0.666693
-0.690307
-0.717428
-0.747588
-0.763954
-0.789205
-0.821235
-0.845317
-0.888336
-0.947019
-1.004767
-1.051761
-1.083090
-1.108808
-1.121433
-1.132188
-1.145048
-1.126812
-1.086131
-1.031423
-0.947724
-0.853270
-0.762323
-0.675585
-0.598666
-0.527124
-0.454180
-0.387548
-0.331671
-0.274391
-0.229034
-0.203785
-0.168949
-0.123827
-0.077769
-0.019086
0.048715
0.115113
0.174965
0.235752
0.295136
0.333478
0.369249
0.405955
0.410163
0.397537
0.380002
0.332073
0.274559
0.233878
0.190391
0.132877
0.075830
0.027434
-0.023301
-0.082452
-0.149084
-0.224835
-0.286558
-0.331213
-0.377038
-0.399015
-0.386858
-0.373298
-0.360206
-0.323032
-0.274403
-0.265987
-0.297316
-0.340569
-0.391770
-0.408838
-0.379847
-0.347584
-0.332153
-0.337765
-0.330985
-0.281888
-0.232557
-0.210814
-0.216893
-0.249392
-0.260147
-0.244482
-0.266927
-0.329585
-0.382424
-0.419130
-0.470800
-0.528548
-0.593778
-0.709274
-0.811678
-0.860542
-0.931382
-0.978376
-0.969258
-0.979779
-0.997782
-0.991470
-0.975104
-0.974871
-0.984457
-0.974872
-0.954532
-0.897018
-0.843946
-0.829685
-0.745051
-0.661585
-0.637271
-0.535335
-0.435504
-0.394824
-0.292187
-0.176224
-0.086914
0.029049
0.131686
0.205332
0.284121
0.348649
0.372963
0.371560
0.349115
0.308902
0.294406
0.282716
0.243438
0.233618
0.210705
0.115550
0.044475
0.033252
0.017120
-0.047642
-0.140928
-0.176699
-0.187220
-0.253151
-0.309964
-0.361166
-0.442060
-0.487417
-0.508927
-0.520851
-0.542361
-0.661598
-0.783874
-0.830400
-0.904047
-0.975823
-1.012295
-1.071680
-1.108153
-1.101841
-1.088047
-1.088047
-1.114700
-1.092724
-0.997101
-0.914337
-0.837886
-0.761201
-0.756759
-0.787854
-0.779905
-0.760501
-0.738992
-0.684985
-0.628874
-0.605728
-0.592402
-0.591701
-0.611574
-0.607132
-0.594741
-0.601288
-0.555932
-0.459374
-0.383857
-0.307874
-0.195184
-0.120836
-0.125980
-0.101198
-0.017733
0.037677
0.053575
0.065732
0.124415
0.182162
0.138676
0.082330
0.070874
0.045389
0.033699
0.044687
0.073210
0.123944
0.164157
0.193849
0.180522
0.145452
0.159012
0.145451
0.130722
0.216993
0.274740
0.262582
0.277078
0.291573
0.302795
0.335526
0.358905
0.346280
0.286895
0.250189
0.272399
0.280815
0.275905
0.307701
0.339731
0.343939
0.378307
0.414312
0.383684
0.352121
0.322195
0.256030
0.180513
0.069693
-0.033880
-0.103084
-0.181874
-0.251780
-0.365873
-0.468511
-0.455185
-0.467109
-0.515037
-0.554549
-0.691789
-0.844693
-0.954110
-1.027523
-0.952240
-0.807520
-0.699974
-0.609962
-0.604819
-0.666542
-0.782739
-0.980064
-1.140216
-1.234670
-1.225319
-1.077559
-1.018409
-1.069377
-1.064468
-1.093692
-1.175756
-1.192122
-1.149337
-1.080367
-1.029634
-0.991057
-0.893798
-0.818750
-0.776433
-0.649481
-0.540532
-0.465951
-0.301592
-0.149390
-0.048390
0.057052
0.157117
0.325451
0.528854
0.659079
0.713086
0.749324
0.869963
1.023568
1.176705
1.422893
1.621854
1.694097
1.804215
1.908021
1.878562
1.847233
1.969508
2.162157
2.332829
2.460482
2.486433
2.477314
2.451363
2.365793
2.338906
2.336333
2.314824
2.335865
2.273909
2.182260
2.190910
2.184831
2.140877
2.112821
2.113054
2.082193
1.965060
1.884633
1.866630
1.846056
1.850965
1.862889
1.851432
1.779422
1.634935
1.453041
1.300371
1.298734
1.330296
1.201941
1.032905
0.965338
0.954583
0.914837
0.857556
0.761231
0.536084
0.320055
0.277270
0.329407
0.328237
0.256929
0.217183
0.140263
-0.018485
-0.132813
-0.237554
-0.284548
-0.182846
-0.059168
0.053522
0.148677
0.161068
0.140260
0.153118
0.222322
0.274225
0.269081
0.324491
0.443025
0.532569
0.573717
0.531166
0.437179
0.377561
0.338049
0.357220
0.462662
0.526488
0.546828
0.621877
0.684768
0.660686
0.555945
0.406782
0.288948
0.206183
0.144460
0.158020
0.223951
0.291986
0.322846
0.277957
0.248732
0.272345
0.288009
0.313493
0.318169
0.330092
0.363525
0.332663
0.357211
0.424077
0.415192
0.449327
0.422907
0.311385
0.339908
0.373341
0.293148
0.216696
0.193316
0.201265
0.123176
-0.030896
-0.177488
-0.295322
-0.290179
-0.330158
-0.529821
-0.610716
-0.640174
-0.800092
-0.928915
-1.016355
-1.075740
-1.078546
-1.155699
-1.203160
-1.169728
-1.291536
-1.447480
-1.451688
-1.451221
-1.428075
-1.357703
-1.361678
-1.363315
-1.322868
-1.294813
-1.226778
-1.118764
-1.041611
-0.994852
-0.872343
-0.739780
-0.773213
-0.747730
-0.527259
-0.396099
-0.358926
-0.260731
-0.198775
-0.208829
-0.164174
-0.019688
0.122461
0.238190
0.384313
0.453984
0.404419
0.387118
0.385481
0.323992
0.325394
0.396235
0.410262
0.372620
0.302715
0.203350
0.068683
-0.071128
-0.093339
-0.062712
-0.091002
-0.092405
-0.087729
-0.144309
-0.206733
-0.244842
-0.252558
-0.216320
-0.127243
-0.058507
-0.130517
-0.246013
-0.282720
-0.313815
-0.287864
-0.142910
-0.044949
-0.003801
0.083171
0.118942
0.086677
0.092990
0.120344
0.132267
0.184637
0.225084
0.163361
0.176687
0.297326
0.292182
0.312289
0.476180
0.548423
0.560580
0.612483
0.635395
0.670464
0.742941
0.810742
0.877607
0.968087
1.061839
1.114209
1.182478
1.280205
1.319015
1.337952
1.394998
1.435211
1.475424
1.532704
1.532703
1.516337
1.580865
1.626221
1.529896
1.467005
1.566368
1.614063
1.580395
1.627622
1.635805
1.546961
1.501604
1.460222
1.344492
1.250271
1.197900
1.080534
0.989353
1.021149
1.054348
1.096665
1.157218
1.142722
1.075388
0.954047
0.885310
0.972282
1.036810
1.036108
1.072347
1.114664
1.114196
1.060890
1.019273
0.992153
0.891386
0.775889
0.729130
0.698502
0.638416
0.613633
0.650806
0.638649
0.540687
0.461430
0.462131
0.504681
0.516838
0.508655
0.552609
0.609421
0.603810
0.613161
0.660388
0.647529
0.657816
0.741047
0.740579
0.683065
0.701768
0.758814
0.781726
0.795754
0.820302
0.784765
0.742681
0.816327
0.882725
0.846953
0.817962
0.814455
0.777515
0.698491
0.587904
0.481760
0.399229
0.318335
0.233700
0.128257
-0.009216
-0.137337
-0.250729
-0.365758
-0.477513
-0.618493
-0.783788
-0.966384
-1.170723
-1.287388
-1.343266
-1.468348
-1.548073
-1.561166
-1.611433
-1.597639
-1.560700
-1.586184
-1.563272
-1.521423
-1.483314
-1.422761
-1.418787
-1.417852
-1.341167
-1.211410
-1.106201
-1.036296
-0.843180
-0.669703
-0.707812
-0.705708
-0.642349
-0.643285
-0.548597
-0.415099
-0.351039
-0.247467
-0.149974
-0.161898
-0.201878
-0.192526
-0.170784
-0.101580
0.059974
0.237659
0.398044
0.516579
0.574093
0.650778
0.756454
0.853479
0.951206
1.023449
1.040984
1.049400
1.121176
1.167000
1.118369
1.129124
1.159049
1.065530
0.993287
0.993286
0.994455
1.049864
1.085401
1.033966
0.968736
0.853707
0.704778
0.631365
0.600738
0.548600
0.496230
0.435208
0.286747
0.096201
-0.000591
-0.055066
-0.139233
-0.229246
-0.315050
-0.384254
-0.529209
-0.746173
-0.893933
-1.054786
-1.217041
-1.259359
-1.332772
-1.459023
-1.522850
-1.596262
-1.697731
-1.755713
-1.745426
-1.701238
-1.677158
-1.664533
-1.661026
-1.644661
-1.600941
-1.595564
-1.594395
-1.535946
-1.477731
-1.477030
-1.540857
-1.621751
-1.690488
-1.762966
-1.832871
-1.898101
-1.918442
-1.907687
-1.949537
-1.971515
-1.915637
-1.855786
-1.811365
-1.753383
-1.666411
-1.622925
-1.619652
-1.518886
-1.408768
-1.367620
-1.287661
-1.246279
-1.252826
-1.161178
-1.051995
-0.999858
-0.907275
-0.777518
-0.713925
-0.680259
-0.570375
-0.471245
-0.423784
-0.324888
-0.276960
-0.314836
-0.261297
-0.187651
-0.186950
-0.156089
-0.132242
-0.147439
-0.115175
-0.038724
0.041468
0.066484
0.058301
0.138026
0.220088
0.228037
0.280407
0.349611
0.383511
0.421620
0.447571
0.471418
0.484043
0.523554
0.642557
0.761559
0.899031
1.028321
1.048895
1.095654
1.192446
1.275677
1.437231
1.597615
1.668456
1.737893
1.808032
1.854791
1.911370
1.959532
1.975897
1.997640
2.004887
1.909731
1.782779
1.739994
1.705625
1.648111
1.664243
1.707261
1.684582
1.656526
1.615144
1.508766
1.453589
1.461772
1.430209
1.457329
1.580072
1.674526
1.738586
1.790255
1.815271
1.844028
1.869511
1.870914
1.851275
1.833272
1.819711
1.773185
1.699071
1.585679
1.422956
1.318682
1.289223
1.210200
1.054724
0.883117
0.722965
0.558839
0.384426
0.250226
0.172839
0.070201
-0.068674
-0.183235
-0.303875
-0.436672
-0.573444
-0.733829
-0.828284
-0.894449
-1.057640
-1.230182
-1.389398
-1.549550
-1.674866
-1.886920
-2.124225
-2.240656
-2.368310
-2.526357
-2.640684
-2.771377
-2.903005
-3.031360
-3.154806
-3.203670
-3.258846
-3.335298
-3.328518
-3.345118
-3.416894
-3.418999
-3.402399
-3.408479
-3.393516
-3.380190
-3.377151
-3.374112
-3.364293
-3.375749
-3.412222
-3.393051
-3.354007
-3.351903
-3.306780
-3.200403
-3.083738
-2.979465
-2.843629
-2.655423
-2.548110
-2.499714
-2.354059
-2.192973
-2.073971
-1.952630
-1.860982
-1.770269
-1.676049
-1.608482
-1.534369
-1.457917
-1.355982
-1.249604
-1.206586
-1.184843
-1.183908
-1.179233
-1.096001
-1.003652
-0.884182
-0.706730
-0.594741
-0.499820
-0.348787
-0.222303
-0.101430
0.054980
0.200167
0.303739
0.384633
0.462019
0.534496
0.624274
0.690205
0.710077
0.737431
0.737898
0.757069
0.835157
0.854796
0.848717
0.828376
0.735091
0.665653
0.621932
0.570496
0.530049
0.480250
0.461078
0.397719
0.268429
0.197354
0.072272
-0.076891
-0.077826
-0.121079
-0.241485
-0.255981
-0.243122
-0.288012
-0.362360
-0.451437
-0.541917
-0.627954
-0.664895
-0.681962
-0.747426
-0.830892
-0.932828
-1.041544
-1.144181
-1.297318
-1.460275
-1.597281
-1.751821
-1.898179
-2.014142
-2.110233
-2.189491
-2.283946
-2.390324
-2.476595
-2.543228
-2.659425
-2.875454
-3.044490
-3.092185
-3.168403
-3.228723
-3.194122
-3.204409
-3.231997
-3.188745
-3.119308
-3.011528
-2.917541
-2.882940
-2.842025
-2.814204
-2.803450
-2.781941
-2.766744
-2.699645
-2.569186
-2.473329
-2.445742
-2.463511
-2.485956
-2.457199
-2.391502
-2.307569
-2.184125
-2.065590
-1.991009
-1.913388
-1.807011
-1.700633
-1.594256
-1.435040
-1.280501
-1.206621
-1.100010
-0.950848
-0.868084
-0.788827
-0.686424
-0.619324
-0.582151
-0.585658
-0.616987
-0.638965
-0.639433
-0.611611
-0.613716
-0.654397
-0.676608
-0.715418
-0.732486
-0.607171
-0.384830
-0.164126
0.022210
0.151500
0.195687
0.107545
-0.013328
0.011688
0.134431
0.263019
0.447719
0.646446
0.714247
0.666786
0.643873
0.647614
0.638028
0.715648
0.904556
1.065408
1.133209
1.175994
1.200308
1.142092
1.098138
1.192124
1.288449
1.275122
1.258054
1.248936
1.179264
1.121749
1.144427
1.201941
1.280263
1.406046
1.535569
1.587705
1.568066
1.534633
1.492549
1.461921
1.502368
1.597991
1.686366
1.755569
1.832254
1.903796
1.926708
1.935124
1.924837
1.833656
1.773102
1.832720
1.897247
1.905430
1.915951
1.953124
1.961774
1.903324
1.794842
1.652226
1.553797
1.539535
1.534157
1.548184
1.591203
1.574135
1.490436
1.402060
1.361846
1.376108
1.368860
1.303396
1.204967
1.049959
0.817564
0.577220
0.410289
0.320510
0.284038
0.287778
0.312794
0.299701
0.172749
0.001609
-0.119031
-0.230786
-0.299990
-0.284326
-0.269831
-0.259077
-0.242711
-0.256740
-0.275911
-0.305604
-0.358910
-0.438401
-0.550157
-0.623569
-0.639936
-0.632688
-0.590605
-0.565823
-0.587566
-0.600893
-0.628014
-0.683892
-0.716858
-0.759877
-0.839836
-0.936394
-1.033187
-1.071763
-1.090701
-1.126005
-1.074102
-0.968894
-0.913017
-0.900392
-0.919564
-0.930786
-0.919097
-0.891743
-0.816460
-0.726449
-0.671741
-0.650933
-0.646257
-0.628489
-0.597628
-0.547362
-0.449869
-0.332971
-0.232204
-0.129334
-0.001915
0.138363
0.270926
0.400683
0.580239
0.832039
1.093657
1.334001
1.539274
1.672071
1.777045
1.900490
2.008504
2.111608
2.236690
2.331377
2.377669
2.401983
2.412036
2.459497
2.521686
2.488019
2.380472
2.254455
2.128438
2.055727
2.026969
2.016682
1.979742
1.859570
1.713212
1.547450
1.360645
1.233459
1.155838
1.138537
1.133861
0.982360
0.744354
0.543989
0.387345
0.302944
0.308321
0.358353
0.380329
0.403943
0.477588
0.548896
0.656910
0.753936
0.712553
0.619502
0.478054
0.277456
0.143490
0.050672
-0.006375
-0.091010
-0.284127
-0.347954
-0.313586
-0.326679
-0.226380
-0.241110
-0.474206
-0.649321
-0.917720
-1.213708
-1.409397
-1.728296
-1.856651
-1.638519
-1.316580
-0.751025
-0.016668
0.644744
1.020456
0.960136
0.897244
0.941431
0.719791
0.428480
0.179719
-0.287876
-0.809712
-1.245043
-1.593167
-1.545239
-1.353759
-1.316352
-0.958409
-0.561889
-0.542250
-0.400570
-0.051043
0.219460
0.139267
-0.128431
-0.089855
-0.108792
-0.183842
0.061879
0.175738
0.152358
0.212443
0.389661
0.701780
0.698507
0.627666
0.712066
0.328639
-0.162804
-0.361532
-0.768807
-1.296488
-1.688800
-2.136054
-2.502181
-2.338523
-1.548990
-0.581304
0.194435
0.927857
1.524040
1.603764
1.537599
1.664785
1.567057
1.035168
0.159831
-0.659863
-1.101272
-1.506210
-1.734396
-1.466932
-1.055449
-0.682309
-0.341667
0.082675
0.622512
0.914057
0.925980
0.934163
0.903535
0.580895
0.111897
-0.026745
0.211260
0.499532
0.708079
1.285324
2.159725
2.562558
2.904837
3.427373
3.520190
3.467586
3.414747
3.364013
3.550816
3.646907
3.758194
3.897303
3.733878
3.510835
3.102158
2.798221
3.050955
3.059138
3.061943
3.550813
3.716107
3.840721
3.982402
3.667243
3.852410
4.418433
4.475479
4.524108
4.767023
4.595883
4.056513
3.960422
4.221105
4.286568
4.544914
5.152553
5.773518
5.713665
4.833886
4.246821
3.738078
2.877469
2.589665
2.695341
2.639697
2.467622
2.058476
1.528224
1.208622
1.466734
1.966592
2.141706
2.444473
2.815275
2.659566
2.184957
1.556978
1.065302
0.877328
0.477067
0.342633
0.615942
0.191366
-0.170085
0.225500
0.205860
0.154892
0.612433
0.735644
0.505119
0.051085
-0.501378
-0.816070
-1.106680
-1.310084
-1.306578
-1.083535
-0.863532
-0.986276
-0.843894
-0.625060
-0.719748
-0.504188
-0.737751
-1.404074
-1.389345
-1.580592
-1.942978
-1.653771
-1.782827
-2.333186
-2.470192
-2.837254
-3.157556
-2.714043
-2.479311
-2.381350
-1.853904
-1.982025
-2.428111
-2.279650
-2.197120
-1.906978
-1.316172
-1.300508
-1.309861
-1.000547
-0.866114
-0.459073
0.313159
0.753399
0.715991
0.428420
0.022547
-0.380987
-0.471934
-0.460011
-0.702459
-0.475209
-0.258245
-1.132413
-1.595332
-1.170991
-1.133116
-0.995877
-0.727010
-0.748754
-0.271574
0.355704
0.479382
0.602359
1.099879
1.889880
2.313520
2.283828
2.430652
2.209012
1.432571
0.960300
0.810670
0.800148
0.663143
0.264284
0.136865
-0.005051
-0.227626
0.045916
0.324135
0.385857
0.510704
0.541799
0.357333
-0.043396
-0.132941
-0.015575
-0.340086
-0.214771
0.543200
0.647473
0.024870
-0.555649
-0.513098
-0.338685
-1.000098
-1.642106
-1.560978
-1.616623
-1.937627
-2.143135
-2.106195
-1.846680
-1.937628
-2.123731
-1.542979
-0.962460
-0.835976
-0.197243
0.335815
0.073260
0.058998
0.278066
0.279936
0.098509
-0.324197
-0.102324
0.272453
-0.253591
-0.221795
0.160229
-0.399014
-0.655022
-0.633747
-1.267572
-1.756910
-1.672275
-1.110227
-0.550049
-0.448114
-0.242373
-0.223669
-0.555428
-0.123137
0.572643
0.761084
1.403792
2.276791
2.081803
1.231716
0.872603
0.919362
0.812984
0.774407
1.049353
1.196177
1.082785
1.107333
1.312373
1.447975
1.463873
1.388824
1.083017
0.460181
-0.246823
-0.783154
-1.074933
-0.848852
0.164659
1.417812
2.118268
2.435063
2.746247
2.700189
2.401863
2.489537
2.508474
2.244517
2.673768
3.286083
3.222723
3.356455
3.562664
3.428932
3.585108
3.233009
2.196819
1.654409
1.291555
0.981540
0.811101
0.603021
1.175357
1.803804
1.677553
1.930755
2.140704
1.623311
1.165302
0.677366
0.076040
0.154595
0.781405
1.260689
1.822270
2.390163
2.357899
1.934258
1.111291
0.308899
0.293468
0.025068
-0.503548
-0.395768
-0.877157
-1.875939
-2.280175
-2.603049
-2.339092
-1.239778
-0.443465
0.245302
0.505050
-0.222293
-0.504955
-0.348545
-0.672120
-0.552416
-0.234920
-0.611568
-0.813569
-0.711867
-0.593099
-0.009541
0.187550
-0.332182
-0.451653
-0.753719
-1.756710
-2.098054
-1.932526
-2.220564
-2.146217
-1.801133
-2.111148
-2.319930
-2.367858
-2.945104
-3.339287
-3.285981
-3.093566
-2.740533
-2.548352
-2.454599
-2.296787
-2.250028
-2.202099
-2.204672
-2.233896
-2.137339
-2.293983
-2.748719
-3.017586
-3.141032
-3.435383
-3.770882
-3.671986
-3.088662
-2.741474
-2.805301
-2.855100
-3.045177
-3.170493
-2.851126
-2.465829
-2.110691
-1.752280
-1.820783
-2.414161
-2.762285
-2.481963
-2.252842
-1.849775
-1.103963
-0.822471
-0.538641
-0.323314
-0.711652
-0.590312
-0.092090
0.002364
-0.055852
-0.590313
-1.301992
-1.536725
-1.449285
-0.957142
-0.296431
0.107804
-0.090690
-1.203566
-2.314571
-2.779360
-2.984167
-2.801805
-2.315741
-1.878540
-1.600790
-1.724702
-1.909403
-1.597751
-0.911089
-0.223959
0.180276
0.196642
-0.052820
-0.305322
-0.497737
-0.573020
-0.378268
-0.311636
-0.662566
-1.248228
-1.792275
-1.725175
-1.187676
-0.799573
-0.644565
-1.002977
-1.655505
-1.976042
-2.165184
-2.014151
-1.101875
-0.051424
0.542888
0.746292
0.797493
0.739277
0.551538
0.519507
0.664929
0.538678
0.056821
-0.605994
-1.361160
-1.780826
-1.798595
-1.840211
-1.519442
-0.981942
-1.024026
-1.049043
-1.033145
-1.432003
-1.310429
-0.931912
-0.938692
-0.487230
0.109654
-0.034833
-0.514118
-0.905027
-1.206158
-1.456555
-1.599172
-1.363037
-0.943138
-0.714017
-0.515757
-0.635228
-1.117318
-1.070091
-0.700458
-0.431124
0.132327
0.419664
-0.134670
-1.087160
-1.858458
-2.102776
-2.088515
-1.932806
-1.447443
-0.955534
-0.560651
-0.107552
0.211814
0.201761
-0.041389
0.007942
0.506398
0.573030
-0.097969
-0.533767
-0.395126
-0.506414
-1.002999
-1.007910
-0.562994
-0.227963
0.341567
0.840958
0.605524
0.211107
-0.074593
-0.259293
0.164113
0.965804
1.587003
1.717227
1.330526
1.009522
0.723120
0.244070
0.163175
0.235652
0.090931
0.420819
0.883036
0.675657
0.237287
-0.021293
-0.082081
0.053989
0.230973
0.453548
0.625155
0.548937
0.451443
0.622348
0.835337
0.814763
0.832765
0.903605
0.775484
0.812891
1.168263
1.571329
1.973460
2.326026
2.632300
2.604010
2.024426
1.437361
0.956206
0.568803
0.548930
0.335707
-0.079050
-0.136330
-0.362413
-0.660738
-0.359842
-0.002366
0.185841
0.628652
0.721236
0.034339
-0.598083
-0.842401
-0.737894
0.161523
1.289127
1.798104
1.812599
1.412805
1.051822
0.924402
0.573706
0.712581
1.174564
0.720997
0.226282
0.127853
-0.239209
0.015629
0.909202
1.330271
1.356689
1.196538
0.879275
0.596847
0.502627
0.701822
0.843970
0.774064
0.613913
0.332421
0.239603
0.388298
0.661139
1.201678
1.489482
1.157022
0.662774
0.158707
-0.293224
-0.549466
-0.780926
-0.764794
-0.313098
-0.030203
-0.017345
0.172264
0.194942
-0.059429
-0.130738
-0.407320
-0.967733
-1.339938
-1.959501
-2.533240
-2.291027
-1.847514
-1.483024
-1.168801
-1.328017
-1.497520
-1.292013
-0.979426
-0.590388
-0.228003
0.162205
0.612732
0.682403
0.367244
0.271153
0.562464
0.789013
0.883467
0.911990
0.612495
0.503078
0.894454
1.073543
1.028186
1.019769
1.065125
1.244915
1.215456
1.235562
1.318326
0.652939
0.177862
0.752302
1.228079
1.380514
1.922456
2.426523
2.318274
2.092192
