EVENT_NAME: 202302060117
EVENT_ID: 13194
EVENT_DATE_YYYYMMDD: 2023/02/06
EVENT_TIME_HHMMSS: 01:17:32.00000
EVENT_LATITUDE_DEGREE: 37.288
EVENT_LONGITUDE_DEGREE: 37.043
EVENT_DEPTH_KM: 8.6
HYPOCENTER_REFERENCE: AFAD
MAGNITUDE_W: 7.7
MAGNITUDE_W_REFERENCE: AFAD
MAGNITUDE_L: 
MAGNITUDE_L_REFERENCE: 
FOCAL_MECHANISM: 
NETWORK: TK
STATION_CODE: 6605
STATION_NAME: 
STATION_LATITUDE_DEGREE: 39.8083
STATION_LONGITUDE_DEGREE: 35.18763
STATION_ELEVATION_M: 1078.0
LOCATION: Kahramanmaras_Pazarck_Turkiye
SENSOR_DEPTH_M: 
VS30_M/S: None
SITE_CLASSIFICATION_EC8: unknown
MORPHOLOGIC_CLASSIFICATION: 
EPICENTRAL_DISTANCE_KM: 323.35
EARTHQUAKE_BACKAZIMUTH_DEGREE: 
DATE_TIME_FIRST_SAMPLE_YYYYMMDD_HHMMSS: 2023/02/06 01:18:05.2267980
DATE_TIME_FIRST_SAMPLE_PRECISION: millisecond
SAMPLING_INTERVAL_S: 0.01
NDATA: 18251
DURATION_S: 
STREAM: HNZ
UNITS: cm/s^2
INSTRUMENT: sensor = ACEBOX/SARA | digitizer = 
INSTRUMENT_ANALOG/DIGITAL: 
INSTRUMENTAL_FREQUENCY_HZ: 
INSTRUMENTAL_DAMPING: 
FULL_SCALE_G: 
N_BIT_DIGITAL_CONVERTER: 
PGA_CM/S^2: 1.941
TIME_PGA_S: 
BASELINE_CORRECTION: BASELINE REMOVED
FILTER_TYPE: BUTTERWORTH
FILTER_ORDER: 
LOW_CUT_FREQUENCY_HZ: 
HIGH_CUT_FREQUENCY_HZ: 
LATE/NORMAL_TRIGGERED: 
DATABASE_VERSION: 
HEADER_FORMAT: DYNA 1.2
DATA_TYPE: Acceleration
PROCESSING: Automatic Paolucci et al., 2011
DATA_TIMESTAMP_YYYYMMDD_HHMMSS: 
DATA_LICENSE: U (unknown license)
DATA_CITATION: Turkish Accelerometric Archive v 1.0 - Disaster And Emergency Management Presidency, Earthquake Department
DATA_CREATOR: AFAD
ORIGINAL_DATA_MEDIATOR_CITATION: : AFAD - Disaster And Emergency Management Presidency
ORIGINAL_DATA_MEDIATOR: AFAD PROCESS SERVICE
ORIGINAL_DATA_CREATOR_CITATION: AFAD PROCESS SERVICE
ORIGINAL_DATA_CREATOR: network: TK
USER1: GuestUser
USER2: 
USER3: 
USER4: 
USER5: 
[...]
0.120129
0.075708
0.000892
-0.116474
-0.240620
-0.289718
-0.217709
-0.107356
-0.072754
-0.141257
-0.247869
-0.303279
-0.252545
-0.150142
-0.130269
-0.211631
-0.294395
-0.305851
-0.216073
-0.047272
0.137194
0.280044
0.331713
0.321192
0.370991
0.516413
0.646638
0.672122
0.596605
0.465912
0.342467
0.266249
0.233284
0.229075
0.226737
0.185823
0.107033
0.021463
-0.063639
-0.141962
-0.194332
-0.188020
-0.102684
0.006733
0.045777
0.007902
-0.013841
0.025436
0.050453
-0.006360
-0.126298
-0.237118
-0.295802
-0.343263
-0.410362
-0.457590
-0.448004
-0.404284
-0.382541
-0.389321
-0.388386
-0.335080
-0.210934
-0.096140
-0.056628
-0.029274
0.040631
0.142333
0.244035
0.279572
0.238423
0.189092
0.156360
0.139527
0.163374
0.209432
0.231175
0.211536
0.140228
0.034785
-0.041433
-0.035588
0.053722
0.162204
0.234915
0.302015
0.378232
0.420316
0.417744
0.386883
0.331940
0.271153
0.209898
0.129238
0.065645
0.079439
0.143499
0.188856
0.172256
0.124795
0.159397
0.311131
0.477828
0.542123
0.471983
0.358592
0.307624
0.346434
0.417508
0.412832
0.332639
0.264604
0.204518
0.106557
-0.031851
-0.173532
-0.259570
-0.288794
-0.319422
-0.381612
-0.451050
-0.499212
-0.517215
-0.497810
-0.453622
-0.408032
-0.363610
-0.330178
-0.338127
-0.399849
-0.498278
-0.612839
-0.729036
-0.839622
-0.938051
-0.982473
-0.961665
-0.935012
-0.939922
-0.957457
-0.942494
-0.857158
-0.721322
-0.569821
-0.431881
-0.350754
-0.319659
-0.314048
-0.341402
-0.372965
-0.396345
-0.436792
-0.446845
-0.398215
-0.370393
-0.413646
-0.490098
-0.503191
-0.379044
-0.179849
-0.006839
0.112163
0.163365
0.175522
0.234907
0.368872
0.527621
0.640311
0.643116
0.536738
0.411189
0.357883
0.398798
0.485770
0.534400
0.497460
0.414462
0.352505
0.322345
0.275352
0.172715
0.051374
-0.012920
-0.015025
-0.022272
-0.073474
-0.152498
-0.231287
-0.299323
-0.405467
-0.595544
-0.780478
-0.837524
-0.735355
-0.532185
-0.373905
-0.350291
-0.403363
-0.442875
-0.408273
-0.297921
-0.172840
-0.074879
-0.025314
-0.062020
-0.184530
-0.316859
-0.385829
-0.396117
-0.406170
-0.459242
-0.537331
-0.584558
-0.576141
-0.511379
-0.382557
-0.202300
-0.026484
0.074750
0.103273
0.117067
0.117301
0.092986
0.074516
0.068437
0.078022
0.107247
0.104909
0.030327
-0.090312
-0.218901
-0.360816
-0.533358
-0.694445
-0.759674
-0.701459
-0.604433
-0.576845
-0.611681
-0.627112
-0.582690
-0.501329
-0.439840
-0.419266
-0.386301
-0.283898
-0.117434
0.023545
0.043418
-0.034203
-0.123747
-0.168636
-0.137775
-0.087275
-0.089613
-0.115097
-0.120942
-0.127489
-0.177755
-0.286003
-0.388641
-0.394486
-0.303772
-0.227555
-0.248830
-0.334400
-0.405708
-0.394252
-0.294655
-0.171911
-0.070911
0.005541
0.087369
0.193280
0.261782
0.247053
0.183460
0.123140
0.088070
0.052533
-0.022282
-0.127024
-0.230830
-0.367601
-0.557445
-0.704503
-0.761082
-0.768564
-0.726714
-0.661017
-0.620571
-0.595087
-0.578020
-0.553237
-0.497360
-0.444755
-0.415297
-0.395658
-0.372279
-0.322714
-0.292788
-0.354510
-0.453640
-0.484736
-0.437509
-0.368305
-0.302842
-0.213064
-0.096866
-0.019246
-0.048704
-0.188749
-0.357317
-0.429561
-0.327625
-0.098738
0.087833
0.125708
0.092041
0.071233
0.057205
0.052061
0.071466
0.114251
0.187429
0.286325
0.381948
0.450685
0.495106
0.544671
0.649178
0.807225
0.954517
1.055518
1.113967
1.138515
1.135242
1.099939
1.045464
1.008290
1.016239
1.060660
1.081936
1.027929
0.936280
0.878999
0.872453
0.919680
1.025590
1.140852
1.231098
1.306848
1.328357
1.257283
1.156750
1.089650
1.063231
1.076791
1.105781
1.121446
1.125888
1.126589
1.139214
1.158152
1.138980
1.064165
0.946799
0.826159
0.754851
0.717443
0.671385
0.605220
0.530873
0.517312
0.573190
0.600310
0.579268
0.525729
0.434547
0.365343
0.337288
0.323260
0.343834
0.393165
0.449977
0.495100
0.491593
0.461667
0.411401
0.323025
0.270187
0.278837
0.279772
0.245404
0.182746
0.144637
0.172459
0.210334
0.266679
0.386149
0.507256
0.589787
0.624388
0.611763
0.611997
0.633740
0.667407
0.743858
0.784071
0.726089
0.644260
0.546299
0.420516
0.320217
0.239557
0.194200
0.222489
0.278133
0.347337
0.425893
0.464469
0.470080
0.446467
0.392927
0.350843
0.312734
0.290523
0.309929
0.307357
0.286782
0.298005
0.301044
0.293328
0.298472
0.312266
0.355752
0.402277
0.403213
0.369779
0.303849
0.237450
0.258725
0.388717
0.589548
0.785938
0.883665
0.924112
0.963156
0.947491
0.879223
0.775183
0.650569
0.570610
0.541385
0.567570
0.647295
0.709017
0.766765
0.847893
0.859349
0.785703
0.711355
0.630929
0.538579
0.463529
0.391052
0.375855
0.428693
0.437110
0.388948
0.313665
0.234174
0.191856
0.104416
-0.061580
-0.177544
-0.204197
-0.189000
-0.149021
-0.122134
-0.128447
-0.131954
-0.126810
-0.143878
-0.206769
-0.305666
-0.348684
-0.292106
-0.243008
-0.276208
-0.349854
-0.374636
-0.287664
-0.168661
-0.148789
-0.239034
-0.366922
-0.453193
-0.467689
-0.448985
-0.451323
-0.489900
-0.501590
-0.440335
-0.381184
-0.394043
-0.481717
-0.642102
-0.812541
-0.880809
-0.839895
-0.785654
-0.778640
-0.839194
-0.920322
-0.897176
-0.773263
-0.679043
-0.653326
-0.694942
-0.797579
-0.892501
-0.946742
-1.002853
-1.087955
-1.139858
-1.091930
-0.981110
-0.840598
-0.695410
-0.611945
-0.575472
-0.534090
-0.473537
-0.372303
-0.272238
-0.219400
-0.169367
-0.145754
-0.199060
-0.282292
-0.370433
-0.455769
-0.496918
-0.505335
-0.479149
-0.394749
-0.303100
-0.248158
-0.218933
-0.186436
-0.112322
-0.008750
0.058350
0.051102
-0.040781
-0.211219
-0.409245
-0.618728
-0.855331
-1.055461
-1.151786
-1.151085
-1.098714
-1.066450
-1.066216
-1.056865
-1.016885
-0.932017
-0.845512
-0.790570
-0.701260
-0.567995
-0.450629
-0.382127
-0.398492
-0.487803
-0.578750
-0.632991
-0.658943
-0.665489
-0.635330
-0.592779
-0.606573
-0.672971
-0.728615
-0.698455
-0.553034
-0.404339
-0.365295
-0.376517
-0.367399
-0.363191
-0.363191
-0.354073
-0.340513
-0.301469
-0.252371
-0.214029
-0.196026
-0.227355
-0.237409
-0.162594
-0.060658
0.039173
0.101129
0.089205
0.077048
0.095985
0.120066
0.144147
0.115156
0.023274
-0.027928
0.029586
0.149290
0.205869
0.105570
-0.100172
-0.303809
-0.459284
-0.560051
-0.623644
-0.676716
-0.714591
-0.710383
-0.669469
-0.649362
-0.650298
-0.603772
-0.514929
-0.439179
-0.390783
-0.345426
-0.268975
-0.154414
-0.017643
0.097385
0.142040
0.153964
0.167056
0.130350
0.042442
-0.035646
-0.072119
-0.083341
-0.122151
-0.218242
-0.328828
-0.358755
-0.264768
-0.115138
-0.006189
0.001760
-0.080536
-0.153715
-0.146701
-0.080303
-0.043129
-0.090590
-0.165405
-0.194864
-0.160262
-0.077965
-0.005488
0.017657
0.007136
0.012514
0.077275
0.189264
0.274834
0.268989
0.189965
0.101122
0.066988
0.114916
0.156064
0.122164
0.066753
0.036827
0.044075
0.063012
0.049218
0.035658
0.075871
0.161674
0.260103
0.329073
0.333515
0.298445
0.277170
0.247477
0.156530
0.017187
-0.102985
-0.134314
-0.084515
-0.017649
0.012277
-0.026768
-0.083580
-0.096907
-0.093166
-0.095738
-0.101116
-0.102986
-0.089192
-0.076333
-0.078438
-0.080776
-0.062540
-0.043368
-0.089193
-0.170087
-0.187855
-0.136186
-0.057397
0.008534
0.031212
0.032849
0.036356
0.044071
0.054124
0.040564
0.004559
0.007598
0.078438
0.185517
0.278335
0.285816
0.202351
0.138290
0.181542
0.313872
0.434043
0.464203
0.441291
0.431471
0.434978
0.416274
0.348473
0.236016
0.132210
0.105090
0.161902
0.271319
0.378866
0.418845
0.393361
0.346134
0.290022
0.208661
0.085450
-0.042204
-0.102757
-0.063480
0.035183
0.094333
0.101347
0.133377
0.197905
0.242327
0.245366
0.250977
0.308257
0.379565
0.423051
0.446899
0.468876
0.507218
0.527558
0.483371
0.401775
0.325557
0.298437
0.325089
0.331869
0.291189
0.243962
0.209126
0.193695
0.202813
0.205385
0.188317
0.184109
0.205150
0.258690
0.337012
0.389850
0.406917
0.414866
0.417905
0.442688
0.503943
0.564730
0.589746
0.567067
0.526387
0.525451
0.547662
0.533166
0.484770
0.421411
0.364832
0.350570
0.371846
0.422112
0.514462
0.615462
0.679523
0.683029
0.625749
0.546492
0.487107
0.442685
0.365532
0.236008
0.106017
0.018343
-0.037768
-0.092477
-0.164954
-0.239068
-0.311312
-0.398284
-0.475438
-0.526172
-0.574568
-0.645642
-0.739395
-0.806729
-0.788493
-0.691467
-0.576906
-0.485492
-0.412781
-0.348019
-0.309910
-0.328614
-0.395480
-0.468425
-0.523134
-0.568023
-0.616887
-0.659672
-0.680246
-0.678142
-0.665049
-0.669258
-0.699652
-0.727941
-0.729110
-0.695210
-0.637929
-0.579948
-0.529682
-0.477545
-0.384727
-0.229954
-0.053671
0.086374
0.171008
0.211455
0.219404
0.204675
0.157681
0.089412
0.057148
0.063227
0.078190
0.104609
0.115363
0.103907
0.120741
0.183866
0.274111
0.348926
0.367630
0.345653
0.316428
0.285099
0.256810
0.248861
0.274111
0.326715
0.361317
0.343080
0.309414
0.279721
0.232728
0.182228
0.137105
0.121206
0.163991
0.221037
0.258445
0.278551
0.279720
0.281123
0.277616
0.252599
0.218465
0.163522
0.071874
-0.025620
-0.063027
-0.024685
0.014359
0.011320
-0.002007
-0.003643
-0.012294
-0.061859
-0.140883
-0.199332
-0.227855
-0.264562
-0.331895
-0.416998
-0.490878
-0.500464
-0.452535
-0.430792
-0.462589
-0.517064
-0.565694
-0.609881
-0.662720
-0.688671
-0.673708
-0.643315
-0.596789
-0.555173
-0.536704
-0.527118
-0.521507
-0.528053
-0.543718
-0.542549
-0.511220
-0.459551
-0.413026
-0.415364
-0.467033
-0.527119
-0.570839
-0.584166
-0.582295
-0.612689
-0.692180
-0.774243
-0.802767
-0.802533
-0.821938
-0.840175
-0.842980
-0.852566
-0.880622
-0.938136
-1.013185
-1.068361
-1.090572
-1.094781
-1.103431
-1.110679
-1.078181
-0.998457
-0.918030
-0.877584
-0.852334
-0.791780
-0.679558
-0.534136
-0.382168
-0.240954
-0.134343
-0.090389
-0.101845
-0.139019
-0.173154
-0.172452
-0.129434
-0.072387
-0.018380
0.019495
0.017858
-0.000378
-0.005288
0.008506
0.051758
0.097816
0.131717
0.178710
0.225937
0.245810
0.214013
0.144575
0.110675
0.108336
0.092204
0.072799
0.055264
0.066720
0.127507
0.172396
0.152991
0.084722
0.025805
0.039599
0.110206
0.188294
0.238560
0.238794
0.238092
0.266616
0.278773
0.254692
0.188761
0.088228
0.026973
0.055730
0.138728
0.203022
0.186422
0.102956
0.029076
-0.001317
0.015516
0.091032
0.178472
0.236922
0.305190
0.399878
0.513270
0.645599
0.781201
0.910023
1.013829
1.080695
1.133066
1.172343
1.181228
1.181461
1.216765
1.313323
1.445652
1.529819
1.507842
1.408945
1.303035
1.242949
1.231961
1.223778
1.193384
1.158548
1.126284
1.082330
1.003072
0.886174
0.773951
0.688147
0.624321
0.581068
0.524723
0.454583
0.408993
0.358025
0.255622
0.116512
-0.002958
-0.040132
0.009666
0.083780
0.110900
0.064141
-0.039899
-0.182749
-0.319754
-0.394804
-0.393868
-0.342199
-0.312741
-0.357396
-0.456059
-0.551682
-0.585349
-0.556358
-0.520120
-0.492298
-0.461904
-0.430810
-0.403689
-0.390129
-0.384752
-0.358800
-0.301988
-0.214080
-0.101156
-0.008806
0.032576
0.045201
0.044967
0.043798
0.056189
0.071853
0.089388
0.120717
0.150175
0.162800
0.175425
0.203247
0.254448
0.313131
0.348434
0.373918
0.412495
0.458085
0.486141
0.448499
0.353577
0.271982
0.226625
0.182204
0.112298
0.028365
-0.028682
-0.020499
0.031404
0.060161
0.050341
0.028832
0.018778
0.028598
0.024389
-0.033359
-0.137632
-0.248452
-0.319527
-0.327710
-0.278846
-0.218293
-0.204265
-0.251025
-0.311812
-0.320930
-0.283523
-0.269261
-0.291940
-0.319996
-0.349220
-0.389901
-0.441804
-0.497214
-0.528309
-0.519893
-0.517087
-0.557067
-0.608736
-0.636324
-0.624401
-0.576472
-0.512412
-0.458405
-0.463549
-0.530181
-0.594475
-0.633987
-0.654561
-0.661108
-0.665550
-0.637962
-0.555432
-0.451158
-0.375642
-0.368862
-0.411647
-0.451159
-0.452562
-0.392710
-0.312751
-0.287033
-0.330520
-0.435261
-0.565253
-0.677475
-0.800453
-0.947278
-1.057396
-1.077269
-1.019054
-0.963644
-0.971593
-1.012274
-1.030510
-1.006195
-0.963411
-0.927640
-0.893739
-0.851188
-0.797181
-0.742940
-0.694077
-0.631887
-0.547486
-0.456071
-0.386634
-0.350629
-0.309013
-0.232328
-0.147927
-0.094388
-0.064462
-0.023547
0.029057
0.047994
0.018770
-0.006714
0.022276
0.106911
0.215159
0.296754
0.332993
0.339539
0.335564
0.347955
0.377648
0.400326
0.408275
0.398689
0.381622
0.368763
0.343279
0.306339
0.268230
0.231757
0.217963
0.217028
0.205104
0.192245
0.183594
0.174710
0.156006
0.116027
0.069968
0.026248
-0.009757
-0.009523
0.040977
0.115792
0.169799
0.176345
0.157174
0.155070
0.164655
0.140107
0.072773
0.003101
-0.009056
0.044249
0.113453
0.174942
0.216557
0.225208
0.217025
0.211647
0.220765
0.235495
0.250691
0.307971
0.429078
0.577540
0.683450
0.697010
0.644873
0.585254
0.550652
0.537092
0.533819
0.542703
0.553691
0.553925
0.550418
0.549015
0.546209
0.532883
0.503658
0.456665
0.413412
0.401255
0.415516
0.450352
0.489162
0.513009
0.519555
0.505060
0.494305
0.509969
0.528673
0.543870
0.559534
0.575198
0.597643
0.615178
0.630374
0.661703
0.691395
0.693032
0.678536
0.664976
0.655390
0.644869
0.628971
0.617748
0.622190
0.640426
0.651882
0.626165
0.580574
0.565845
0.606058
0.679002
0.741660
0.796135
0.872119
0.968209
1.071547
1.161092
1.221645
1.258585
1.272613
1.285705
1.341817
1.434400
1.523477
1.590109
1.638739
1.685264
1.750026
1.829283
1.890772
1.916255
1.907605
1.886095
1.893109
1.919996
1.934257
1.940804
1.920463
1.862481
1.812449
1.797953
1.806370
1.813851
1.817592
1.816189
1.789068
1.744179
1.676144
1.563454
1.447022
1.385767
1.392781
1.425045
1.400029
1.296456
1.161789
1.048865
0.971010
0.878427
0.744461
0.603481
0.484945
0.394933
0.311234
0.203921
0.076034
-0.038995
-0.120356
-0.184884
-0.259933
-0.350881
-0.445101
-0.525761
-0.559896
-0.529268
-0.466611
-0.389224
-0.283080
-0.164078
-0.065649
-0.006732
0.035585
0.090527
0.143833
0.173291
0.175629
0.182409
0.219349
0.265407
0.282007
0.238053
0.157392
0.121387
0.165575
0.232441
0.254652
0.238519
0.214204
0.195734
0.178433
0.139623
0.106657
0.109930
0.137986
0.198539
0.257222
0.262600
0.228465
0.168379
0.090524
0.015242
-0.042506
-0.066120
-0.061210
-0.061210
-0.090669
-0.137195
-0.179278
-0.216686
-0.248249
-0.271629
-0.293839
-0.313479
-0.315817
-0.291736
-0.255263
-0.228377
-0.209205
-0.187696
-0.180916
-0.196113
-0.208271
-0.196113
-0.158706
-0.127143
-0.114285
-0.109609
-0.136028
-0.190503
-0.228378
-0.224404
-0.168526
-0.087165
-0.033859
-0.027781
-0.051628
-0.071968
-0.087165
-0.140471
-0.255733
-0.402792
-0.541200
-0.676803
-0.851917
-1.067010
-1.255217
-1.359257
-1.385676
-1.393626
-1.444594
-1.532268
-1.577391
-1.536710
-1.451374
-1.395263
-1.395029
-1.393626
-1.336580
-1.246802
-1.170584
-1.147672
-1.206823
-1.298472
-1.334243
-1.300810
-1.244231
-1.194900
-1.149309
-1.094835
-1.031710
-0.969286
-0.915513
-0.844906
-0.717954
-0.548217
-0.375675
-0.229552
-0.120836
-0.021706
0.081398
0.169773
0.231730
0.271943
0.325248
0.377151
0.368033
0.338808
0.349329
0.365461
0.369435
0.401465
0.487269
0.597855
0.677112
0.718027
0.754265
0.794712
0.851992
0.924937
0.961877
0.932184
0.885425
0.881450
0.898517
0.862278
0.754965
0.623571
0.549224
0.558108
0.570733
0.540339
0.472771
0.368264
0.287604
0.249962
0.203437
0.161821
0.130258
0.068769
0.004475
-0.064729
-0.207580
-0.385733
-0.482292
-0.460782
-0.366562
-0.289409
-0.268368
-0.244520
-0.204307
-0.154976
-0.049066
0.080224
0.169768
0.246453
0.333893
0.419931
0.460144
0.428113
0.402629
0.424372
0.449389
0.463183
0.451025
0.412215
0.368728
0.318695
0.284561
0.277547
0.279885
0.302563
0.356570
0.462246
0.598316
0.681080
0.714747
0.749115
0.774833
0.779509
0.747478
0.679443
0.601822
0.533787
0.486093
0.417122
0.324772
0.291105
0.320096
0.345814
0.313783
0.231019
0.185195
0.166023
0.109444
0.054969
0.012652
-0.033640
-0.071515
-0.104948
-0.118509
-0.128796
-0.156618
-0.152877
-0.087882
0.003767
0.063385
0.085829
0.106637
0.126977
0.165788
0.231485
0.275438
0.265619
0.200857
0.126275
0.055902
-0.055152
-0.174856
-0.286143
-0.454478
-0.676351
-0.863623
-0.935165
-0.934698
-0.981691
-1.087367
-1.185562
-1.226009
-1.219931
-1.234192
-1.284459
-1.323971
-1.295681
-1.190239
-1.073808
-1.004370
-0.969535
-0.921373
-0.843051
-0.779925
-0.781562
-0.806578
-0.769872
-0.702773
-0.670976
-0.653208
-0.633335
-0.593356
-0.524854
-0.477159
-0.453312
-0.432738
-0.424087
-0.428062
-0.458456
-0.498435
-0.483940
-0.416139
-0.356988
-0.325426
-0.292460
-0.240557
-0.177666
-0.131842
-0.127867
-0.162937
-0.205254
-0.209229
-0.165275
-0.092331
-0.034817
-0.032713
-0.052352
-0.070120
-0.100514
-0.130207
-0.155457
-0.153353
-0.118049
-0.094202
-0.093501
-0.113374
-0.121089
-0.076434
-0.004892
0.058233
0.080444
0.087458
0.142400
0.186354
0.159233
0.087457
-0.021726
-0.144470
-0.207128
-0.191230
-0.162940
-0.110570
0.029241
0.132813
0.071558
-0.033651
0.008666
0.236619
0.462233
0.495899
0.422721
0.387184
0.410563
0.472286
0.503848
0.441892
0.285481
0.123226
0.087922
0.160166
0.221187
0.249242
0.262802
0.254385
0.231707
0.204820
0.183545
0.210431
0.279401
0.321017
0.331070
0.318913
0.248306
0.126497
0.026198
-0.028277
-0.100988
-0.199416
-0.288727
-0.351385
-0.316082
-0.186090
-0.065451
-0.017289
-0.021497
0.012403
0.101480
0.179100
0.213235
0.209728
0.231938
0.308857
0.399571
0.476490
0.511793
0.511559
0.505948
0.537978
0.635705
0.700467
0.682464
0.659318
0.671476
0.733432
0.816897
0.867164
0.891479
0.913455
0.981724
1.128549
1.269528
1.302961
1.260878
1.233991
1.200090
1.084127
0.899193
0.743951
0.712155
0.749562
0.746757
0.716363
0.683865
0.668434
0.703270
0.728754
0.724545
0.730624
0.700464
0.622609
0.539144
0.463159
0.426921
0.395124
0.313061
0.229596
0.189382
0.194993
0.209255
0.168574
0.083238
-0.000228
-0.047923
-0.050027
-0.037869
-0.032492
-0.039272
-0.048858
-0.011685
0.066170
0.080198
-0.028284
-0.173940
-0.193579
-0.100061
-0.057042
-0.050963
-0.017530
0.004914
0.021514
0.041620
0.097030
0.179794
0.195224
0.192653
0.216967
0.220474
0.217435
0.186807
0.135839
0.112460
0.088612
0.046762
0.030163
0.083001
0.128591
0.095625
0.045593
0.014030
0.037643
0.088144
0.064062
0.011224
-0.022443
-0.021508
0.058685
0.139578
0.147294
0.074349
-0.050499
-0.143551
-0.184933
-0.191713
-0.211352
-0.299260
-0.371503
-0.347422
-0.259281
-0.183765
-0.165061
-0.138408
-0.059385
0.020574
0.071542
0.101000
0.097259
0.071775
0.048161
-0.015665
-0.107080
-0.155710
-0.175349
-0.190312
-0.250632
-0.341346
-0.318433
-0.256945
-0.317732
-0.423175
-0.470168
-0.439775
-0.378520
-0.369636
-0.410083
-0.461986
-0.505005
-0.508979
-0.533528
-0.683860
-0.885861
-1.002993
-1.100019
-1.268354
-1.441364
-1.530207
-1.555924
-1.634948
-1.768914
-1.816141
-1.749275
-1.646872
-1.560601
-1.519920
-1.482981
-1.389929
-1.254561
-1.100956
-0.973069
-0.912516
-0.865055
-0.791643
-0.716828
-0.676381
-0.705138
-0.725712
-0.668198
-0.579589
-0.463626
-0.345325
-0.256716
-0.153611
-0.057287
-0.000474
0.051663
0.100292
0.111748
