EVENT_NAME: 202302060117
EVENT_ID: 13194
EVENT_DATE_YYYYMMDD: 2023/02/06
EVENT_TIME_HHMMSS: 01:17:32.00000
EVENT_LATITUDE_DEGREE: 37.288
EVENT_LONGITUDE_DEGREE: 37.043
EVENT_DEPTH_KM: 8.6
HYPOCENTER_REFERENCE: AFAD
MAGNITUDE_W: 7.7
MAGNITUDE_W_REFERENCE: AFAD
MAGNITUDE_L: 
MAGNITUDE_L_REFERENCE: 
FOCAL_MECHANISM: 
NETWORK: TK
STATION_CODE: 4613
STATION_NAME: 
STATION_LATITUDE_DEGREE: 37.5701
STATION_LONGITUDE_DEGREE: 36.35737
STATION_ELEVATION_M: 965.0
LOCATION: Kahramanmaras_Pazarck_Turkiye
SENSOR_DEPTH_M: 
VS30_M/S: None
SITE_CLASSIFICATION_EC8: unknown
MORPHOLOGIC_CLASSIFICATION: 
EPICENTRAL_DISTANCE_KM: 68.19
EARTHQUAKE_BACKAZIMUTH_DEGREE: 
DATE_TIME_FIRST_SAMPLE_YYYYMMDD_HHMMSS: 2023/02/06 01:17:18.8412820
DATE_TIME_FIRST_SAMPLE_PRECISION: millisecond
SAMPLING_INTERVAL_S: 0.01
NDATA: 10501
DURATION_S: 
STREAM: HNN
UNITS: cm/s^2
INSTRUMENT: sensor = GMS+/GEOSIG | digitizer = 
INSTRUMENT_ANALOG/DIGITAL: 
INSTRUMENTAL_FREQUENCY_HZ: 
INSTRUMENTAL_DAMPING: 
FULL_SCALE_G: 
N_BIT_DIGITAL_CONVERTER: 
PGA_CM/S^2: 146.934
TIME_PGA_S: 
BASELINE_CORRECTION: BASELINE REMOVED
FILTER_TYPE: BUTTERWORTH
FILTER_ORDER: 
LOW_CUT_FREQUENCY_HZ: 
HIGH_CUT_FREQUENCY_HZ: 
LATE/NORMAL_TRIGGERED: 
DATABASE_VERSION: 
HEADER_FORMAT: DYNA 1.2
DATA_TYPE: Acceleration
PROCESSING: Automatic Paolucci et al., 2011
DATA_TIMESTAMP_YYYYMMDD_HHMMSS: 
DATA_LICENSE: U (unknown license)
DATA_CITATION: Turkish Accelerometric Archive v 1.0 - Disaster And Emergency Management Presidency, Earthquake Department
DATA_CREATOR: AFAD
ORIGINAL_DATA_MEDIATOR_CITATION: : AFAD - Disaster And Emergency Management Presidency
ORIGINAL_DATA_MEDIATOR: AFAD PROCESS SERVICE
ORIGINAL_DATA_CREATOR_CITATION: AFAD PROCESS SERVICE
ORIGINAL_DATA_CREATOR: network: TK
USER1: GuestUser
USER2: 
USER3: 
USER4: 
USER5: 
[...]
-0.098152
5.106560
4.748341
-0.684184
-3.239000
4.961096
20.906692
18.798676
-6.172033
-29.936641
-33.544036
-10.287013
9.269617
13.612678
30.747232
44.274908
26.516395
-1.648681
-18.916493
-37.032446
-44.866266
-22.773782
1.657393
8.306154
6.109038
-0.452178
-11.026030
-17.528280
-20.576135
-23.050943
-13.151965
2.396965
15.717866
26.045460
29.900158
27.578094
13.828839
2.111229
8.466193
28.242327
39.095692
28.900322
25.676084
43.320821
48.309926
12.159064
-32.242546
-49.638423
-56.066638
-56.527725
-40.494068
-16.525540
3.572706
21.702430
36.643243
35.034242
13.815361
-11.502918
-24.454166
-23.719541
-20.428020
-22.252109
-21.508392
-1.252987
30.327261
40.980085
31.714165
19.501697
11.094050
3.251398
-12.151020
-19.976008
-13.577922
0.459938
4.551284
-7.922770
-10.772683
-1.329598
7.732148
8.969944
-2.828714
-16.035573
-24.543491
-39.984614
-50.864473
-33.695890
-7.567391
-1.601560
-1.524667
7.868283
10.927571
12.117569
27.515055
44.510892
43.127629
25.470945
11.992628
14.185331
20.473535
14.599144
7.218360
7.059903
2.599169
-2.492540
-11.573765
-18.748554
-4.998517
8.930241
16.210758
18.287864
3.925037
-9.369105
-14.137403
-13.200938
-6.714792
-0.648170
1.671819
5.787843
18.157473
20.285753
9.615787
4.254439
-4.375570
-16.470103
-13.679674
-5.258257
-11.361762
-17.891287
-1.917637
8.512307
-7.483681
-17.379279
-9.899260
8.146299
19.794814
14.391643
13.022408
9.614254
-10.975470
-26.333208
-11.560984
16.681246
37.449953
49.084700
55.329003
61.163392
46.963180
9.506205
-19.485712
-18.849019
-7.624706
-3.544789
4.761292
6.501479
-0.621876
-6.127136
-18.318823
-33.060651
-34.072965
-27.914385
-19.384125
5.077962
27.766873
33.472417
21.209555
-3.367087
-19.104866
-25.561656
-25.192524
-16.918394
-8.894422
-23.434410
-47.903508
-36.099652
-8.782975
5.860404
18.774508
24.364715
28.683098
31.370659
20.704849
12.618015
19.298728
32.631838
23.281233
0.049150
-4.997360
0.435688
9.458728
1.409561
-13.226801
-16.686389
-27.190104
-22.686246
-6.466855
-1.631014
-9.457820
-19.040138
-2.318095
10.843048
-8.953085
-31.477040
-30.824502
-3.730187
20.136253
12.750273
-13.995431
-32.540002
-31.752904
-20.025160
-9.255180
-2.415229
9.723208
13.805722
4.828923
-1.273024
-4.935490
7.622212
15.483570
-0.909863
-9.970306
-16.615948
-24.835523
-19.635747
-1.685003
11.391197
7.129445
7.505071
18.878492
35.646513
54.737119
62.631987
46.827188
8.588312
-19.767693
-25.168526
-21.596716
-11.004677
2.865892
12.704864
13.959544
20.165921
32.884160
19.042428
-19.193851
-44.996337
-46.563516
-26.079774
10.427232
37.963672
43.162669
36.551317
32.881317
28.043661
5.794799
-21.732806
-40.288027
-47.046928
-46.517519
-52.860531
-64.024056
-55.891500
-18.914833
16.744810
34.029509
37.550665
35.646567
32.405185
17.385145
-1.386203
-17.701965
-41.247588
-53.894388
-28.886009
12.859477
33.727935
29.280190
11.417510
-5.782502
-18.985725
-32.749527
-39.960163
-37.696284
-28.017850
-13.733210
1.702201
15.595371
24.020166
34.739750
33.152310
11.534425
16.483525
47.691785
46.805718
10.992035
-10.372057
-2.200016
4.602528
-4.629363
-13.899699
-8.823313
10.055322
24.470365
25.475409
18.089949
4.751127
3.613605
18.536494
23.713930
4.832960
-29.532257
-54.001614
-53.316605
-47.129711
-56.725277
-60.278900
-38.467485
-11.259911
9.425930
18.957076
23.094661
22.426280
-5.448635
-29.826035
-19.264389
1.479639
15.766877
21.087964
30.321936
37.822736
21.474244
-5.955949
-34.388326
-55.602272
-50.461983
-16.176772
20.045009
32.283457
31.336085
29.244435
29.806574
20.244519
3.858100
4.805215
10.572064
18.957634
27.733635
23.086908
10.984582
-9.034172
-24.496077
-18.646102
-12.382576
-11.840699
2.093774
21.563641
38.183854
38.523112
12.232781
-17.877177
-30.644769
-33.486628
-40.160844
-40.181364
-40.565040
-41.515010
-23.416977
-8.527078
-15.509379
-26.782007
-31.409251
-40.377477
-39.740265
-9.802270
12.328400
-1.201092
-15.070359
-1.960390
5.890837
-8.726822
-10.923159
14.574883
46.353853
52.316048
32.466143
15.586945
7.372045
14.178486
33.741610
44.779670
42.410848
33.563673
24.132540
-4.532589
-42.907063
-42.610147
-19.489762
-21.275665
-35.809678
-28.690737
-24.743822
-34.273926
-15.467506
8.801054
10.193931
13.004102
20.323324
15.415530
-9.205272
-38.483194
-45.493809
-17.292882
8.949914
-1.411967
-22.313672
-35.402857
-42.559202
-47.401534
-52.958488
-58.700916
-60.775681
-35.340244
20.041240
67.187561
76.621814
65.368669
56.066641
38.995733
20.892249
18.203912
31.928232
49.131624
44.705699
36.469759
45.246020
43.250484
26.830555
14.853956
14.516000
15.571438
7.058325
7.229254
20.986045
27.811969
-1.561288
-55.921101
-82.337939
-74.821293
-48.441080
-14.259256
11.904830
28.436463
24.779451
-0.069687
-17.381659
-15.894227
-15.516263
-30.802305
-45.326188
-31.915148
-3.314957
8.021056
10.844995
22.753797
21.069983
-0.630249
-20.776029
-37.514174
-40.224591
-17.796227
17.261794
43.016227
49.648623
50.694190
50.645875
42.593850
17.054248
-20.206342
-42.734453
-36.705238
-5.676738
29.044104
53.233435
63.741309
49.321333
20.622694
-19.019449
-61.565277
-72.401754
-50.611640
-6.221976
30.098777
37.494371
37.735437
32.073797
9.047190
-36.292442
-79.628224
-98.022390
-93.833371
-80.680020
-68.378709
-45.162209
-21.908043
-24.634046
-49.412008
-65.822066
-70.082518
-73.314289
-61.790723
-31.521524
9.717415
35.118043
20.716251
-1.072821
3.413113
10.711814
-5.107272
-20.191214
-11.231298
6.604889
12.915433
19.928389
43.462585
49.641426
28.593472
23.999218
33.751946
31.116862
22.309432
14.594845
14.862408
17.695958
4.444678
-23.614412
-44.223099
-36.525135
-21.615754
-17.840545
-11.198797
5.395439
37.727455
54.954486
27.871084
-1.145771
-7.878435
-1.439566
8.326411
-1.125763
-16.470253
-11.589732
1.230856
-2.546948
-12.241225
-0.244102
22.423508
24.097714
-1.274597
-22.259947
-16.245279
-9.078281
-14.955269
-0.236297
33.455604
48.865818
46.768973
50.264671
57.166706
44.038816
13.201248
-21.839625
-46.561477
-31.491559
19.192541
55.756697
52.571684
26.047042
-3.949657
-19.881223
-33.320055
-49.570615
-45.965554
-31.350230
-25.294259
-20.506735
-0.153397
9.638296
-7.450795
-19.626635
-19.738334
-21.103153
-28.976458
-19.923025
13.157123
40.201563
64.695342
81.276849
54.346970
-0.313135
-43.421621
-56.086085
-38.367573
-18.908356
-9.011716
0.809331
9.300886
5.871431
-1.860559
-3.010810
-7.361662
-0.717836
25.298443
46.207424
46.723325
34.650872
29.174706
33.466593
22.805978
-14.912582
-58.767381
-71.912676
-42.505906
-2.372280
38.892376
54.638210
17.095252
-22.478571
-43.752783
-53.054032
-35.044320
-5.433633
28.657531
63.218616
69.604752
51.778439
37.537184
30.909467
19.576833
5.968892
-9.201034
-30.787487
-32.663270
-18.994540
-19.022334
-19.727343
-8.259626
2.272146
-1.842057
-12.687106
-24.466541
-32.283996
-28.516840
-29.356928
-33.816102
-24.598496
-8.425084
-3.692370
-14.196085
-28.636842
-38.905207
-40.113646
-42.370508
-55.475538
-56.380049
-37.411014
-23.708515
-23.897364
-26.743121
-20.191253
-6.162225
1.566392
2.422329
7.728350
17.493807
20.232801
7.744720
-8.674170
-9.252152
-2.012679
5.153281
20.868203
30.363501
13.464820
-10.864263
-12.337665
-0.340542
1.089482
-2.844962
12.649417
41.168560
43.787541
10.505817
-23.202187
-32.480057
-44.820590
-74.913404
-94.319105
-80.530882
-33.855261
10.269180
23.762826
28.475018
37.935507
35.228987
27.956266
37.910574
45.637632
37.990845
33.999253
27.446089
12.791803
8.065846
27.234642
54.883302
54.856288
28.827284
0.706109
-8.930760
-0.597923
-0.974066
0.730793
9.486272
3.460956
-7.933502
-11.924575
-3.918007
1.855856
-14.204034
-26.630551
-6.840910
32.697848
57.087200
53.839323
40.105654
17.729247
-9.982534
-26.200883
-26.584559
-11.161356
10.040124
30.896372
56.522739
75.057442
60.616165
15.668003
-21.320350
-38.918326
-46.361195
-42.351936
-24.009981
11.840332
45.239215
46.833672
16.496676
-9.622987
-11.496172
-15.953269
-23.555375
-10.144595
2.419342
-4.968716
-2.559887
11.206775
11.604482
11.441868
17.309767
20.075778
23.504456
16.185496
-17.411067
-49.259912
-40.796412
-21.047554
-16.639550
-10.416029
-12.276745
-12.934476
3.456102
17.283290
18.048828
10.225918
-3.576329
-22.368719
-10.777613
33.076150
47.858505
28.290968
16.969244
24.198587
22.755318
-7.980162
-41.899876
-27.006341
22.496075
46.545911
45.737255
34.733747
24.882050
25.828126
22.670389
13.024688
-5.020869
-18.638162
-12.033561
4.650555
25.471995
43.869799
43.188689
22.246201
3.068056
-5.292573
-1.240192
8.953882
6.979907
5.383635
13.943769
18.943004
13.405792
1.323988
-1.976362
6.321925
22.749910
30.958838
11.515470
-4.446488
-0.519835
5.138432
5.441063
-3.851094
-11.116282
-17.300576
-26.463108
-14.112181
12.007745
16.311322
7.538960
-0.500336
-16.363842
-27.755443
-29.385745
-25.396488
-16.548531
-6.232886
0.797215
0.164942
1.844083
-0.576693
-5.270438
-5.764255
-26.152139
-51.159217
-61.226521
-62.300920
-41.916410
-6.665901
13.858624
8.494937
4.347484
11.874521
11.872184
11.689569
19.403379
19.044381
1.625125
-10.821653
-0.833316
22.433319
48.467782
59.214642
51.055073
43.290352
29.923475
10.974446
1.213667
-11.714721
-21.337303
-13.993922
-3.939862
3.320393
7.957511
4.596895
-4.984383
-14.689571
-23.211257
-17.836137
13.571625
50.212411
62.828821
51.067570
35.808804
28.758444
28.313463
26.058159
25.194952
36.444463
45.185136
33.889909
1.929883
-33.341144
-39.937689
-26.718878
-30.566818
-42.301573
-28.457500
1.883655
9.282626
-3.252474
-5.091369
1.092408
-0.245656
-5.671686
0.804070
15.543043
8.304092
-14.455473
-8.432233
20.695546
31.255114
9.170945
-21.649738
-31.038789
-22.869086
-2.122200
23.730944
47.487242
71.300689
68.422202
46.728205
33.583170
21.698529
15.965453
23.641596
47.945485
79.979547
95.975278
90.456769
72.289641
48.738823
16.689438
-21.306036
-47.971731
-49.289792
-33.296659
-24.599627
-26.882726
-30.585976
-26.464497
-14.320085
-15.757639
-19.047599
-11.885536
-19.956004
-26.901158
-21.809705
-41.363215
-72.570952
-74.255286
-54.902834
-39.008412
-34.748217
-36.668680
-25.009515
-4.274058
1.927123
5.350866
15.377909
13.424716
-2.949754
-18.571156
-19.332794
-3.889070
9.000616
-1.032919
-19.447866
-9.574605
28.291247
51.054972
24.570334
-27.375456
-52.614506
-45.846771
-27.526376
-3.206642
14.989063
22.756126
26.464574
25.064946
19.912970
2.422797
-26.486254
-41.207041
-36.605510
-23.784663
-9.431704
-0.009141
12.961852
28.838349
37.468880
39.939535
28.233095
15.240284
22.186480
37.203925
34.949920
2.011868
-26.584423
-11.003281
30.722722
65.282508
76.310697
59.073278
32.329912
4.509289
-38.641019
-76.872622
-85.231432
-66.619579
-35.026603
-13.682510
-9.111632
0.794619
20.275916
6.163765
-36.252958
-55.208222
-57.198043
-70.871705
-91.143992
-87.049269
-53.894828
-26.271365
-27.575139
-49.096650
-61.989450
-52.260621
-28.214162
6.454726
40.529785
46.754865
30.613667
16.661793
5.093030
0.046001
3.542998
6.420449
13.857086
22.766088
23.692682
23.378884
25.231290
24.737993
12.487599
-6.770035
-19.671408
-29.152416
-23.908479
-9.791650
-10.998270
-21.478606
-34.249055
-36.235759
-36.684376
-52.344224
-55.370259
-37.334311
-13.113808
-0.974332
-9.378603
-20.024930
-26.713952
-27.112954
-10.005936
15.579907
22.247112
11.596369
20.985162
47.737104
51.947164
22.691322
-22.632724
-52.408620
-53.047128
-36.144548
-4.886932
28.930178
46.234100
45.763661
39.542221
45.130090
49.623038
30.399434
2.443211
-22.272146
-39.363835
-39.290839
-19.771616
3.450859
-7.710069
-54.659483
-91.382873
-85.278585
-58.292333
-49.771424
-38.904291
-10.487497
3.500747
-1.380810
-13.378710
-20.084357
-15.343851
-12.948789
-20.157088
-25.503370
-7.177781
26.145510
38.266023
21.178490
4.878834
5.583586
7.415211
1.926836
-12.479372
-24.204775
-20.606988
-24.284261
-32.366419
-14.490229
9.161123
18.912552
26.459851
28.002095
21.902226
18.596161
22.986500
14.062175
-30.973009
-84.350121
-103.729326
-85.131240
-50.526774
-20.078595
5.120973
21.611302
13.524468
-4.854371
-14.625540
-11.703928
-4.122080
-17.432068
-25.353429
-9.151443
-2.697507
6.892607
30.590197
36.415753
11.629479
-20.938663
-28.756897
-6.218651
20.955933
20.189619
-1.669331
-15.180379
-12.688424
-6.188509
-5.633124
2.176021
21.850066
37.086495
39.955114
39.111129
30.835444
8.457478
-8.564333
-8.119349
6.968493
18.936002
2.644399
-24.031428
-30.402754
-23.575792
-20.155686
-25.659387
-18.288731
7.468819
15.608389
2.905479
-13.918389
-23.578377
-30.229993
-44.311492
-47.183484
-44.754133
-42.880685
-18.531857
13.042156
30.555711
36.885737
27.093787
4.283567
-14.241781
-13.367920
-0.292760
4.458656
8.298288
22.696186
37.747141
34.510434
3.045007
-29.698738
-29.675877
-7.894855
2.297141
-7.460520
-29.450133
-51.005414
-51.104384
-28.266626
-2.328278
16.701802
19.878246
9.505974
19.123363
48.700281
62.227177
61.575161
64.588470
65.394272
53.725498
37.400125
31.796413
26.852511
15.069959
3.104790
-13.972871
-25.270177
-29.775590
-34.698970
-32.046738
-41.080426
-78.698197
-124.653479
-146.933772
-137.364959
-112.659470
-85.206415
-55.278811
-23.029141
-0.755339
9.445489
13.341490
8.965441
1.817149
0.376997
22.178801
66.623535
88.521713
75.816725
65.164423
65.433025
57.149547
43.049345
37.978677
33.272723
26.651240
36.748161
68.235931
88.170523
64.827259
30.747008
13.866251
2.555957
7.090727
28.542104
47.844421
51.065544
34.361429
13.114233
-13.167525
-49.057840
-65.931064
-62.244695
-52.093483
-14.843021
36.872877
63.580658
47.120465
2.330762
-26.900921
-32.337343
-36.098261
-46.781735
-47.781581
-26.339555
-3.250082
3.515055
1.989959
15.115255
29.096745
16.863756
-1.191412
-7.609497
-2.513109
2.867206
8.331945
36.529755
57.532772
43.488941
26.771058
22.578665
17.308235
3.089579
-3.649059
18.707609
50.746867
57.942180
53.382735
51.345636
19.913979
-32.205596
-64.176532
-77.614845
-76.321978
-51.528427
2.299904
56.071346
67.518541
51.268760
21.581184
-1.032132
-2.396431
-9.843976
-14.670723
-16.577158
-12.840914
10.306487
22.521556
12.591669
-2.276926
-15.925651
-24.621121
-12.521130
10.220255
16.162967
7.536076
-4.098668
-16.485181
-24.548376
-20.854474
-11.748308
-7.244710
-7.664494
-1.081454
8.633868
-9.362333
-55.853776
-94.819222
-103.204270
-82.046431
-46.318469
-7.970227
28.307404
55.150004
68.466229
62.936550
44.921387
29.601315
24.858474
30.722996
31.306176
23.256489
25.425553
46.600537
57.324537
44.346793
39.319246
30.702226
0.794367
-31.139941
-50.426149
-46.185696
-36.972506
-34.875138
-15.672572
15.228642
26.418926
22.743471
25.501429
26.027460
17.527855
8.449488
10.928974
25.724057
34.347575
31.744182
14.887323
-9.635546
-20.463711
-13.700392
3.363505
5.766619
-6.362463
8.359885
45.797120
57.629291
25.754210
-19.752713
-43.420167
-36.773484
-14.113926
0.903259
11.326189
31.732519
50.959243
59.348710
41.650723
-4.917092
-41.473711
-52.098997
-51.155259
-40.931571
-12.571926
24.903235
47.349783
63.149908
86.423817
89.549606
49.120627
2.826607
-5.486744
12.110456
33.860826
52.393710
51.154878
15.185335
-28.113560
-42.220776
-40.582937
-30.739290
-5.624666
13.662844
16.430413
11.755111
2.240593
-16.384246
-44.185387
-60.361394
-37.930432
14.583213
48.745035
45.253755
30.613237
14.260328
6.059196
5.065066
-5.475276
-5.344611
7.926414
12.702249
6.893839
0.413151
5.126901
13.789383
11.380817
0.310289
-8.524677
-18.009322
-20.143054
-5.216528
-1.009325
-18.214792
-32.298628
-27.188212
-14.125521
-11.540829
-9.046016
-1.212713
-6.919293
-27.579934
-44.178843
-40.392724
-16.691237
3.946027
4.088381
-1.109573
9.505065
27.337355
23.602673
1.892570
-3.068476
17.556839
49.517906
75.317019
81.773812
61.399176
17.496061
-14.883490
-12.790798
3.747588
10.683393
-3.626181
-27.603539
-29.401131
-10.135442
5.807297
22.542847
37.069070
29.746734
7.058864
-5.634174
0.299706
8.165220
9.627975
12.403337
21.804599
35.374358
38.885902
14.879451
-21.331677
-38.858737
-44.774690
-45.828567
-31.889159
-7.087815
13.512822
15.195600
0.672756
-10.442712
-10.119039
-20.063214
-45.874273
-66.749741
-63.333012
-28.063800
5.047260
12.523642
5.690448
-11.738679
-29.903469
-26.447255
5.575377
23.026588
-2.458462
-35.800973
-53.230360
-57.011281
-49.920654
-37.451532
-22.804776
-2.210634
11.693446
9.409048
3.827416
-15.904813
-49.993117
-71.066529
-64.686627
-39.855150
-20.896506
0.889711
29.436129
41.251415
51.550955
63.986567
42.438299
-3.719342
-25.891832
-11.617843
3.629237
-6.909546
-14.317087
14.508062
55.155769
69.784601
63.358984
54.174630
37.346866
5.984566
-29.508303
-51.400503
-47.104200
-21.700974
2.232486
15.807699
38.965491
59.886422
30.460433
-24.982613
-34.723909
-1.332039
19.826839
19.528627
31.783180
49.454414
34.610497
-2.688798
-18.245778
-11.527139
-12.497371
-21.679126
-28.560118
-29.506191
-24.592160
-21.035156
-22.577656
-26.365591
-33.734945
-45.991834
-49.162559
-42.766552
-36.349504
-23.648409
-6.738815
10.855528
20.619166
14.747114
8.677898
2.838316
-8.978525
-23.561635
-42.932008
-49.401527
-27.770650
2.101364
11.588349
6.795892
22.434183
51.073598
61.006345
57.807045
49.095210
29.366097
3.964692
-14.730025
1.475339
38.499543
36.323469
2.567927
-24.473133
-30.110874
-26.067585
-21.725563
7.085299
32.040685
29.557825
26.787921
27.272130
20.574795
-0.666167
-25.071362
-46.427401
-52.665466
-25.342555
11.063921
36.097757
46.718110
41.079849
22.327983
-5.486666
-22.733696
-24.735206
-26.614106
-28.633800
-24.354382
-11.989687
-0.016982
2.979183
4.230486
7.072089
-2.135643
-18.446989
-17.682231
-4.141826
8.270146
26.142960
47.436658
60.002413
61.642070
46.357067
22.851968
5.820545
-7.577504
2.744117
33.425567
48.170775
49.785494
48.046609
23.910014
-28.500760
-63.227314
-49.651322
-15.105044
7.273964
3.126511
0.168795
9.516545
-0.205268
-17.058490
-22.094089
-18.376030
-7.811526
4.631359
12.115014
-2.375099
-22.755190
-22.294100
-14.144140
-21.074747
-44.771295
-57.339904
-38.911707
-2.895662
14.843112
6.266356
-5.674395
-19.351434
-30.082186
-28.885953
-17.368881
-8.315968
-14.233479
-7.448859
25.646615
46.335053
43.396040
49.360053
64.985615
58.564413
26.506715
-6.138578
-24.198162
-31.096298
-25.178783
2.949149
33.467985
37.671811
29.102068
30.377270
35.990077
31.247496
17.981929
-0.582125
-18.042164
-15.144711
-2.679746
1.496544
6.501494
17.130160
23.125865
18.063250
7.376658
1.349005
3.066592
-3.893109
-17.626258
-22.980073
-24.408276
-12.369070
6.427998
4.716908
-11.779393
-20.840096
-12.969127
-5.081013
-5.607561
-0.433502
5.516744
1.085104
-7.722326
-8.435127
4.504434
24.015604
27.195685
4.063093
-20.494846
-31.947233
-33.672869
-18.842717
