EVENT_NAME: 202302060117
EVENT_ID: 13194
EVENT_DATE_YYYYMMDD: 2023/02/06
EVENT_TIME_HHMMSS: 01:17:32.00000
EVENT_LATITUDE_DEGREE: 37.288
EVENT_LONGITUDE_DEGREE: 37.043
EVENT_DEPTH_KM: 8.6
HYPOCENTER_REFERENCE: AFAD
MAGNITUDE_W: 7.7
MAGNITUDE_W_REFERENCE: AFAD
MAGNITUDE_L: 
MAGNITUDE_L_REFERENCE: 
FOCAL_MECHANISM: 
NETWORK: TK
STATION_CODE: 2411
STATION_NAME: 
STATION_LATITUDE_DEGREE: 39.97017
STATION_LONGITUDE_DEGREE: 40.02086
STATION_ELEVATION_M: 1732.0
LOCATION: Kahramanmaras_Pazarck_Turkiye
SENSOR_DEPTH_M: 
VS30_M/S: 284
SITE_CLASSIFICATION_EC8: C
MORPHOLOGIC_CLASSIFICATION: 
EPICENTRAL_DISTANCE_KM: 394.74
EARTHQUAKE_BACKAZIMUTH_DEGREE: 
DATE_TIME_FIRST_SAMPLE_YYYYMMDD_HHMMSS: 2023/02/06 01:18:02.3089390
DATE_TIME_FIRST_SAMPLE_PRECISION: millisecond
SAMPLING_INTERVAL_S: 0.01
NDATA: 21001
DURATION_S: 
STREAM: HNZ
UNITS: cm/s^2
INSTRUMENT: sensor = CMG-5T/GURALP | digitizer = 
INSTRUMENT_ANALOG/DIGITAL: 
INSTRUMENTAL_FREQUENCY_HZ: 
INSTRUMENTAL_DAMPING: 
FULL_SCALE_G: 
N_BIT_DIGITAL_CONVERTER: 
PGA_CM/S^2: 46.870
TIME_PGA_S: 
BASELINE_CORRECTION: BASELINE REMOVED
FILTER_TYPE: BUTTERWORTH
FILTER_ORDER: 
LOW_CUT_FREQUENCY_HZ: 
HIGH_CUT_FREQUENCY_HZ: 
LATE/NORMAL_TRIGGERED: 
DATABASE_VERSION: 
HEADER_FORMAT: DYNA 1.2
DATA_TYPE: Acceleration
PROCESSING: Automatic Paolucci et al., 2011
DATA_TIMESTAMP_YYYYMMDD_HHMMSS: 
DATA_LICENSE: U (unknown license)
DATA_CITATION: Turkish Accelerometric Archive v 1.0 - Disaster And Emergency Management Presidency, Earthquake Department
DATA_CREATOR: AFAD
ORIGINAL_DATA_MEDIATOR_CITATION: : AFAD - Disaster And Emergency Management Presidency
ORIGINAL_DATA_MEDIATOR: AFAD PROCESS SERVICE
ORIGINAL_DATA_CREATOR_CITATION: AFAD PROCESS SERVICE
ORIGINAL_DATA_CREATOR: network: TK
USER1: GuestUser
USER2: 
USER3: 
USER4: 
USER5: 
[...]
-0.141875
-0.148026
-0.141874
-0.142521
-0.144463
-0.149967
-0.171336
-0.192704
-0.215044
-0.228319
-0.243212
-0.258429
-0.269760
-0.285625
-0.312821
-0.338075
-0.371748
-0.410600
-0.451072
-0.494781
-0.529425
-0.558240
-0.588675
-0.603568
-0.610366
-0.623317
-0.635944
-0.660874
-0.679976
-0.698755
-0.712353
-0.724979
-0.743758
-0.758651
-0.776782
-0.800417
-0.831499
-0.855782
-0.876179
-0.902728
-0.929277
-0.957122
-0.980757
-0.994679
-1.001477
-0.999858
-0.998886
-1.002771
-1.013779
-1.028996
-1.040327
-1.039355
-1.027051
-1.006653
-0.983016
-0.967798
-0.961322
-0.974920
-0.994670
-1.018305
-1.027370
-1.026722
-1.031578
-1.028340
-1.029635
-1.040319
-1.048413
-1.046146
-1.038051
-1.013443
-0.980417
-0.945773
-0.906919
-0.886197
-0.868388
-0.864826
-0.866768
-0.863854
-0.861911
-0.855434
-0.845397
-0.842806
-0.838920
-0.837625
-0.843128
-0.853165
-0.872267
-0.895255
-0.918890
-0.933783
-0.941229
-0.945114
-0.943171
-0.938961
-0.931837
-0.924390
-0.911762
-0.895896
-0.875174
-0.847329
-0.824340
-0.806532
-0.798113
-0.796818
-0.799407
-0.796816
-0.795521
-0.788721
-0.775769
-0.765408
-0.752780
-0.733029
-0.704860
-0.670215
-0.633952
-0.593803
-0.558187
-0.523218
-0.482422
-0.433207
-0.378165
-0.323122
-0.281031
-0.249948
-0.224369
-0.201704
-0.165764
-0.114607
-0.050499
0.016524
0.076747
0.120457
0.146360
0.160283
0.172263
0.177768
0.176149
0.171617
0.158343
0.149601
0.147336
0.156726
0.171944
0.184248
0.195257
0.201085
0.203029
0.208533
0.207239
0.203030
0.192994
0.179719
0.161912
0.139248
0.111728
0.074494
0.028195
-0.017781
-0.067642
-0.121065
-0.175135
-0.231795
-0.295255
-0.363571
-0.435125
-0.510564
-0.583090
-0.662414
-0.748538
-0.837576
-0.929528
-1.013386
-1.078464
-1.126383
-1.151637
-1.161350
-1.163939
-1.163939
-1.169766
-1.183364
-1.190810
-1.193724
-1.183686
-1.154870
-1.125082
-1.106626
-1.101121
-1.108891
-1.120223
-1.117956
-1.099824
-1.072950
-1.038305
-1.007546
-0.990709
-0.979700
-0.980023
-0.985850
-0.994268
-1.006247
-1.016284
-1.038947
-1.070029
-1.103702
-1.138993
-1.166837
-1.184644
-1.193062
-1.193709
-1.189175
-1.181080
-1.165215
-1.144169
-1.115352
-1.093335
-1.072289
-1.055452
-1.044443
-1.029872
-1.010769
-0.988751
-0.962201
-0.925938
-0.882875
-0.827509
-0.774085
-0.724870
-0.696701
-0.692815
-0.696700
-0.697671
-0.685690
-0.651370
-0.610249
-0.577871
-0.557473
-0.554234
-0.557472
-0.566861
-0.577545
-0.584667
-0.586933
-0.579809
-0.567182
-0.553582
-0.541926
-0.543868
-0.550990
-0.564912
-0.587252
-0.612506
-0.640998
-0.659129
-0.657186
-0.632902
-0.581097
-0.522169
-0.458385
-0.395572
-0.360603
-0.347328
-0.343766
-0.342794
-0.335346
-0.326604
-0.315271
-0.304586
-0.295520
-0.267027
-0.232706
-0.193205
-0.147228
-0.105136
-0.065959
-0.025486
0.012073
0.043156
0.059669
0.063231
0.059670
0.059347
0.061938
0.072947
0.089460
0.114067
0.135761
0.154864
0.174615
0.186919
0.197604
0.205052
0.208938
0.199873
0.181742
0.158106
0.147422
0.153575
0.167498
0.186277
0.192430
0.193725
0.209267
0.238084
0.278880
0.325505
0.346551
0.345580
0.315793
0.272407
0.239383
0.211215
0.190494
0.182400
0.170744
0.165888
0.180135
0.203447
0.236473
0.274032
0.315152
0.355948
0.395774
0.426209
0.446608
0.448875
0.444666
0.457294
0.493881
0.545686
0.610766
0.674874
0.720203
0.745458
0.760676
0.753230
0.738013
0.719882
0.696895
0.674878
0.656100
0.632141
0.601059
0.567711
0.540190
0.522059
0.527888
0.550553
0.579369
0.597825
0.604625
0.603331
0.605921
0.624053
0.647366
0.671002
0.678450
0.670679
0.667118
0.680394
0.716981
0.778499
0.846817
0.910925
0.961758
1.010649
1.053712
1.109402
1.166064
1.207831
1.235029
1.242477
1.239563
1.245392
1.267409
1.301082
1.336375
1.358716
1.361630
1.354184
1.356127
1.351919
1.344472
1.338645
1.320190
1.305621
1.293965
1.278749
1.262237
1.253171
1.249610
1.233098
1.211406
1.181619
1.134348
1.086754
1.045958
1.010991
0.988975
0.970520
0.948180
0.926164
0.916127
0.917747
0.922604
0.923252
0.908683
0.876629
0.834863
0.788239
0.748739
0.719600
0.694022
0.659055
0.614050
0.550591
0.478713
0.415253
0.362802
0.320064
0.291249
0.275060
0.265671
0.254016
0.238799
0.222935
0.208041
0.203185
0.186997
0.164009
0.127100
0.067849
0.001152
-0.055833
-0.105046
-0.146165
-0.170124
-0.175628
-0.176598
-0.174008
-0.173359
-0.167531
-0.133858
-0.071044
0.006986
0.092788
0.142002
0.154630
0.149450
0.143947
0.158517
0.194133
0.223921
0.232987
0.239140
0.256300
0.304220
0.372861
0.437293
0.479385
0.497840
0.496222
0.484243
0.473559
0.464817
0.456400
0.445068
0.411072
0.351822
0.289657
0.246595
0.239797
0.255339
0.271204
0.264082
0.223286
0.165655
0.102195
0.046506
-0.004974
-0.044798
-0.080089
-0.112466
-0.135130
-0.169773
-0.208626
-0.229995
-0.231289
-0.230317
-0.233231
-0.245534
-0.284062
-0.314497
-0.318058
-0.307697
-0.268519
-0.225456
-0.212181
-0.205381
-0.191458
-0.170736
-0.146452
-0.100475
-0.052232
-0.007226
0.042312
0.082785
0.109011
0.126172
0.143656
0.166645
0.214241
0.255361
0.268636
0.256333
0.233022
0.233670
0.275762
0.335985
0.380343
0.429557
0.472944
0.508884
0.534139
0.565546
0.616703
0.681782
0.740387
0.779564
0.814533
0.856948
0.900334
0.943074
0.968005
0.953435
0.911345
0.860189
0.826841
0.810976
0.818100
0.837851
0.844974
0.852422
0.868935
0.902608
0.942757
0.978049
0.995534
0.983231
0.988088
1.012372
1.038598
1.090727
1.137027
1.137676
1.130877
1.111127
1.075188
1.066123
1.076161
1.094293
1.090732
1.048641
1.005904
0.960575
0.919456
0.935646
0.967700
0.958635
0.939533
0.920754
0.926907
0.926583
0.966732
1.028574
1.044116
1.031489
1.003969
0.995227
1.049622
1.122473
1.196618
1.208274
1.151614
1.078117
1.050597
1.062254
1.132514
1.217344
1.268825
1.270444
1.232563
1.223498
1.276598
1.346534
1.389920
1.400606
1.354306
1.302179
1.316102
1.374058
1.451765
1.522996
1.565088
1.555051
1.483174
1.418743
1.373091
1.347513
1.353018
1.389281
1.406766
1.412594
1.369533
1.341365
1.357554
1.383780
1.420691
1.473468
1.455660
1.383783
1.297335
1.178509
1.069074
1.012089
0.977446
0.981332
0.940860
0.861859
0.771203
0.649139
0.555568
0.523839
0.504737
0.436420
0.361629
0.272267
0.229205
0.229206
0.242805
0.286839
0.306590
0.285869
0.248311
0.193594
0.160893
0.115565
0.047248
-0.013945
-0.044703
-0.039846
-0.028837
-0.013943
-0.039197
-0.030454
-0.040814
-0.040814
-0.057326
-0.036927
0.008402
0.011640
0.014555
-0.000015
-0.024621
-0.038219
-0.010374
0.018119
-0.012639
-0.025266
0.014235
-0.094229
-0.021379
0.027512
0.028484
0.060538
-0.000979
-0.056344
-0.100377
-0.128545
-0.079007
-0.119802
-0.109441
-0.116887
-0.154444
-0.149587
-0.106524
-0.101667
-0.058280
-0.047919
-0.066050
-0.013921
0.016838
0.089688
0.063787
0.015544
0.034000
0.044362
0.029145
0.114299
0.095520
0.085160
0.075771
0.114301
0.113006
0.192332
0.252231
0.285257
0.344833
0.362641
0.419950
0.469164
0.450386
0.423189
0.370738
0.360378
0.316992
0.386605
0.467226
0.441972
0.456218
0.412185
0.346783
0.308254
0.267783
0.153166
0.113019
0.114962
0.123381
0.123705
0.135038
0.119821
0.061541
-0.026201
-0.119772
-0.116210
-0.109734
-0.114914
-0.089011
-0.157651
-0.172544
-0.163802
-0.183876
-0.196826
-0.230498
-0.266761
-0.273883
-0.294604
-0.289100
-0.354826
-0.363567
-0.428969
-0.544557
-0.580819
-0.579200
-0.571105
-0.582760
-0.624851
-0.714536
-0.724573
-0.674063
-0.608660
-0.559445
-0.541637
-0.585346
-0.603477
-0.544549
-0.461014
-0.338950
-0.211058
-0.134970
-0.119428
-0.108743
-0.059204
-0.028121
0.003610
0.056709
0.073546
0.044407
0.084880
0.174566
0.260368
0.329333
0.349407
0.350055
0.318002
0.250010
0.158058
0.000703
-0.123303
-0.153737
-0.086391
-0.007713
0.006857
-0.010950
-0.054011
-0.135926
-0.126536
0.028877
0.094928
0.092338
0.080683
-0.099012
-0.257986
-0.281298
-0.290686
-0.282592
-0.283886
-0.318530
-0.425699
-0.524774
-0.556504
-0.623849
-0.612840
-0.631294
-0.716771
-0.782497
-0.839805
-0.888047
-0.885780
-0.869591
-0.903587
-0.933373
-0.983234
-1.068711
-1.106268
-1.145769
-1.161633
-1.142530
-1.073888
-1.016256
-1.023054
-0.956356
-0.979020
-1.044098
-1.030499
-1.026289
-0.974161
-0.940488
-0.936602
-0.978044
-1.004594
-0.981929
-0.947932
-0.888680
-0.909077
-0.955053
-0.990668
-1.051537
-1.075496
-1.053155
-1.080999
-1.066429
-1.070637
-1.065133
-1.112080
-1.188814
-1.213744
-1.230580
-1.160968
-1.102687
-1.072899
-1.058976
-1.097181
-1.134739
-1.172296
-1.171001
-1.095884
-1.070305
-1.124375
-1.143154
-1.233163
-1.255827
-1.215354
-1.172291
-1.161930
-1.160634
-1.166138
-1.253557
-1.305684
-1.349718
-1.411882
-1.363963
-1.241898
-1.139584
-1.110768
-1.055725
-1.028204
-1.035002
-0.879265
-0.701188
-0.493970
-0.176345
-0.069498
0.296046
0.821536
1.014184
0.910252
0.880142
0.989579
1.189025
2.200504
3.200003
2.021133
0.703687
-1.188787
-0.806082
1.959294
1.925945
2.422619
2.125717
-0.846551
-1.233140
0.189535
0.883064
1.008690
-2.559650
-6.686829
-7.282254
-8.273009
-6.943582
-5.671140
-11.327515
-14.709684
-13.553802
-15.117965
-14.236969
-10.275239
-11.682371
-10.150584
-14.523833
-22.726063
-14.963196
-6.160036
-3.350950
2.091734
2.331977
-4.651559
-3.630043
-0.150092
4.816640
11.887596
11.567382
4.230606
-2.953023
-3.128833
2.848082
14.196126
17.190736
9.276991
-4.699147
-12.986854
-12.936992
-8.600328
2.539528
5.945981
-1.865127
-7.140741
-6.833801
-1.897503
15.056084
20.723793
17.336119
8.734025
-2.358234
-8.881360
-9.192508
-4.252002
-4.931284
-9.859162
-16.585943
-17.732435
-11.950757
-2.888251
5.648441
10.397920
4.593902
-2.851663
-6.738275
-8.761878
-4.750610
1.665670
6.903727
9.825163
1.168675
-3.488203
-9.071405
-13.664822
-1.104558
9.075948
11.484522
14.134310
4.155841
-5.931740
-9.251420
-4.746069
-0.343679
0.820298
2.992516
3.958989
-0.947844
-10.499251
-7.500108
-1.232118
1.433211
10.192662
10.358760
-1.382348
-2.331660
-2.146459
-7.746498
-4.210534
-0.697234
-0.025721
4.935508
4.771677
-2.583554
-10.421212
-15.570229
-13.068731
-3.907150
2.136463
4.049012
5.756934
4.524964
-1.557825
-3.034569
-4.878799
-8.154446
-1.936965
2.336562
0.145243
-0.493243
-5.755907
-14.247593
-13.561834
-2.504541
8.457885
11.181818
10.507068
2.018943
-10.517360
-13.090411
-3.159861
8.475697
12.478223
8.805303
-0.044157
-8.448748
-10.365180
-3.104815
6.240671
10.700370
6.737993
0.583002
-6.283650
-8.832742
-4.279796
2.853325
6.582260
7.255716
-0.420378
-9.550875
-18.410695
-21.065986
-13.422917
-5.335302
3.523224
11.181187
11.441504
11.283178
10.376604
6.548271
4.897659
6.688143
7.753045
11.079849
12.691933
2.067855
-7.712786
-10.698005
-13.548533
-13.246125
-4.602587
-1.903261
-1.767598
0.776962
-1.614775
-0.968192
6.041570
11.285779
8.777483
4.048727
-3.396837
-8.453255
-3.660390
-1.151445
2.986419
6.056469
2.288682
-0.679701
-6.005500
-10.852758
-6.969058
-2.902424
0.557452
6.033161
8.903765
5.186487
3.565986
1.525871
2.776944
7.663380
6.116376
1.280774
0.801909
0.113237
-0.543705
-1.311702
-1.501435
-0.225107
-1.102865
-0.308964
0.305888
0.352189
-1.073723
-0.571869
-4.579250
-8.431219
-8.315954
-11.418056
-11.313152
-6.508955
-2.282376
4.919386
9.730382
11.404631
11.323040
6.011486
3.202726
2.179592
3.369148
7.173523
5.041778
2.159197
0.766958
-2.900782
-3.357306
-2.332877
-0.576065
0.948276
-4.212722
-5.999644
-4.339317
-3.223583
-1.759788
3.338397
7.249295
6.693695
7.961928
6.894437
0.569787
-2.654379
-0.614586
1.952315
-1.334340
-7.542431
-7.218006
-7.459543
-6.078959
1.021460
6.494579
7.477889
5.971358
0.895837
-5.196341
-6.596350
-7.041543
-7.926099
-8.421153
-8.632255
-7.157776
-2.308574
3.154507
3.177172
6.937837
11.893561
11.006738
12.638572
13.945983
11.387177
6.850097
-1.946263
-11.547855
-13.876456
-14.426228
-15.352552
-11.380784
-7.384086
-5.486432
-2.171607
-0.812716
0.359679
3.050586
2.528335
1.011119
-3.609171
-6.897445
-4.462969
-0.450082
0.863156
-1.733207
-1.384499
0.373608
-0.529728
3.453047
6.440858
0.881292
-5.210240
-7.637268
-4.640716
0.349976
6.179573
10.956249
12.260098
10.563186
8.284771
9.692228
9.016831
8.532461
12.040581
12.895351
11.683456
9.559159
7.457850
9.214338
9.560132
8.317154
8.891535
6.242719
5.016578
7.491203
9.811062
10.448579
9.712635
9.233447
4.843361
-2.348363
-7.507417
-12.731551
-12.740940
-6.957643
-2.136286
-0.002274
0.910452
-1.374114
-4.988108
-5.070346
-3.427827
-0.757642
4.210386
7.565035
8.776607
8.194782
5.777790
4.044615
2.409868
4.440919
6.282236
4.329541
4.817796
8.130678
10.266309
11.660491
14.111480
12.853285
7.960051
3.425237
-3.445624
-7.050551
-8.310041
-9.812688
-12.342677
-15.709628
-21.014059
-26.103501
-29.177759
-28.132284
-24.598910
-21.475438
-19.711502
-19.764925
-19.250767
-20.379775
-18.029805
-9.812032
-1.138058
4.095790
5.691037
3.453742
1.850725
1.923575
5.700105
13.934390
19.526335
18.422582
12.916439
5.600709
-1.251697
-1.037680
5.317406
12.842297
18.837991
22.520950
23.182749
21.795368
20.685138
19.646464
22.203975
24.397886
20.727555
11.850575
0.645317
-12.859401
-25.830212
-32.985025
-36.102993
-38.756988
-42.380371
-46.869532
-46.435347
-36.154147
-19.722811
0.656008
20.797175
35.081549
41.798941
43.789196
43.714728
41.834234
38.882364
33.899444
25.173019
13.641395
1.840713
-9.821394
-18.982003
-23.657335
-26.102819
-28.042239
-27.749869
-26.552866
-23.401225
-15.461576
-3.436839
7.708844
16.312235
20.838955
19.918135
15.393035
11.052488
6.665964
1.906125
-1.980164
-7.687048
-11.538693
-11.283557
-8.624703
-3.689701
2.244152
6.392701
6.675359
5.470263
3.759752
3.187640
2.829543
-0.180606
-3.257454
-4.301633
-4.968936
-4.641921
-2.906478
-1.341989
0.594195
3.197035
6.166714
8.208125
8.474918
9.184636
10.402360
10.869571
9.948427
8.101930
3.505923
-3.172615
-7.605115
-9.152119
-7.027821
1.926220
13.572462
19.794476
20.966224
19.258951
15.334780
8.147265
0.329682
-6.509773
-10.159382
-10.352028
-8.758076
-6.528874
-4.657445
-2.826812
-0.304268
2.291125
6.854756
12.020934
15.690294
16.319717
13.324784
8.677620
2.402184
-0.984518
-1.107229
-1.255194
-1.228320
-0.277064
1.778918
5.397769
12.227187
19.323398
21.987756
17.202987
5.300962
-8.116013
-15.887620
-18.818121
-18.857945
-17.737678
-16.866395
-15.836137
-13.918732
-9.975457
-5.575981
0.287613
7.691411
15.000990
21.205521
25.599492
24.526821
20.583871
15.061216
8.486934
4.524233
3.927514
3.430517
3.646477
4.681591
3.687921
0.403857
-5.158300
-12.245444
-17.450798
-20.455120
-23.275861
-24.922588
-23.586361
-19.156450
-12.864824
-5.817828
2.329686
9.624048
13.566675
15.275892
15.607763
13.637260
10.732014
6.886520
2.381494
-1.033052
-2.659705
-3.997225
-4.713742
-4.665175
-2.446982
1.030379
5.072729
10.335070
14.357670
16.511756
14.811606
9.702089
3.434747
-1.635916
-3.814608
-2.800539
-1.819496
-1.414127
-1.954833
-3.023295
-3.439995
-1.559501
1.119427
1.718090
-0.362173
-2.607239
-5.007394
-6.455646
-5.465861
-4.289904
-2.918062
-1.138262
-1.031739
-0.930720
0.044819
1.129471
1.630678
1.192933
1.077992
0.734142
0.248478
-0.204485
-0.547040
-1.140198
0.208008
2.241973
2.987955
1.761166
-2.083680
-7.273817
-12.336062
-15.642144
-16.574296
-15.594548
-13.693655
-11.067827
-7.975113
-4.210239
1.579210
8.231847
14.628376
20.029617
21.668574
20.490676
18.165313
14.573337
10.848612
7.891238
5.724202
4.916704
4.754817
5.232388
6.502563
7.061079
7.190266
6.189473
3.681825
-0.109274
-4.058052
-7.049099
-7.550305
-6.460472
-5.479429
-4.124424
-2.565115
0.063627
3.658195
7.924275
11.677493
13.525610
12.928566
10.013607
5.287765
-0.602377
-6.022395
-9.548645
-11.899586
-13.788174
-14.584987
-14.421480
-12.417950
-9.468993
-6.831509
-5.560685
-7.656490
-11.693011
-14.957650
-17.493467
-18.639311
-18.202860
-17.646611
-16.294520
-12.670813
-7.293531
-0.625353
6.107580
10.917605
12.423490
10.637863
6.437834
2.084660
-1.701583
-5.037128
-8.012957
-10.013572
-10.270002
-9.511393
-7.434690
-4.288877
-2.034097
0.053939
1.658576
1.886839
2.442440
3.364880
2.203494
-0.615628
-2.677112
-2.981785
-1.192272
0.949510
3.091940
4.923868
6.714029
7.945028
9.082780
9.301329
8.597116
7.459366
6.041873
3.413455
0.782448
-1.289398
-4.379197
-5.804784
-4.665738
-3.662354
-1.820388
0.083742
0.808678
1.364927
1.822424
2.948843
4.019896
4.108611
3.761200
3.029789
1.677051
0.259882
-1.020006
-2.172326
-3.226866
-3.827471
-4.002957
-3.398142
-2.943559
-2.877184
-4.227008
-6.981374
-9.719228
-12.189643
-13.212452
-12.462585
-10.310118
-7.012454
-3.221354
0.896113
5.338004
9.141083
12.185878
13.432742
12.654708
10.726943
7.313691
3.097474
-0.985995
-4.136340
-6.399537
-7.833543
-8.624852
-8.047235
-6.624884
-4.399567
-1.566846
0.896771
2.248214
3.012328
3.195586
3.275559
2.469032
0.389416
-1.787333
-4.089383
-5.334951
-5.072368
-3.571016
-1.655877
-0.299900
0.451586
-0.054153
-1.943712
-3.269900
-3.931051
-4.341923
-4.393403
-4.416391
-4.337065
-3.882482
-2.816285
-1.212296
0.925601
3.210817
4.628311
5.416707
5.623277
5.259677
4.170493
1.481529
-2.698425
-7.262702
-10.753984
-11.863565
-12.315557
-12.818381
-12.514031
-11.343578
-9.803049
-7.651229
-5.145199
-2.604847
-0.042803
2.652961
4.782763
5.645952
6.273432
6.678800
6.620845
6.331389
6.411686
6.753271
6.794715
6.753596
6.252067
5.010708
4.080823
3.459496
3.198856
3.305379
3.126008
2.059165
1.030203
0.316601
-0.767403
-2.036930
-3.247530
-4.465900
-6.061470
-7.429102
-7.992796
-7.823137
-7.453384
-6.883860
-5.909940
-5.046427
-4.368762
-3.537627
-2.319256
-1.443440
-0.894638
0.125582
1.584520
3.047343
4.096380
4.493978
4.561000
4.499483
4.491065
4.346014
3.432965
1.695904
-0.647913
-2.933451
-4.744009
-5.666448
-5.949104
-5.736706
-5.239385
-4.897476
-4.625504
-4.150199
-3.476743
-2.794546
-1.860774
-1.037733
-0.632041
-0.116912
0.140168
-0.911134
-2.920491
-4.816202
-5.932259
-5.300894
-3.025716
-0.297898
1.738657
2.494999
2.985845
3.546303
4.544183
5.626568
5.862602
4.953114
3.096580
0.749525
-1.155252
-2.134352
-1.996423
-0.724952
1.064562
2.147919
2.438671
2.706111
2.470078
1.225482
0.046936
-1.159455
-2.454237
-3.570294
-4.617063
-5.463738
-5.406753
-4.437042
-2.722321
-0.652093
0.847317
2.134005
2.724574
3.609456
4.243735
4.581758
4.729077
4.398825
3.930969
3.963995
4.627413
5.524599
5.703000
4.676305
2.947015
1.049686
-0.289130
-0.434829
-0.429324
-0.751805
-1.132565
-1.497137
-1.602040
-1.163323
0.031413
1.353717
2.161864
2.331847
1.541833
0.502511
-0.566922
-1.602035
-1.835478
-1.073955
0.185213
1.353723
1.761034
1.432402
0.763156
0.202052
0.666996
1.328472
2.028477
2.598324
2.327972
1.488743
0.301779
-0.832086
-1.960446
-3.102406
-4.204217
-4.591129
-4.054955
-2.745925
-0.838234
1.345963
3.336218
4.702556
