EVENT_NAME: 202302060117
EVENT_ID: 13194
EVENT_DATE_YYYYMMDD: 2023/02/06
EVENT_TIME_HHMMSS: 01:17:32.00000
EVENT_LATITUDE_DEGREE: 37.288
EVENT_LONGITUDE_DEGREE: 37.043
EVENT_DEPTH_KM: 8.6
HYPOCENTER_REFERENCE: AFAD
MAGNITUDE_W: 7.7
MAGNITUDE_W_REFERENCE: AFAD
MAGNITUDE_L: 
MAGNITUDE_L_REFERENCE: 
FOCAL_MECHANISM: 
NETWORK: TK
STATION_CODE: 0118
STATION_NAME: 
STATION_LATITUDE_DEGREE: 37.03616
STATION_LONGITUDE_DEGREE: 35.31843
STATION_ELEVATION_M: 76.0
LOCATION: Kahramanmaras_Pazarck_Turkiye
SENSOR_DEPTH_M: 
VS30_M/S: 946
SITE_CLASSIFICATION_EC8: A
MORPHOLOGIC_CLASSIFICATION: 
EPICENTRAL_DISTANCE_KM: 155.36
EARTHQUAKE_BACKAZIMUTH_DEGREE: 
DATE_TIME_FIRST_SAMPLE_YYYYMMDD_HHMMSS: 2023/02/06 01:17:38.8092230
DATE_TIME_FIRST_SAMPLE_PRECISION: millisecond
SAMPLING_INTERVAL_S: 0.01
NDATA: 13501
DURATION_S: 
STREAM: HNE
UNITS: cm/s^2
INSTRUMENT: sensor = CMG-5T/GURALP | digitizer = 
INSTRUMENT_ANALOG/DIGITAL: 
INSTRUMENTAL_FREQUENCY_HZ: 
INSTRUMENTAL_DAMPING: 
FULL_SCALE_G: 
N_BIT_DIGITAL_CONVERTER: 
PGA_CM/S^2: 38.238
TIME_PGA_S: 
BASELINE_CORRECTION: BASELINE REMOVED
FILTER_TYPE: BUTTERWORTH
FILTER_ORDER: 
LOW_CUT_FREQUENCY_HZ: 
HIGH_CUT_FREQUENCY_HZ: 
LATE/NORMAL_TRIGGERED: 
DATABASE_VERSION: 
HEADER_FORMAT: DYNA 1.2
DATA_TYPE: Acceleration
PROCESSING: Automatic Paolucci et al., 2011
DATA_TIMESTAMP_YYYYMMDD_HHMMSS: 
DATA_LICENSE: U (unknown license)
DATA_CITATION: Turkish Accelerometric Archive v 1.0 - Disaster And Emergency Management Presidency, Earthquake Department
DATA_CREATOR: AFAD
ORIGINAL_DATA_MEDIATOR_CITATION: : AFAD - Disaster And Emergency Management Presidency
ORIGINAL_DATA_MEDIATOR: AFAD PROCESS SERVICE
ORIGINAL_DATA_CREATOR_CITATION: AFAD PROCESS SERVICE
ORIGINAL_DATA_CREATOR: network: TK
USER1: GuestUser
USER2: 
USER3: 
USER4: 
USER5: 
[...]
4.361573
4.308593
4.553785
4.730939
4.444689
3.568367
2.159977
0.693896
-0.267707
-0.547686
-0.312528
0.109497
0.369111
0.202945
-0.451708
-1.437454
-2.363314
-2.996961
-3.376644
-3.633421
-3.984259
-4.720118
-5.856674
-6.970968
-7.719368
-8.146395
-8.312561
-8.375261
-8.537351
-8.658682
-8.386213
-7.702386
-6.865241
-6.183296
-5.949078
-5.955969
-5.762197
-5.357416
-5.103446
-5.010319
-4.703047
-3.901646
-2.605486
-1.392726
-0.760006
-0.506976
-0.192180
0.312304
1.242569
2.722147
4.186674
5.046394
5.243301
5.192515
5.237672
5.293802
5.242703
5.403554
6.111836
7.168141
8.039462
8.438912
8.739599
9.223077
9.540695
9.282350
8.697928
8.186247
7.589912
7.088263
6.837443
7.026825
7.614397
8.124525
8.317356
8.469114
9.005893
9.557408
9.733621
9.685658
9.864694
10.460103
11.198798
11.529585
11.148020
10.382376
9.486301
8.504318
7.488473
6.419641
5.405677
4.359419
3.157021
1.889094
0.639666
-0.398754
-1.155932
-1.793968
-2.401904
-3.020187
-3.608058
-4.097791
-4.474339
-4.689417
-4.655548
-4.337616
-3.983315
-3.868867
-3.863216
-3.545912
-2.775863
-1.757182
-1.075237
-1.091533
-1.402866
-1.409756
-1.274615
-1.573093
-2.629384
-4.335946
-6.062574
-7.359032
-8.229397
-8.777448
-9.035167
-9.245855
-9.552798
-9.748749
-9.834024
-10.184548
-10.916017
-11.547782
-11.261518
-9.909235
-8.283864
-7.364573
-7.358295
-7.604099
-7.419420
-6.681979
-5.665179
-4.626117
-3.672651
-2.655851
-1.632780
-0.784348
-0.322190
-0.266060
-0.349140
-0.339099
-0.317772
-0.622833
-1.342075
-2.125590
-2.877753
-3.729306
-4.532574
-5.032654
-4.837001
-3.994213
-2.841339
-1.805099
-1.136322
-0.889563
-1.064195
-1.491222
-2.027986
-2.634668
-3.335724
-4.016714
-4.778596
-5.627327
-6.252194
-6.483889
-6.381983
-5.966229
-5.115915
-3.974642
-2.925861
-2.216325
-1.623110
-0.798820
0.218294
1.136331
1.509758
1.422603
1.108448
0.720927
0.503341
0.559471
0.912205
1.464660
2.074806
2.392738
2.277051
1.791393
1.034214
0.250071
-0.463213
-1.161134
-1.854038
-2.544434
-2.857648
-2.473560
-1.726086
-1.204044
-1.143524
-1.714777
-2.854468
-4.211126
-5.259578
-5.653057
-5.674683
-5.546127
-5.319434
-5.025958
-4.829678
-4.652524
-4.405451
-4.196316
-4.258075
-4.482559
-4.621761
-4.404787
-3.877101
-3.492387
-3.600549
-3.975842
-4.192174
-4.347366
-4.399092
-4.444547
-4.426669
-4.356743
-4.378683
-4.651137
-4.850538
-4.647987
-4.358901
-4.331616
-4.602503
-4.752679
-4.504352
-3.879156
-3.044833
-2.141533
-1.382458
-0.977677
-1.132242
-1.674337
-2.117981
-2.278503
-2.365031
-2.571643
-2.699558
-2.674468
-2.740303
-3.026239
-3.446055
-3.591528
-3.249768
-2.753435
-2.479398
-2.377806
-2.091541
-1.643806
-1.351271
-1.438740
-1.766690
-1.930034
-1.846627
-1.825926
-1.986448
-2.115304
-1.887043
-1.324868
-0.619721
0.280130
1.584442
3.396053
5.215502
6.333887
6.385941
5.829738
5.356935
5.038705
4.616381
3.939467
3.303626
2.975049
2.865319
2.696958
2.107207
1.245935
0.459283
-0.065253
-0.291304
-0.524253
-1.069796
-1.917900
-2.655639
-3.045983
-3.351985
-3.938601
-4.973572
-6.460659
-7.942730
-8.981777
-9.484052
-9.633287
-9.627323
-9.453617
-9.159828
-8.790477
-8.366571
-7.843587
-7.293327
-6.712967
-6.014718
-5.240593
-4.764954
-4.771217
-4.998522
-5.112955
-5.077205
-4.994425
-4.959928
-4.858649
-4.428159
-3.959104
-4.002991
-4.725368
-5.671294
-6.475190
-7.200388
-7.927154
-8.372680
-8.421270
-8.420009
-8.862399
-9.463124
-9.342406
-8.362289
-7.175240
-6.776416
-7.212849
-7.784102
-8.031787
-8.115807
-8.485770
-8.979580
-8.960761
-8.034886
-6.765376
-5.869287
-5.393961
-4.709194
-3.584538
-2.715099
-2.704118
-3.386048
-3.777019
-3.262188
-2.187383
-1.257119
-0.457911
0.671761
2.079539
3.227711
3.742542
4.031942
4.599133
5.335633
5.829771
6.122934
6.717403
7.905706
9.394690
10.635040
11.498522
12.334726
13.358738
14.250751
14.663997
14.854007
15.357551
16.475623
17.861453
18.893303
19.386814
19.545470
19.674967
19.709777
19.342635
18.392319
17.156686
16.098200
15.347919
14.572555
13.513756
12.378768
11.313698
10.221037
8.824248
7.100755
5.169389
3.169045
1.007231
-0.969912
-2.141897
-2.488345
-2.413403
-2.277635
-2.125250
-1.912980
-1.637689
-1.448307
-1.268331
-0.874837
-0.041141
0.889124
1.731912
2.453049
2.812054
2.807358
2.686027
2.638691
2.492905
2.040795
1.120578
-0.074922
-1.209597
-1.892154
-2.025086
-1.817205
-1.424966
-1.001060
-0.707584
-0.436996
-0.185534
0.058090
0.534983
1.296566
1.945277
2.125880
1.861578
1.362438
1.023514
0.997185
1.086236
1.058025
0.980590
0.952379
1.188164
1.701741
2.341673
2.888798
3.032091
2.772805
2.536094
2.508197
2.476850
2.538624
3.163506
4.573792
6.274412
7.607568
8.290768
8.775813
9.479079
10.082327
10.134694
9.695753
9.401038
9.534298
9.862262
10.116233
10.245730
10.428214
10.669330
11.147477
11.958285
12.917395
13.624423
13.934516
13.963996
13.975918
14.121092
14.133954
13.747059
12.817123
11.548883
10.122621
8.534261
6.687236
4.941482
3.751312
3.170026
2.619153
1.567252
0.084867
-1.416643
-2.690214
-3.887595
-5.187502
-6.548863
-7.808951
-8.526311
-8.276730
-7.339881
-6.108623
-5.179299
-4.479483
-3.731381
-2.663475
-1.364180
0.033251
1.330665
2.192266
2.748797
2.873278
2.941636
3.310360
4.203627
5.438648
6.755814
7.737498
8.326324
8.939919
9.417126
9.419014
8.757777
7.813731
7.230878
7.274780
7.530632
7.187318
6.163008
5.101073
4.593468
4.670605
4.957497
5.118974
4.928039
4.467464
3.939165
3.630968
3.479538
3.264461
2.507909
1.012670
-0.824636
-2.028289
-2.238349
-2.283491
-2.981412
-3.936118
-4.184743
-3.796580
-3.050987
-2.423911
-1.792131
-0.825810
0.384441
1.505022
2.373834
3.513226
5.279374
7.479454
9.409894
10.742738
11.589916
12.116661
12.440863
12.438362
12.171865
11.669904
11.157282
10.950670
11.026239
10.880139
10.145221
9.007411
7.681480
6.174013
4.299083
2.167682
0.165457
-1.609769
-3.507901
-5.457765
-7.215433
-8.973415
-10.910738
-12.893838
-14.863769
-16.485676
-17.490547
-17.868036
-17.745750
-17.361976
-16.612934
-15.557883
-14.238835
-12.666765
-11.018506
-9.407244
-7.878128
-6.387891
-4.736183
-2.943071
-1.411133
-0.417534
0.221457
0.763879
1.302225
1.761248
1.876322
1.537712
1.086857
0.821927
0.738848
0.393967
-0.230587
-0.683324
-0.640362
-0.028962
0.816648
1.759768
2.348593
2.458338
2.244515
1.706183
0.938657
0.163293
-0.310764
-0.644357
-0.995822
-1.550144
-2.354667
-3.072654
-3.467700
-3.526010
-3.299631
-3.120282
-3.358561
-3.686824
-3.821010
-3.741051
-3.361040
-2.616074
-1.746008
-0.794109
0.323336
1.120662
1.403791
1.427313
1.154545
0.473869
-0.170438
-0.411225
-0.423759
-0.374840
0.016145
1.043292
2.522556
3.844739
4.632972
4.888510
4.897297
4.518868
3.632512
2.497211
1.392636
0.675276
0.120640
-0.738124
-2.022355
-3.496274
-5.182142
-6.780221
-7.715174
-8.010830
-8.263218
-8.486761
-8.305531
-7.246403
-5.150417
-2.675994
-0.465881
1.392760
3.178975
4.590515
5.159274
4.936358
4.541626
4.383925
4.200515
3.390975
1.949977
0.443764
-0.938289
-2.505015
-4.210009
-5.787708
-7.091064
-8.003756
-8.515437
-8.620778
-8.301592
-7.521824
-6.581213
-5.588241
-4.393667
-3.141402
-2.159718
-1.264569
-0.131447
1.362866
2.864391
3.693384
3.882453
3.967428
4.325492
4.855060
5.349825
5.764638
6.302044
7.190922
8.161006
8.925724
9.367188
9.804576
10.443567
10.717291
10.197457
9.347159
8.824817
8.539822
7.846290
6.102418
3.783209
1.161753
-1.133000
-3.031758
-4.834889
-6.320095
-7.483615
-7.741960
-7.361322
-6.580299
-5.662890
-4.486187
-3.086247
-1.868158
-1.247979
-1.528271
-2.415567
-3.252697
-3.611687
-3.757160
-4.162239
-5.056433
-6.028697
-6.462935
-6.258503
-5.833970
-5.639257
-5.789119
-5.754310
-5.179907
-3.805991
-2.054579
-0.032900
2.159655
3.893509
5.441124
7.499800
9.751613
11.488916
12.318536
12.406020
12.130744
11.838537
11.878676
12.026358
11.959269
11.606864
11.191751
10.622693
10.119477
9.842947
9.731023
9.215892
8.119783
6.674082
4.940869
3.390448
2.357358
1.483545
0.291807
-1.056699
-2.023946
-2.591436
-3.292492
-4.676113
-6.501505
-8.338497
-10.137552
-12.051360
-14.243587
-15.764850
-16.257092
-16.056736
-16.087141
-16.568723
-16.847448
-16.228837
-14.623219
-12.537892
-10.835392
-10.417756
-11.046700
-11.923335
-12.373250
-12.228390
-11.603821
-11.209387
-11.068289
-10.967324
-10.549061
-9.641371
-8.159599
-6.204076
-4.431344
-3.075612
-2.129984
-1.413550
-0.792744
-0.110799
0.607516
0.995366
0.707862
-0.159054
-1.197474
-1.948382
-2.205473
-1.938961
-1.753341
-2.065928
-2.779839
-3.201849
-2.956971
-2.577587
-2.206041
-1.937021
-1.962097
-2.403860
-3.105229
-3.954274
-4.705809
-4.929666
-4.795465
-4.816151
-5.264812
-6.164022
-7.415959
-8.962304
-10.506142
-11.766857
-12.887423
-14.217743
-15.777571
-17.734020
-20.098064
-22.269597
-23.990582
-25.902822
-28.271569
-30.103545
-30.857902
-30.703949
-30.252139
-30.199457
-30.201331
-29.356348
-27.129931
-24.260454
-22.409966
-21.563415
-20.747590
-19.204052
-17.045672
-14.945296
-12.963436
-11.096016
-9.116664
-7.379048
-6.335283
-5.615087
-5.069529
-4.936897
-5.400294
-6.480727
-7.727960
-8.773905
-9.553972
-10.391102
-11.122257
-11.248291
-11.323845
-11.374317
-11.551143
-11.636418
-10.666647
-9.725409
-9.388038
-9.049100
-8.928382
-8.565615
-7.821903
-7.295471
-7.222724
-7.607110
-7.750075
-7.129269
-6.691880
-6.913542
-7.212647
-7.886112
-8.844894
-9.891151
-10.987261
-12.074906
-12.541124
-12.261758
-11.535291
-10.526329
-10.177984
-10.290222
-10.030608
-9.105047
-7.929598
-6.973310
-6.652870
-6.740339
-6.793005
-6.660373
-6.301995
-6.292269
-6.774477
-6.809900
-6.474097
-6.039844
-5.625030
-5.228088
-4.347048
-3.315512
-2.283662
-1.356219
-0.455426
0.830700
1.972601
2.585568
2.961817
3.404222
4.605067
6.268376
7.984985
9.610984
10.977061
11.880676
12.578298
13.310722
14.022139
14.527878
14.429749
14.282395
14.672753
15.403296
16.055142
16.346737
16.511350
17.260078
18.483498
19.779030
20.616802
20.909337
21.029428
21.317888
21.679087
21.970995
22.109271
22.305865
22.781504
23.386633
24.131285
25.092904
26.224144
27.352876
28.214790
28.418282
28.369378
28.042368
27.648890
26.889516
25.557942
23.964252
22.355827
21.086646
20.037880
19.135848
18.332579
18.162024
18.436060
18.885990
18.840848
18.087745
17.264724
16.826410
16.264250
14.924837
12.966193
10.636011
9.008460
8.077896
7.597569
6.693656
5.464921
4.746306
5.123809
6.274489
6.691497
6.861127
6.988743
8.109637
9.791444
11.441898
12.785715
13.619097
14.660040
15.304674
16.068766
16.607739
16.841016
16.354418
15.680326
15.491899
15.521065
15.545528
15.093418
14.567941
14.193275
14.532840
15.271535
16.086419
16.406232
16.527263
16.830145
17.412700
18.244515
18.927401
19.698390
20.470633
21.113386
21.263263
21.264838
21.591862
22.233361
22.798358
22.585162
21.787224
20.866693
19.939265
19.006507
17.733250
16.238010
14.751550
13.585835
12.488471
11.339061
10.532343
10.798541
12.030426
13.572397
15.167669
16.407079
17.553055
18.540070
19.551540
20.366110
21.195103
22.029426
22.541749
22.569975
22.191232
21.900907
21.844478
22.024140
22.069924
21.719713
20.534246
19.032108
17.592678
16.275213
14.957120
13.672263
12.672408
11.589153
10.368256
8.900922
7.413207
5.949634
4.563819
3.648618
3.267681
3.568682
3.972208
4.046837
3.836462
4.093568
5.261805
7.242098
9.285410
10.405050
11.215545
12.297246
14.448415
16.617455
17.663728
17.762185
17.449285
17.379687
17.486297
17.325147
16.034959
13.672483
10.701122
8.034204
5.908760
4.149210
2.531692
0.589666
-1.532016
-3.821439
-5.866304
-7.458740
-8.513149
-9.355923
-10.107458
-10.699404
-11.885812
-13.537506
-15.342517
-16.580972
-16.891364
-17.047183
-17.674872
-18.744332
-19.402747
-19.210543
-18.687873
-18.319149
-17.803377
-16.714151
-15.476309
-14.949563
-15.073402
-14.928228
-14.229038
-13.304417
-13.172098
-13.807939
-14.725334
-15.339541
-15.468710
-15.823938
-16.078521
-16.787415
-17.230119
-16.961099
-16.497374
-15.900396
-15.017789
-13.516891
-11.991851
-10.886320
-10.100909
-9.133647
-8.159174
-7.287854
-6.366995
-5.132915
-3.260165
-1.166060
0.628933
2.150211
3.528516
4.583568
5.062343
4.987102
4.443440
3.965307
3.453939
2.416774
1.202461
0.265314
-0.563038
-1.492033
-2.278998
-2.929889
-3.326816
-3.534996
-3.594247
-3.712755
-3.856974
-3.869508
-3.764467
-3.576338
-3.572255
-3.698602
-4.083616
-4.684341
-5.299175
-5.782324
-6.621649
-8.142599
-9.615891
-10.352376
-10.301890
-9.847884
-9.350297
-9.173143
-8.990345
-8.619113
-8.215900
-7.591018
-6.970525
-6.866738
-7.593191
-9.037324
-10.650766
-11.917439
-12.519731
-12.678373
-12.648266
-12.571443
-12.515940
-12.363241
-11.972256
-11.399107
-11.140434
-11.221005
-11.382781
-11.305017
-10.955105
-10.302632
-9.147250
-7.299896
-5.027076
-2.747985
-0.662659
1.359334
3.351540
4.732668
5.065022
4.418207
3.382923
2.183660
1.138970
0.423805
-0.189148
-1.109679
-2.529983
-4.004216
-5.343942
-7.061164
-9.534318
-12.322888
-14.484389
-15.881492
-17.257588
-19.222503
-21.609435
-24.116137
-26.618763
-29.208866
-31.887385
-34.171164
-35.746982
-36.502594
-37.207099
-37.958634
-38.237672
-37.740713
-36.717015
-35.638448
-34.902575
-34.327231
-33.142376
-31.554316
-29.694108
-27.700647
-25.424691
-23.038372
-21.017947
-19.184075
-17.583474
-16.023631
-14.534334
-13.053503
-11.539750
-10.464632
-9.940082
-9.316454
-7.866662
-6.012724
-3.904196
-1.369888
1.581421
4.624909
7.235093
9.336096
11.487578
14.160782
17.282027
19.981568
21.629827
22.820012
24.160066
26.214039
28.363640
29.735361
30.105026
30.210068
30.126988
29.384232
28.133550
26.515404
24.885345
23.393241
22.229408
21.056482
19.322015
16.873630
14.416467
12.180031
10.567530
9.536949
8.628019
7.479549
6.152678
5.976165
6.964747
8.539952
10.197931
11.382786
11.945274
12.559810
13.077776
13.163379
12.909423
12.479574
11.859410
11.146126
11.202883
11.831214
12.512846
12.791899
13.324602
14.107191
14.646165
14.792593
14.268997
13.603371
13.426544
14.165866
15.225307
15.864298
15.676498
15.369869
15.656133
16.500803
17.478411
18.090752
18.103301
17.349257
16.670148
16.447233
16.344087
16.003909
15.168347
14.055620
12.789260
10.992714
8.546524
5.975861
3.649754
1.246832
-1.551458
-4.157237
-5.893271
-6.572380
-6.756417
-7.108823
-7.763789
-8.650145
-9.771964
-11.323953
-13.053403
-14.581250
-15.334353
-15.165037
-14.936777
-15.157811
-15.961080
-17.022701
-17.208620
-16.259543
-14.744222
-13.602635
-13.319820
-13.490375
-13.639297
-13.545543
-13.440501
-13.171481
-13.121308
-13.521998
-13.936170
-14.239351
-14.384824
-14.202339
-13.746139
-13.372712
-13.148214
-12.776041
-12.293817
-12.047371
-12.244577
-12.655300
-12.849685
-12.728026
-12.582538
-12.840570
-13.422483
-13.861738
-13.326527
-11.849771
-9.975767
-8.448846
-7.321995
-6.230887
-5.329468
-4.692044
-4.560352
-4.862592
-5.385874
-5.777472
-6.387917
-7.366764
-8.234935
-8.434335
-8.201685
-8.333049
-8.555338
-8.575710
-7.990961
-6.872262
-5.883366
-5.083532
-3.968909
-2.410320
-0.976833
0.167576
1.144558
2.357631
3.649401
4.474631
4.294043
3.444058
3.057477
3.554436
4.284039
4.375285
4.119134
3.539103
2.907965
2.571549
2.259276
1.539094
0.329485
-0.923079
-2.409853
-4.657889
-7.276837
-9.243319
-10.302745
-10.960220
-11.889843
-13.387277
-15.175044
-16.194652
-15.971408
-15.278802
-15.072803
-15.673528
-16.553926
-17.031432
-16.626024
-15.627095
-14.526268
-13.474665
-12.555061
-11.666496
-10.783575
-10.047075
-9.258841
-8.309138
-6.853702
-5.344966
-4.471451
-4.463606
-4.711604
-4.530060
-4.415926
-4.375786
-4.390202
-3.760930
-2.474177
-1.197456
-0.732163
-0.655340
-0.411403
-0.204463
-0.448699
-1.643572
-2.984552
-3.469270
-2.876995
-2.402297
-2.598875
-3.028411
-2.938732
-2.318553
-1.521227
-1.007023
-0.697244
-0.354229
-0.036611
0.214851
0.259693
0.172538
0.261903
0.921587
1.706999
2.105822
2.073536
2.114616
2.717550
3.967934
5.262839
5.699287
5.333713
5.366014
5.871126
6.182473
5.704027
4.525144
3.199840
2.063911
1.027687
-0.241181
-1.419437
-2.583897
-3.921115
-5.564970
-7.119154
-8.641985
-10.540430
-13.021109
-15.466045
-17.175428
-18.126058
-18.534900
-18.681000
-18.417937
-17.541914
-15.749429
-13.378786
-10.695549
-8.173155
-5.842958
-3.492381
-0.762741
2.306144
4.784642
6.381795
7.004169
7.175993
7.498941
7.932254
8.369015
8.314154
7.640375
6.909846
6.306927
5.827226
5.044337
3.982089
2.615712
0.844562
-1.131326
-3.273701
-5.288154
-6.985937
-8.714759
-10.594392
-12.040407
-12.551147
-11.947899
-11.015126
-10.191464
-9.306348
-8.208029
-6.899328
-5.543596
-4.028590
-2.597610
-1.598368
-1.554465
-1.583617
-0.862166
0.185360
1.447031
2.229621
2.712158
3.504468
4.972444
6.524448
7.661959
8.796649
10.651527
13.024051
14.939128
16.141228
16.572032
17.044536
17.961945
19.562547
21.253133
21.991515
21.492061
20.861551
21.096395
21.794644
21.867392
20.921779
19.743523
19.154085
18.845261
18.136052
17.165043
16.078026
15.131785
14.115313
13.411122
12.608794
11.059626
8.920073
6.768292
5.097787
3.821081
2.662264
1.125638
-0.755562
-2.590987
-4.127927
-5.615328
-7.020896
-8.447472
-10.195420
-11.967824
-13.592867
-15.176523
-17.016651
-18.747668
-19.521778
-19.396357
-19.225160
-19.158683
-18.709694
-17.875057
-16.281667
-13.889704
-11.115542
-8.375241
-6.044731
-4.540384
-3.657777
-2.677660
-1.377738
0.115635
1.525921
2.516071
3.031529
3.473621
4.510487
6.091650
7.411638
8.175729
8.818483
9.466566
9.887651
9.889226
9.561903
9.287254
9.057754
9.133950
9.295114
9.448440
9.628730
9.940704
10.188717
10.300343
10.197511
9.952961
9.850443
9.496156
8.817674
7.690838
6.227579
4.798495
3.488555
1.987045
0.636658
-0.482967
-1.595380
-2.620318
-3.621427
-4.615324
-5.472834
-6.073873
-6.513755
-7.264349
-8.413133
-9.956030
-11.467573
-12.427922
-13.124275
-13.923468
-14.807001
-15.320877
-15.256595
-14.715427
-14.193698
-13.671342
-12.709097
-11.083412
-9.345169
-7.927985
-6.355288
-4.011295
-1.140251
1.486550
3.516694
4.887789
6.167331
7.524003
8.696943
9.644766
10.367157
11.246629
12.301054
13.507542
14.767646
15.856245
16.302412
16.120570
15.607321
14.796841
13.979777
13.116937
12.180730
10.531231
8.819339
7.532287
6.391028
5.236287
4.386302
4.267480
4.279715
4.304805
4.277221
4.379754
5.060132
5.861534
6.241232
6.437825
6.557603
6.803421
6.920691
7.159611
7.455596
7.811465
8.294002
8.610993
8.997902
9.740673
10.721730
11.204267
10.971632
10.153314
9.244384
8.278391
7.093551
5.712438
4.332266
2.689038
0.700295
-1.442707
-3.140803
-4.260115
-5.145216
-5.608613
-5.920572
-6.154148
-6.347278
-6.661433
-7.341796
-8.423169
-9.693918
-10.898511
-12.116899
-13.018931
-13.246236
-12.688451
-11.729655
-10.616599
-9.183425
-7.532971
-5.846774
-4.519261
