EVENT_NAME: 202302060117
EVENT_ID: 13194
EVENT_DATE_YYYYMMDD: 2023/02/06
EVENT_TIME_HHMMSS: 01:17:32.00000
EVENT_LATITUDE_DEGREE: 37.288
EVENT_LONGITUDE_DEGREE: 37.043
EVENT_DEPTH_KM: 8.6
HYPOCENTER_REFERENCE: AFAD
MAGNITUDE_W: 7.7
MAGNITUDE_W_REFERENCE: AFAD
MAGNITUDE_L: 
MAGNITUDE_L_REFERENCE: 
FOCAL_MECHANISM: 
NETWORK: TK
STATION_CODE: 0604
STATION_NAME: 
STATION_LATITUDE_DEGREE: 38.96246
STATION_LONGITUDE_DEGREE: 33.52402
STATION_ELEVATION_M: 971.0
LOCATION: Kahramanmaras_Pazarck_Turkiye
SENSOR_DEPTH_M: 
VS30_M/S: 291
SITE_CLASSIFICATION_EC8: C
MORPHOLOGIC_CLASSIFICATION: 
EPICENTRAL_DISTANCE_KM: 359.70
EARTHQUAKE_BACKAZIMUTH_DEGREE: 
DATE_TIME_FIRST_SAMPLE_YYYYMMDD_HHMMSS: 2023/02/06 01:17:57.9765760
DATE_TIME_FIRST_SAMPLE_PRECISION: millisecond
SAMPLING_INTERVAL_S: 0.01
NDATA: 21001
DURATION_S: 
STREAM: HNN
UNITS: cm/s^2
INSTRUMENT: sensor = CMG-5T/GURALP | digitizer = 
INSTRUMENT_ANALOG/DIGITAL: 
INSTRUMENTAL_FREQUENCY_HZ: 
INSTRUMENTAL_DAMPING: 
FULL_SCALE_G: 
N_BIT_DIGITAL_CONVERTER: 
PGA_CM/S^2: 4.700
TIME_PGA_S: 
BASELINE_CORRECTION: BASELINE REMOVED
FILTER_TYPE: BUTTERWORTH
FILTER_ORDER: 
LOW_CUT_FREQUENCY_HZ: 
HIGH_CUT_FREQUENCY_HZ: 
LATE/NORMAL_TRIGGERED: 
DATABASE_VERSION: 
HEADER_FORMAT: DYNA 1.2
DATA_TYPE: Acceleration
PROCESSING: Automatic Paolucci et al., 2011
DATA_TIMESTAMP_YYYYMMDD_HHMMSS: 
DATA_LICENSE: U (unknown license)
DATA_CITATION: Turkish Accelerometric Archive v 1.0 - Disaster And Emergency Management Presidency, Earthquake Department
DATA_CREATOR: AFAD
ORIGINAL_DATA_MEDIATOR_CITATION: : AFAD - Disaster And Emergency Management Presidency
ORIGINAL_DATA_MEDIATOR: AFAD PROCESS SERVICE
ORIGINAL_DATA_CREATOR_CITATION: AFAD PROCESS SERVICE
ORIGINAL_DATA_CREATOR: network: TK
USER1: GuestUser
USER2: 
USER3: 
USER4: 
USER5: 
[...]
0.879251
0.848442
0.876076
0.786507
0.714724
0.719489
0.626108
0.533998
0.539715
0.439347
0.375822
0.399327
0.345331
0.294512
0.371060
0.339615
0.315794
0.402823
0.379955
0.346605
0.379321
0.345335
0.264342
0.273236
0.179537
0.062334
0.024855
-0.072972
-0.199068
-0.208597
-0.248935
-0.342951
-0.299753
-0.307376
-0.361372
-0.327068
-0.317539
-0.369946
-0.318491
-0.324525
-0.396943
-0.378202
-0.388684
-0.473806
-0.484923
-0.500803
-0.602443
-0.581161
-0.588784
-0.646909
-0.590371
-0.519223
-0.529704
-0.428064
-0.317213
-0.309590
-0.228277
-0.149824
-0.151412
-0.099639
-0.025949
-0.066605
-0.004350
0.058540
0.025507
0.067117
0.138265
0.100786
0.126196
0.207826
0.179240
0.215132
0.259600
0.209733
0.204016
0.244355
0.159868
0.155739
0.185914
0.103967
0.062994
0.074429
0.016304
-0.019904
0.012494
-0.057383
-0.065641
-0.016726
-0.050076
-0.067228
0.028695
0.036001
0.063635
0.190049
0.217048
0.289466
0.438750
0.486076
0.521015
0.662041
0.672840
0.689040
0.803702
0.800844
0.762730
0.861829
0.862464
0.821491
0.932978
0.945048
0.925673
1.020326
1.071781
1.028267
1.153729
1.215348
1.170246
1.265851
1.283003
1.189940
1.225832
1.224880
1.081314
1.053681
0.949184
0.783385
0.712237
0.596305
0.401285
0.306633
0.225004
0.078263
0.027126
-0.004636
-0.105958
-0.142802
-0.129143
-0.223477
-0.212995
-0.176150
-0.243168
-0.245074
-0.207594
-0.280964
-0.298433
-0.276199
-0.384191
-0.405471
-0.399118
-0.495040
-0.547765
-0.532519
-0.637334
-0.699588
-0.709116
-0.811073
-0.884126
-0.893972
-0.973695
-1.051195
-1.041348
-1.131235
-1.165855
-1.151880
-1.191582
-1.214451
-1.173794
-1.196663
-1.228425
-1.162041
-1.176969
-1.180145
-1.113125
-1.112490
-1.143934
-1.073739
-1.116300
-1.191576
-1.161084
-1.220162
-1.315131
-1.301155
-1.361820
-1.458695
-1.425979
-1.460918
-1.509514
-1.463140
-1.424072
-1.453610
-1.348159
-1.280505
-1.269705
-1.119786
-1.013064
-0.987972
-0.856157
-0.723708
-0.724978
-0.587129
-0.496923
-0.501369
-0.421328
-0.338110
-0.332392
-0.239010
-0.113866
-0.101161
-0.005873
0.099260
0.105931
0.171044
0.279990
0.258392
0.332716
0.424510
0.401641
0.454367
0.538220
0.526469
0.562043
0.643673
0.621440
0.662731
0.762148
0.785335
0.822815
0.964475
1.003861
1.095655
1.292582
1.364048
1.482839
1.680719
1.750279
1.817616
1.977381
1.995169
2.030425
2.138100
2.145088
2.158747
2.281667
2.303266
2.324547
2.447151
2.438893
2.424600
2.485584
2.446200
2.339161
2.359489
2.262614
2.112696
2.067912
1.939275
1.766806
1.682318
1.539388
1.318322
1.220495
1.080741
0.882544
0.770106
0.633846
0.395946
0.275885
0.132637
-0.096370
-0.211031
-0.332681
-0.538183
-0.642680
-0.717004
-0.866287
-0.890108
-0.926634
-1.002863
-0.991429
-0.943149
-0.979040
-0.932032
-0.872000
-0.918373
-0.855801
-0.769407
-0.783699
-0.732879
-0.623298
-0.659189
-0.614722
-0.528327
-0.523880
-0.468296
-0.357445
-0.318059
-0.224042
-0.099850
-0.101438
-0.000751
0.097713
0.083103
0.130111
0.214282
0.183155
0.239058
0.345780
0.322276
0.371826
0.484265
0.477913
0.514122
0.625609
0.574472
0.537945
0.534452
0.435989
0.366748
0.330221
0.199678
0.160611
0.187610
0.072630
0.047856
0.140603
0.123451
0.100901
0.206670
0.215246
0.257808
0.359448
0.382953
0.439808
0.569081
0.629430
0.687873
0.845097
0.903858
0.997557
1.183050
1.275797
1.313277
1.534026
1.669334
1.704908
1.878013
1.964407
1.983465
2.088917
2.137514
2.101305
2.158160
2.164513
2.107341
2.093684
2.087649
1.991728
1.953931
1.934556
1.835140
1.819577
1.797662
1.698564
1.658226
1.643933
1.525142
1.465430
1.431762
1.346957
1.238012
1.197675
1.148126
1.076661
1.035688
0.995350
1.022666
0.982964
0.919757
0.986458
1.037914
0.894348
0.931193
1.022034
0.876563
0.824155
0.914679
0.813675
0.702189
0.727917
0.652641
0.580541
0.515111
0.437293
0.356617
0.294046
0.107601
0.018032
0.006598
-0.192869
-0.299908
-0.292285
-0.439344
-0.583545
-0.547653
-0.644210
-0.766812
-0.741720
-0.765541
-0.873215
-0.841452
-0.848439
-0.902435
-0.809688
-0.792219
-0.787454
-0.642935
-0.549870
-0.540024
-0.352943
-0.195719
-0.170308
-0.012767
0.153351
0.178126
0.315975
0.465259
0.450966
0.527196
0.676480
0.698714
0.717772
0.839740
0.862292
0.887067
0.964567
0.991883
1.043021
1.117346
1.100512
1.146885
1.265995
1.250432
1.291406
1.420679
1.489604
1.550905
1.691931
1.757044
1.860590
2.042271
2.108655
2.170274
2.340203
2.474241
2.514262
2.633371
2.644171
2.641948
2.668629
2.625432
2.594623
2.544439
2.488220
2.416438
2.419615
2.355773
2.294472
2.323058
2.295743
2.222055
2.296062
2.354187
2.297015
2.399926
2.452017
2.407550
2.453606
2.481557
2.418668
2.421209
2.375154
2.256364
2.206497
2.158219
2.030852
1.957481
1.911426
1.785330
1.758333
1.793907
1.671305
1.571254
1.618262
1.524246
1.445158
1.415620
1.325733
1.279678
1.200272
1.046543
0.985877
0.940140
0.755919
0.582497
0.520878
0.409710
0.214372
0.151165
0.060643
-0.054654
-0.123895
-0.233475
-0.289376
-0.317644
-0.392603
-0.457080
-0.454221
-0.498688
-0.516792
-0.464384
-0.498052
-0.521555
-0.440561
-0.468194
-0.551093
-0.445006
-0.413561
-0.457710
-0.382433
-0.312555
-0.257606
-0.121345
0.001893
0.098769
0.266157
0.391937
0.481507
0.626979
0.721949
0.745136
0.887114
0.970650
0.942382
1.067208
1.213951
1.160590
1.221257
1.349577
1.284465
1.308287
1.386741
1.363237
1.340368
1.327982
1.324806
1.335605
1.284151
1.281293
1.334336
1.355935
1.312421
1.410885
1.557627
1.506173
1.549688
1.711041
1.711994
1.683409
1.819352
1.821258
1.792672
1.851433
1.827930
1.783145
1.825072
1.816496
1.758372
1.800299
1.741539
1.637041
1.622748
1.561765
1.419152
1.327995
1.187606
0.996714
0.857278
0.707678
0.538067
0.428487
0.299533
0.117852
0.052105
-0.049217
-0.207393
-0.306491
-0.398284
-0.587905
-0.692403
-0.755292
-0.935384
-1.020824
-1.076090
-1.199963
-1.308908
-1.342258
-1.404829
-1.428650
-1.439131
-1.511549
-1.501702
-1.441989
-1.493761
-1.486138
-1.396567
-1.443257
-1.423247
-1.328912
-1.338440
-1.343839
-1.237435
-1.235529
-1.229176
-1.129124
-1.116419
-1.120865
-1.060516
-1.050034
-1.096407
-1.073220
-1.097676
-1.119909
-1.110698
-1.122450
-1.142142
-1.078299
-1.082110
-1.116095
-1.029384
-1.023031
-1.051934
-0.982056
-0.943623
-1.006830
-0.929329
-0.891532
-0.952833
-0.954103
-0.956326
-1.070035
-1.130700
-1.202800
-1.413384
-1.497554
-1.590300
-1.746888
-1.828517
-1.838363
-1.950166
-1.953659
-1.891087
-1.928566
-1.881875
-1.784999
-1.768482
-1.710039
-1.549956
-1.503900
-1.412742
-1.277116
-1.230425
-1.159277
-0.977596
-0.918517
-0.869603
-0.696815
-0.675534
-0.664099
-0.507193
-0.455737
-0.472888
-0.322017
-0.274373
-0.303594
-0.185119
-0.124135
-0.172731
-0.076491
-0.022494
-0.053939
0.045160
0.073747
0.018481
0.053102
0.063267
-0.045995
-0.030114
-0.052347
-0.202583
-0.215605
-0.204170
-0.346465
-0.417930
-0.397919
-0.519568
-0.589127
-0.585951
-0.630100
-0.652333
-0.617077
-0.647250
-0.609135
-0.516071
-0.532905
-0.476685
-0.364563
-0.306120
-0.267687
-0.158106
-0.113639
-0.094898
-0.001199
0.030246
0.028976
0.111876
0.099807
0.047400
0.113466
0.074716
-0.025335
-0.057414
-0.117445
-0.268633
-0.338828
-0.403305
-0.516378
-0.565610
-0.642792
-0.716480
-0.681858
-0.718067
-0.801919
-0.761898
-0.775873
-0.852420
-0.837174
-0.811128
-0.886087
-0.864170
-0.882592
-0.974385
-0.958186
-0.957550
-1.036956
-1.080152
-1.024885
-1.094126
-1.131923
-1.090632
-1.144627
-1.190682
-1.143356
-1.164636
-1.213550
-1.188140
-1.248805
-1.302483
-1.326940
-1.363148
-1.415873
-1.416508
-1.454623
-1.484796
-1.449222
-1.466691
-1.487971
-1.465420
-1.460020
-1.514333
-1.473994
-1.466371
-1.520366
-1.477487
-1.414597
-1.474310
-1.453346
-1.389186
-1.417136
-1.391726
-1.355198
-1.396171
-1.383148
-1.293896
-1.324705
-1.277378
-1.171609
-1.162398
-1.104907
-0.983257
-0.981033
-0.934977
-0.832702
-0.864147
-0.870181
-0.839689
-0.874309
-0.943868
-0.961020
-1.032484
-1.102044
-1.089973
-1.147145
-1.254502
-1.252278
-1.286898
-1.358046
-1.323106
-1.364079
-1.421569
-1.366937
-1.344385
-1.373289
-1.285624
-1.250368
-1.262437
-1.158256
-1.097272
-1.070273
-0.974986
-0.927659
-0.962915
-0.895896
-0.873980
-0.977842
-1.000710
-0.993405
-1.149993
-1.245597
-1.255761
-1.427594
-1.520023
-1.529551
-1.622614
-1.673751
-1.664857
-1.732828
-1.759508
-1.764907
-1.830337
-1.863052
-1.845900
-1.896402
-1.962785
-1.941186
-2.006933
-2.055212
-2.030119
-2.055528
-2.113653
-2.068868
-2.085701
-2.128898
-2.060291
-2.046950
-2.054572
-1.960238
-1.887819
-1.882737
-1.747746
-1.673739
-1.666751
-1.587663
-1.520008
-1.563522
-1.511114
-1.477763
-1.567015
-1.544463
-1.567967
-1.655631
-1.661030
-1.643560
-1.720424
-1.706766
-1.690567
-1.723282
-1.686119
-1.627994
-1.646415
-1.601630
-1.496496
-1.521906
-1.470133
-1.353564
-1.357375
-1.359916
-1.284321
-1.335775
-1.349750
-1.316717
-1.383735
-1.419626
-1.378652
-1.420261
-1.483467
-1.422483
-1.452975
-1.477749
-1.408506
-1.372932
-1.362768
-1.264304
-1.237623
-1.257315
-1.173462
-1.165839
-1.192201
-1.151862
-1.163932
-1.263665
-1.257947
-1.280498
-1.331000
-1.296061
-1.289073
-1.335763
-1.298601
-1.234440
-1.250639
-1.127718
-1.016867
-0.998762
-0.855195
-0.691936
-0.653186
-0.505173
-0.349219
-0.317774
-0.210417
-0.107506
-0.105282
-0.054462
0.039555
-0.011582
-0.009676
0.069095
0.045274
0.049404
0.158984
0.162161
0.182807
0.299693
0.294611
0.295882
0.371795
0.358773
0.321611
0.382278
0.328600
0.253958
0.290486
0.271746
0.178683
0.185989
0.170426
0.090067
0.125006
0.135488
0.122149
0.178686
0.226965
0.200285
0.264446
0.312090
0.302244
0.354970
0.365770
0.304786
0.332420
0.400710
0.339726
0.384829
0.463600
0.455660
0.504575
0.578264
0.558889
0.594781
0.657671
0.591288
0.578901
0.603359
0.515377
0.448042
0.464241
0.359426
0.282243
0.296855
0.247941
0.188863
0.195534
0.132963
0.058639
0.090084
0.038312
-0.031565
-0.027435
-0.085242
-0.211974
-0.226266
-0.296143
-0.405723
-0.405087
-0.473693
-0.583591
-0.546428
-0.549922
-0.668713
-0.616304
-0.577871
-0.624879
-0.553731
-0.480995
-0.527685
-0.441926
-0.337427
-0.353943
-0.278031
-0.173532
-0.169085
-0.133193
-0.034094
-0.075067
-0.039175
0.031020
0.007199
0.032927
0.092958
0.074219
0.097088
0.220962
0.226362
0.237479
0.303863
0.300687
0.271148
0.334991
0.317522
0.275596
0.307677
0.273056
0.249870
0.292432
0.280998
0.211439
0.256224
0.245426
0.191430
0.215570
0.193337
0.094239
0.090110
0.063112
-0.024234
-0.001047
-0.031221
-0.111896
-0.105226
-0.099191
-0.192254
-0.181137
-0.171608
-0.229415
-0.212898
-0.203686
-0.272610
-0.270704
-0.260857
-0.354556
-0.354873
-0.345026
-0.427925
-0.447935
-0.410455
-0.487002
-0.468579
-0.409183
-0.461591
-0.450474
-0.382819
-0.430462
-0.452378
-0.377736
-0.415533
-0.383452
-0.255450
-0.184619
-0.091872
0.097114
0.178109
0.289913
0.490016
0.600867
0.735540
0.921033
1.057611
1.151628
1.350143
1.453054
1.540083
1.708742
1.800853
1.879307
2.036213
2.118161
2.153417
2.344945
2.430068
2.478348
2.650182
2.740706
2.738800
2.865533
2.927787
2.882685
2.955739
2.975750
2.887133
2.884275
2.867759
2.721653
2.701643
2.665117
2.516151
2.427535
2.366234
2.200435
2.095937
2.011450
1.836439
1.751952
1.657618
1.498807
1.400662
1.363500
1.223746
1.165939
1.174833
1.106544
1.105592
1.175470
1.167847
1.212950
1.325072
1.305062
1.355247
1.464827
1.466098
1.483250
1.586796
1.569963
1.573139
1.629994
1.575681
1.549319
1.595057
1.539473
1.450857
1.488019
1.390827
1.236145
1.185008
1.045571
0.826729
0.729537
0.558338
0.318532
0.216258
0.070787
-0.126139
-0.205862
-0.297020
-0.483782
-0.531743
-0.619089
-0.778853
-0.816968
-0.843965
-0.974191
-1.032633
-1.077417
-1.213677
-1.253380
-1.308011
-1.458564
-1.550674
-1.556074
-1.687569
-1.753635
-1.718696
-1.790478
-1.840662
-1.816840
-1.879411
-1.916573
-1.893386
-2.009953
-2.067125
-2.084912
-2.196715
-2.285649
-2.293589
-2.386335
-2.445095
-2.414920
-2.478444
-2.517829
-2.459704
-2.476220
-2.522275
-2.420952
-2.412058
-2.410787
-2.293266
-2.258962
-2.259280
-2.162086
-2.128100
-2.136993
-2.038847
-2.012801
-2.033129
-1.972780
-1.946417
-1.987390
-1.916877
-1.903536
-1.955626
-1.904488
-1.887654
-1.948319
-1.900993
-1.841914
-1.919732
-1.854301
-1.765366
-1.770765
-1.667854
-1.502054
-1.445835
-1.302904
-1.105659
-1.019900
-0.830278
-0.610800
-0.520594
-0.402120
-0.203923
-0.139445
-0.030817
0.134983
0.193109
0.273468
0.423387
0.469125
0.506605
0.655889
0.685746
0.694004
0.773411
0.772141
0.746414
0.832808
0.810575
0.766108
0.816928
0.771191
0.703537
0.723230
0.641919
0.493907
0.481202
0.357330
0.175014
0.106725
0.012392
-0.147373
-0.181358
-0.238530
-0.351286
-0.338898
-0.376695
-0.445936
-0.409727
-0.380823
-0.436089
-0.377328
-0.323331
-0.367481
-0.366845
-0.355410
-0.433863
-0.481188
-0.520255
-0.649210
-0.707652
-0.774988
-0.937929
-1.080224
-1.156453
-1.320981
-1.439455
-1.507108
-1.690059
-1.851411
-1.927005
-2.100110
-2.264956
-2.349761
-2.559392
-2.687076
-2.796339
-3.020263
-3.203214
-3.317558
-3.527189
-3.711092
-3.820672
-4.034432
-4.205314
-4.279637
-4.410180
-4.559780
-4.571532
-4.644585
-4.699533
-4.626797
-4.633467
-4.647759
-4.528332
-4.481006
-4.457184
-4.276455
-4.195779
-4.153534
-4.007109
-3.895623
-3.835592
-3.684402
-3.593561
-3.546235
-3.388376
-3.276572
-3.232104
-3.114900
-3.032318
-3.028188
-2.879540
-2.751855
-2.695953
-2.549528
-2.382140
-2.282405
-2.060703
-1.805334
-1.654144
-1.404174
-1.114501
-0.937902
-0.731128
-0.439867
-0.310276
-0.177509
0.000679
0.100730
0.235086
0.411685
0.493950
0.619094
0.816021
0.909085
1.071074
1.302622
1.401403
1.460164
1.624058
1.655504
1.670432
1.748251
1.724112
1.688221
1.747617
1.736500
1.628826
1.652649
1.619934
1.526235
1.557363
1.561810
1.471923
1.508132
1.571658
1.571023
1.615173
1.651383
1.638996
1.695851
1.709509
1.605964
1.654561
1.645986
1.525924
1.537994
1.543712
1.438897
1.437627
1.429051
1.308990
1.310896
1.368704
1.302321
1.243561
1.317250
1.249915
1.202272
1.227999
1.175274
1.160982
1.131126
1.018370
0.933882
0.903391
0.741086
0.619754
0.565441
0.431721
0.258935
0.154754
-0.022479
-0.208606
-0.294364
-0.466198
-0.630409
-0.753647
-0.962642
-1.201177
-1.322827
-1.519435
-1.740183
-1.841823
-1.981259
-2.168974
-2.224558
-2.289988
-2.418625
-2.449752
-2.530110
-2.667005
-2.713060
-2.746410
-2.882353
-2.919197
-2.962075
-3.054504
-3.056091
-3.060537
-3.096746
-3.087217
-3.064665
-3.074829
-2.983035
-2.920463
-2.929991
-2.849949
-2.736557
-2.727346
-2.637776
-2.503103
-2.476739
-2.376370
-2.212476
-2.132116
-2.005067
-1.771295
-1.658538
-1.498138
-1.257379
-1.087767
-0.911168
-0.664692
-0.497303
-0.311493
-0.063429
0.053140
0.194165
0.404115
0.536247
0.648686
0.872929
0.960911
1.044446
1.239785
1.316968
1.359530
1.508814
1.585679
1.597749
1.740045
1.795630
1.813417
1.942373
2.041472
2.065929
2.203778
2.346392
2.406423
2.547131
2.668464
2.682440
2.740248
2.788209
2.734214
2.761847
2.761530
2.668784
2.628764
2.597955
2.482658
2.431521
2.390548
2.259688
2.213315
2.190129
2.078008
2.001144
1.973193
1.854085
1.797231
1.778809
1.681617
1.602529
1.590142
1.476751
1.375747
1.365266
1.243616
1.158176
1.132131
1.049867
0.958710
0.958075
0.849766
0.748444
0.775443
0.728117
0.669992
0.692544
0.637596
0.561684
0.609963
0.527064
0.440353
0.454647
0.399063
0.299647
0.301236
0.265662
0.164023
0.149413
0.111616
0.028399
0.049998
0.067150
-0.029089
0.016014
0.039201
-0.001772
0.037931
0.062706
0.024909
0.036344
0.048732
-0.048460
-0.071329
-0.065611
-0.165980
-0.228234
-0.259043
-0.416583
-0.460733
-0.491224
-0.618273
-0.674492
-0.683385
-0.767555
-0.816151
-0.747226
-0.807892
-0.823137
-0.782163
-0.804397
-0.781527
-0.676711
-0.672264
-0.674169
-0.583646
-0.593492
-0.559188
-0.423880
-0.369566
-0.335262
-0.178356
-0.113560
-0.059881
0.053193
0.104649
0.177068
0.340644
0.436567
0.477859
0.634447
0.744663
0.824070
0.981611
1.111202
1.146141
1.306542
1.422475
1.420252
1.515857
1.553972
1.516811
1.614004
1.717232
1.708657
1.806485
1.884304
1.887798
1.985944
2.086631
2.090126
2.187001
2.267043
2.244492
2.320404
2.414422
2.393776
2.437927
2.552589
2.524321
2.551002
2.629455
2.624056
2.644702
2.720932
2.676466
2.676148
2.739038
2.660903
2.618977
2.638671
2.547195
2.435710
2.427770
2.315331
2.234020
2.202258
2.073939
1.949431
1.917986
1.817618
1.670876
1.642926
1.521594
1.365959
1.311010
1.224935
1.066441
1.002917
0.890478
0.748183
0.738655
0.701811
0.595725
0.597314
0.590962
0.479476
0.487100
0.470266
0.403883
0.425164
0.465186
0.419448
0.466139
0.546499
0.528712
0.626541
0.748191
0.770743
0.870794
1.002609
1.006103
1.098850
1.178891
1.169363
1.229077
1.321188
1.359938
1.459355
1.624202
1.680104
1.796355
1.986930
2.089840
2.187351
2.374114
2.442404
2.507200
2.648543
2.653307
2.645367
2.718421
2.680942
2.588832
2.618053
2.534836
2.438915
2.439868
2.352522
2.237225
2.224838
2.115893
1.947553
1.909757
1.784296
1.598486
1.523845
1.428241
1.240843
1.171602
1.067422
0.863190
0.761551
0.670711
0.475055
0.376910
0.315609
0.126624
0.051982
0.005610
-0.120804
-0.137320
-0.093805
-0.165588
-0.123661
-0.031867
-0.042983
0.024036
0.122499
0.109160
0.150133
0.267972
0.257174
0.311488
0.427421
0.441714
0.463948
0.581787
0.575753
0.588776
0.695180
0.648172
0.633244
0.702804
0.655161
0.589731
0.653892
0.602119
0.545901
0.593227
0.562100
0.507787
0.544949
0.502071
0.407737
0.449981
0.398844
0.312769
0.344849
0.318169
0.234952
0.282596
0.282914
0.215579
0.263223
0.275610
0.219709
0.267671
0.288317
0.205100
0.217170
0.211135
0.134589
0.118708
0.104098
0.004047
-0.002623
-0.004211
-0.102674
-0.108073
-0.095367
-0.186207
-0.232898
-0.220192
-0.345653
-0.419977
-0.470161
-0.600704
-0.678839
-0.726164
-0.861154
-0.964699
-0.987567
-1.122557
-1.218479
-1.247382
-1.327740
-1.399523
-1.383006
-1.443354
-1.473210
-1.393486
-1.404920
-1.416989
-1.340442
-1.330912
-1.351557
-1.243565
-1.236894
-1.251822
-1.180674
-1.172416
-1.223870
-1.167968
-1.166697
-1.243561
-1.193376
-1.213069
-1.285804
-1.254994
-1.265793
-1.363938
-1.314071
-1.340115
-1.441119
-1.411262
-1.433813
-1.548475
-1.549427
-1.558956
-1.686640
-1.685369
-1.683463
-1.781290
-1.798442
-1.774302
-1.866412
-1.866729
-1.846401
-1.908655
-1.894044
-1.857199
-1.920723
-1.924217
-1.852116
-1.920087
-1.909922
-1.848938
-1.891181
-1.899757
-1.848301
-1.919131
-1.935329
-1.854653
-1.903884
-1.910553
-1.813042
-1.825429
-1.841310
-1.727918
-1.706319
-1.637394
-1.476041
-1.392506
-1.306747
-1.089809
-0.949737
-0.861119
-0.634336
-0.475841
-0.345297
-0.135665
0.018383
0.133363
0.353477
0.478621
0.566921
0.765753
0.907732
0.964904
1.121811
1.272365
1.322868
1.495973
1.646845
1.724663
1.860606
