EVENT_NAME: 202302060117
EVENT_ID: 13194
EVENT_DATE_YYYYMMDD: 2023/02/06
EVENT_TIME_HHMMSS: 01:17:32.00000
EVENT_LATITUDE_DEGREE: 37.288
EVENT_LONGITUDE_DEGREE: 37.043
EVENT_DEPTH_KM: 8.6
HYPOCENTER_REFERENCE: AFAD
MAGNITUDE_W: 7.7
MAGNITUDE_W_REFERENCE: AFAD
MAGNITUDE_L: 
MAGNITUDE_L_REFERENCE: 
FOCAL_MECHANISM: 
NETWORK: TK
STATION_CODE: 4629
STATION_NAME: 
STATION_LATITUDE_DEGREE: 37.287373
STATION_LONGITUDE_DEGREE: 36.788705
STATION_ELEVATION_M: 494.0
LOCATION: Kahramanmaras_Pazarck_Turkiye
SENSOR_DEPTH_M: 
VS30_M/S: 382
SITE_CLASSIFICATION_EC8: C
MORPHOLOGIC_CLASSIFICATION: 
EPICENTRAL_DISTANCE_KM: 22.50
EARTHQUAKE_BACKAZIMUTH_DEGREE: 
DATE_TIME_FIRST_SAMPLE_YYYYMMDD_HHMMSS: 2023/02/06 01:17:06.1500710
DATE_TIME_FIRST_SAMPLE_PRECISION: millisecond
SAMPLING_INTERVAL_S: 0.01
NDATA: 5367
DURATION_S: 
STREAM: HNN
UNITS: cm/s^2
INSTRUMENT: sensor = ACEBOX/SARA | digitizer = 
INSTRUMENT_ANALOG/DIGITAL: 
INSTRUMENTAL_FREQUENCY_HZ: 
INSTRUMENTAL_DAMPING: 
FULL_SCALE_G: 
N_BIT_DIGITAL_CONVERTER: 
PGA_CM/S^2: 338.935
TIME_PGA_S: 
BASELINE_CORRECTION: BASELINE REMOVED
FILTER_TYPE: BUTTERWORTH
FILTER_ORDER: 
LOW_CUT_FREQUENCY_HZ: 
HIGH_CUT_FREQUENCY_HZ: 
LATE/NORMAL_TRIGGERED: 
DATABASE_VERSION: 
HEADER_FORMAT: DYNA 1.2
DATA_TYPE: Acceleration
PROCESSING: Automatic Paolucci et al., 2011
DATA_TIMESTAMP_YYYYMMDD_HHMMSS: 
DATA_LICENSE: U (unknown license)
DATA_CITATION: Turkish Accelerometric Archive v 1.0 - Disaster And Emergency Management Presidency, Earthquake Department
DATA_CREATOR: AFAD
ORIGINAL_DATA_MEDIATOR_CITATION: : AFAD - Disaster And Emergency Management Presidency
ORIGINAL_DATA_MEDIATOR: AFAD PROCESS SERVICE
ORIGINAL_DATA_CREATOR_CITATION: AFAD PROCESS SERVICE
ORIGINAL_DATA_CREATOR: network: TK
USER1: GuestUser
USER2: 
USER3: 
USER4: 
USER5: 
[...]
-0.000790
0.000144
0.001311
0.000375
-0.002666
-0.002667
0.001306
-0.001034
-0.004542
-0.001504
0.000833
0.000831
0.000596
-0.000574
0.000593
0.000124
-0.003852
-0.001281
0.002224
-0.000583
-0.001753
-0.000586
-0.000353
-0.002225
-0.001057
0.002448
-0.000125
-0.000828
0.000807
-0.001064
-0.000598
-0.002236
-0.000601
0.001502
-0.002708
0.001032
0.001965
-0.005284
-0.002480
0.003832
0.000557
-0.003887
-0.001082
0.001020
-0.001319
0.000550
-0.001088
-0.002258
0.001949
0.001246
-0.000626
-0.002030
-0.002032
0.001006
-0.000632
0.001939
0.003808
-0.003441
-0.002975
0.000297
-0.000172
0.000762
-0.002279
-0.002748
-0.000178
-0.000647
-0.000648
-0.001819
-0.000183
-0.000419
-0.003927
-0.000889
-0.000189
-0.002061
0.002380
0.000041
-0.002065
-0.001131
-0.004172
0.001204
0.002839
-0.004410
-0.002307
0.000965
0.000496
-0.000441
-0.002546
0.000725
0.001659
-0.000446
-0.002318
-0.002553
0.002589
0.001418
-0.002324
0.001416
-0.000456
-0.000458
0.002580
-0.001863
-0.002332
0.000706
-0.001634
-0.002103
-0.000234
-0.002807
-0.001639
0.003269
0.000462
-0.001409
0.001628
-0.000009
-0.000245
0.000455
-0.002352
-0.001184
0.001153
-0.001187
-0.001890
-0.000021
0.001381
0.001847
-0.001895
-0.003533
-0.000028
0.000205
-0.000498
0.000670
0.000434
-0.000268
-0.000737
-0.000037
-0.000506
0.000661
0.002063
-0.002147
-0.001447
0.002994
-0.000515
-0.002854
0.000184
-0.000285
-0.001689
0.000414
-0.000055
-0.001693
0.001345
0.000642
-0.003334
0.000405
0.001339
-0.002403
-0.001469
-0.000536
-0.001005
-0.000538
-0.002878
-0.002411
-0.001244
-0.000310
0.001559
0.000856
-0.001249
-0.002420
-0.001018
0.000383
-0.001021
0.000614
-0.001492
-0.002896
0.000844
-0.001262
-0.002199
-0.000096
-0.002201
0.000837
0.001303
-0.004076
-0.001506
0.001299
-0.001275
-0.001042
-0.000108
-0.002681
-0.001981
0.001524
-0.002452
-0.002453
0.001754
-0.002924
-0.001055
0.001983
-0.001759
0.002682
-0.000359
-0.004335
0.001743
-0.001298
-0.002702
0.001037
-0.001302
-0.000369
-0.000370
-0.002476
-0.001542
0.000327
0.000326
-0.000143
0.001024
-0.002016
-0.003888
0.002891
0.002422
-0.003425
-0.001088
0.000781
-0.001558
0.000077
0.002180
0.001243
0.000540
-0.000396
-0.001333
0.000536
-0.001803
-0.003675
0.001701
0.001466
-0.003679
-0.000641
0.000760
-0.001813
0.000056
0.001223
-0.001817
-0.003221
-0.000183
-0.000185
-0.002524
-0.000188
-0.000423
-0.002061
0.001445
-0.000895
-0.002766
0.002142
-0.000665
-0.001602
0.003774
-0.001604
-0.002775
0.001666
-0.001375
0.000494
-0.001611
-0.005587
0.001191
-0.000213
-0.003020
0.003058
0.000952
-0.002790
-0.001622
-0.000689
-0.000456
-0.003029
-0.000927
0.002579
-0.001631
-0.001866
0.000704
-0.001401
-0.000701
0.000466
0.000699
0.000230
-0.003045
-0.003046
-0.001177
0.001861
0.002561
-0.003987
-0.002118
0.004661
-0.000718
-0.001888
0.001150
-0.001423
-0.000957
-0.001426
-0.002363
-0.000494
-0.001430
-0.002133
0.000671
-0.000733
-0.003540
0.000199
0.002068
-0.001908
-0.003312
-0.001209
-0.000275
-0.000978
-0.000512
-0.002618
-0.001684
0.002523
-0.000284
-0.002155
0.001350
0.000180
-0.002160
-0.003330
-0.001695
0.002278
0.000640
-0.002167
-0.000999
-0.000767
-0.001469
0.000400
-0.000069
-0.001941
-0.000774
0.000160
-0.001244
-0.001012
-0.001247
-0.002885
0.000621
0.000386
-0.004292
0.000850
0.001784
-0.002425
0.001314
0.000845
-0.002430
-0.000327
0.000373
0.000372
-0.001500
0.000603
0.001537
-0.002673
0.002937
0.004572
-0.001976
0.007141
0.011348
0.005735
0.010644
0.011811
0.012044
0.014146
0.005261
0.005259
0.009934
0.003386
-0.001057
0.000344
0.005252
0.012732
0.027694
0.053177
0.086608
0.132899
0.178955
0.225246
0.281356
0.314086
0.336295
0.371597
0.367621
0.313613
0.258669
0.212142
0.140832
0.040532
-0.023997
-0.009737
0.026266
0.029772
0.048007
0.128431
0.174488
0.131468
0.138247
0.187343
0.082600
-0.082228
-0.075216
-0.037342
-0.129226
-0.098132
0.201361
0.418557
0.333454
0.254429
0.318254
0.198548
-0.093933
-0.168282
-0.116848
-0.302251
-0.582809
-0.702047
-0.715141
-0.630508
-0.444640
-0.197986
0.006352
-0.031057
-0.113589
-0.074313
-0.060988
0.234063
0.888694
1.368211
1.545662
1.484405
1.225590
1.094195
0.981036
0.573526
0.294370
0.236621
-0.153120
-0.533510
-0.259501
0.498468
1.243813
1.505664
1.365852
0.963018
-0.137467
-1.388518
-1.686611
-1.376831
-1.200549
-0.880014
-0.024084
0.760305
0.876501
1.003685
1.258756
0.799343
0.301354
0.522525
0.570919
0.399311
0.848200
1.441810
1.257810
0.519477
0.233775
0.738776
0.924409
0.108222
-0.643438
-1.120619
-1.969539
-1.947095
-0.690437
0.057012
0.507538
1.225294
1.245867
1.277428
1.757412
1.396662
0.970214
1.179695
0.812632
0.482509
0.385014
-1.078091
-2.446274
-2.167121
-2.218792
-2.543537
-1.249938
0.400903
0.865223
0.983289
1.117955
0.636565
0.151902
0.625807
1.266878
1.366474
1.496932
1.215906
-0.230365
-1.267024
-0.823512
-1.291575
-3.323275
-3.918758
-2.847734
-1.722469
-0.260303
0.857715
1.761573
4.047642
5.109547
2.928685
1.083088
0.660381
-0.387032
-1.585946
-2.342515
-2.664689
-2.816425
-3.732911
-3.388997
0.082657
2.933813
2.217691
1.304945
2.574463
3.042290
1.545285
0.746398
1.372272
1.358944
-0.141101
-0.608930
0.980656
1.526103
0.835932
1.394239
0.950724
-2.631987
-5.027942
-3.984740
-3.284986
-3.310472
-1.420222
0.933180
1.545727
1.427424
2.306968
3.356249
2.007237
-1.106242
-2.322691
-1.097361
-1.203272
-4.334287
-6.814409
-6.436361
-5.709486
-4.940529
-1.974578
2.237746
5.586891
7.081789
6.639911
6.056819
5.264712
2.568795
0.406169
-0.341984
-2.959112
-5.748315
-6.006428
-5.504233
-2.588549
3.313194
5.087012
1.976806
1.571166
2.829696
0.137986
-2.319458
0.687641
4.722045
4.740748
2.946118
3.481747
5.798676
4.852965
-0.137907
-1.993090
1.107762
1.990112
-0.402103
-1.443204
-1.412578
-1.992864
-2.412765
-1.756498
-0.308593
0.142635
-1.693377
-3.949989
-2.615710
0.964426
0.062201
-3.288349
-0.959496
3.376741
0.637103
-5.304388
-4.991335
-0.548955
1.964832
4.554837
7.983473
7.912864
4.716621
2.224574
0.465482
-0.492854
1.475016
2.909127
0.544968
-1.165962
-1.128088
-1.086474
0.118983
0.403513
-0.234988
-0.303492
-4.306571
-9.454554
-7.276968
-3.154188
-3.482908
-1.475526
2.471905
0.825270
-0.818093
3.147107
6.677679
6.570832
6.492508
8.438402
7.973845
2.087764
-2.994756
-3.600527
-5.729953
-9.973375
-7.449769
-1.068040
-2.495140
-5.838442
-2.082023
1.876865
0.519436
-4.331624
-8.584398
-8.958241
-9.721591
-13.979040
-15.205542
-9.383290
-4.033075
-3.990759
-0.943447
8.418262
14.469635
12.874201
10.068632
9.915728
8.895669
5.447625
3.437201
5.970393
7.975437
1.702421
-6.046323
-5.878224
-4.060685
-5.950704
-8.009758
-7.583079
-6.450099
-8.334974
-9.632083
-5.310575
-2.054950
-5.152297
-6.966098
-3.183961
-0.546495
-1.304234
-1.493845
0.558660
6.220293
10.360374
5.971296
3.038308
9.651029
13.554506
9.424009
5.380016
2.642483
0.701730
0.843877
0.445018
1.023197
2.094221
-3.566480
-11.134265
-12.227970
-12.118788
-12.133986
-8.330807
-6.401280
-8.978195
-8.983340
-4.651779
-1.953059
-3.310253
-5.698260
-6.722527
-5.278363
-3.400972
-4.056307
-3.419211
-1.320648
-4.802359
-9.337092
-5.948903
-0.285867
0.095455
-2.021815
-3.774127
-6.225492
-9.136737
-10.676060
-8.231945
-2.704043
0.958389
3.455576
7.340818
9.733030
11.353945
16.875534
24.819028
28.419739
25.473190
20.651354
16.233520
10.771547
6.085547
4.662889
3.475197
-1.157497
-5.636352
-5.540731
-3.521191
-2.870535
-2.995852
-3.491503
-5.587263
-9.121578
-10.398346
-5.403970
2.627666
5.249467
2.387553
-0.050954
-3.177994
-9.337384
-15.516881
-20.387581
-26.003392
-30.560103
-27.406413
-15.908264
-2.887862
7.402021
13.343744
16.340322
21.620632
28.724093
31.659884
28.225634
21.099492
13.959322
9.076231
6.345711
4.178409
2.336319
-1.306243
-9.477927
-15.294804
-11.931866
-5.169749
-3.723714
-9.313808
-15.566484
-17.577375
-18.304486
-19.581488
-19.087008
-14.663565
-8.593956
-4.465799
1.175026
12.617063
27.893375
38.188636
34.832475
25.281855
22.300705
22.413628
16.079123
5.007886
-2.327738
-4.240669
-6.404932
-13.055530
-17.995668
-11.124367
-0.401491
1.265014
-1.113640
-4.728147
-15.085368
-26.897742
-30.520432
-24.839628
-13.497422
-1.006571
6.096189
4.108443
-0.169347
4.261343
15.297742
18.982853
14.331455
13.423619
15.920572
15.427726
14.463545
14.590729
17.459420
23.706248
24.753658
21.083975
20.504157
14.990280
-1.123028
-14.440823
-16.290863
-16.904114
-25.351678
-32.984225
-31.378507
-26.083234
-21.343230
-14.528976
-8.600580
-11.454545
-19.046177
-18.607341
-8.371465
2.766870
5.751524
3.133461
7.275646
18.747141
30.813183
43.249559
57.008994
71.997268
78.747461
64.505699
36.988461
12.587039
-5.209376
-18.937485
-27.338758
-28.637970
-26.252538
-24.866823
-27.095380
-31.077650
-27.133024
-13.590787
-4.598244
-8.052600
-16.022049
-18.974208
-14.771236
-5.405319
4.977850
13.212656
23.086147
34.102439
37.440127
36.940033
41.269957
42.105313
33.533135
23.052003
11.610664
-3.152231
-14.768450
-17.440287
-17.510895
-27.525602
-43.266472
-47.502412
-40.684418
-35.264063
-33.537004
-29.579987
-20.712993
-14.442552
-14.360023
-11.290734
-2.654498
4.253742
6.111728
4.403136
1.405386
-0.892375
-1.376337
-0.356748
4.368059
17.228544
34.811734
47.650709
50.184135
46.064158
45.704343
46.944168
39.790906
32.326927
29.222799
16.884848
-2.856994
-13.754286
-13.050090
-10.284738
-14.507351
-25.508683
-35.408128
-41.420226
-47.892905
-51.677149
-45.647285
-35.009511
-25.938178
-21.089692
-20.759572
-11.751598
8.055237
23.792130
33.464087
40.434985
43.828551
42.265849
36.168181
30.509117
23.025966
12.286721
7.588798
12.653079
21.287444
23.666564
14.883968
-1.086023
-14.912561
-22.421429
-32.521005
-44.058200
-47.325284
-46.017657
-40.212940
-29.555527
-20.473206
-9.844316
2.422323
12.918416
28.462192
48.415852
62.606410
71.168766
73.893905
61.549642
37.603423
12.923783
-11.114318
-32.533422
-47.420231
-56.107437
-62.527512
-65.124299
-55.819637
-40.273757
-27.232547
-14.015989
-5.114393
-1.229152
8.494943
20.214029
23.109607
21.511601
20.470033
14.814242
6.435882
-1.113433
-14.270843
-21.810806
-7.887947
11.503431
25.014807
36.287107
31.937541
10.480796
-3.309971
5.066282
24.306627
32.655760
29.138278
27.826908
24.237885
10.711543
-1.154371
-1.522837
-1.659610
-16.838197
-39.910949
-52.561955
-51.436924
-44.118603
-37.908949
-35.436544
-29.408785
-17.038105
-6.850391
4.819365
25.357518
40.879083
38.376749
27.070780
20.665435
21.330119
24.335582
22.459591
12.596150
7.537010
17.504020
27.892332
23.394773
11.305583
1.374809
-12.448456
-30.605855
-37.395796
-28.620451
-17.467154
-14.416335
-20.220119
-29.025861
-38.585599
-53.105345
-67.485749
-67.846733
-57.095568
-53.897924
-59.251181
-57.542592
-48.295444
-39.800656
-29.130150
-13.422248
1.554102
7.387810
2.415876
-2.871217
-1.848122
-2.422095
-13.060106
-26.709893
-29.709981
-30.108139
-39.796232
-43.035026
-30.763009
-24.619520
-39.114017
-54.396176
-49.259418
-40.526390
-51.540581
-72.327497
-85.202012
-93.713871
-104.041866
-107.792677
-102.059736
-90.230063
-71.087446
-53.307867
-39.778722
-22.425355
-10.706502
-12.470036
-17.696576
-18.698165
-14.225157
-8.510685
-7.333050
-11.356001
-16.629533
-15.537468
-7.072138
2.574336
11.543265
20.759318
34.387593
53.568787
67.962047
75.671276
84.478184
92.110261
93.665479
87.460965
72.698070
50.199524
26.663619
18.832812
22.748447
18.291335
11.706901
1.421924
-23.986930
-39.031786
-32.038443
-27.679061
-35.728234
-51.628320
-65.974823
-68.252010
-58.236136
-37.357107
-13.259858
6.095982
31.539202
68.497171
100.870376
124.407914
149.427961
162.149570
144.791290
114.081317
89.429498
65.363809
25.888776
-30.000228
-76.744252
-98.815182
-110.111099
-123.196499
-137.118426
-147.160488
-151.224119
-151.647294
-155.229303
-165.788524
-168.707251
-143.394256
-93.231184
-39.353774
4.912463
40.712434
77.799693
115.989072
139.578046
150.696039
168.391685
188.782312
196.122844
192.702388
189.403274
187.080730
175.818247
151.429450
125.959107
108.031298
91.235535
77.650743
71.988172
63.044022
49.262841
36.354659
16.287605
-17.097945
-61.590267
-107.107557
-140.114121
-159.976135
-178.335300
-199.915725
-214.253109
-220.699837
-211.325503
-152.582071
-65.158729
-7.986648
23.545587
57.174751
93.784829
133.420712
169.968834
193.969993
210.918423
223.088972
226.671446
231.922765
233.554201
212.340838
189.579036
178.937285
157.171460
135.844939
130.687370
114.890623
79.267166
46.373526
25.408924
8.481065
-7.040737
-20.002926
-33.687315
-51.036476
-80.264409
-128.633791
-183.737470
-228.639405
-255.940147
-259.346808
-246.321730
-234.408592
-218.370335
-186.146994
-143.155420
-96.599605
-49.560766
-1.489478
40.739216
68.039955
95.629902
126.812844
145.558474
159.791349
171.339997
172.270041
179.547681
202.056979
223.253973
229.381798
227.377686
233.074389
245.186956
254.976981
250.487605
208.071870
132.033516
61.180085
12.303362
-30.662731
-79.218450
-130.582775
-186.074558
-241.760859
-277.812399
-292.406259
-303.689083
-317.225011
-330.585825
-338.934726
-334.217400
-316.941187
-297.726560
-282.586552
-251.150407
-188.233927
-123.786310
-78.487156
-36.134549
9.626588
53.082017
91.796505
127.370160
163.676068
188.623404
190.406341
183.259391
179.577550
177.479919
181.607843
190.799113
189.925645
183.366695
188.701947
187.429154
148.589582
92.398278
54.747565
23.533057
-21.223690
-69.482486
-113.624814
-147.470477
-158.129997
-155.442265
-161.661273
-174.634919
-178.864780
-177.689249
-175.977621
-157.264957
-117.364181
-75.405289
-43.819514
-20.408694
3.961630
32.520900
65.046541
102.144320
134.419797
159.734429
187.201398
212.753801
227.228656
238.387564
260.651608
272.998674
235.763185
161.657634
96.532235
58.075857
34.193699
5.972965
-27.086671
-49.613273
-59.234032
-67.654008
-82.266806
-102.449356
-125.993210
-150.668876
-173.926562
-190.697776
-195.789181
-195.251682
-200.633463
-214.191134
-232.348298
-245.200837
-229.875427
-180.099524
-123.715807
-79.150309
-45.639447
-24.132205
-8.319796
7.368233
28.073318
53.660557
60.568329
47.801828
40.166943
36.816393
35.804284
45.779242
61.146735
82.006126
110.704037
131.593354
140.688768
147.385655
150.170647
156.360194
169.442553
169.539811
156.556112
143.647930
121.434149
87.816673
59.937283
40.292466
18.696144
1.108977
-5.664833
-14.659483
-30.878000
-43.107937
-46.848460
-43.822658
-36.667060
-30.111152
-23.579559
-13.110587
-3.905055
-3.707497
-10.973684
-22.715685
-38.118017
-56.639671
-78.868415
-101.681419
-124.736870
-151.310970
-177.826153
-205.455380
-236.582681
-262.696434
-280.611619
-279.061077
-235.140859
-159.023719
-82.556818
-18.629867
32.427012
68.438570
86.352115
99.626421
126.654319
154.304818
167.955772
174.404600
172.765680
172.192642
184.689338
188.391750
170.029311
138.742326
98.855342
68.359059
63.729405
71.716853
68.618103
44.569715
12.697769
-14.592219
-42.091454
-69.960090
-89.362225
-99.157864
-106.585137
-113.542477
-120.613209
-131.538791
-138.488416
-133.060112
-116.644506
-87.271856
-45.927616
-3.368099
28.654643
46.831678
57.933306
69.973864
88.243248
109.824137
123.613498
128.138176
128.852892
121.261494
103.857858
87.591412
76.428994
66.412650
58.682610
54.704314
56.790953
68.428211
80.082301
76.586330
62.547971
53.555192
48.024249
37.699994
27.711939
20.325581
7.196694
-12.685894
-32.367183
-47.273397
-59.337571
-77.213010
-101.807314
-122.046911
-131.587711
-130.175343
-120.080213
-110.870472
-111.930043
-120.370126
-129.086557
-138.143864
-136.694556
-107.965316
-65.675133
-33.293278
-9.757376
13.516673
34.170322
43.405312
43.517534
46.227476
50.272401
46.990822
39.288369
36.381333
37.725432
37.574865
38.676049
44.165140
49.650022
53.673438
61.768199
72.930147
81.166355
87.990195
93.696717
101.514428
107.698365
85.997301
44.687193
23.404159
18.171775
8.467551
-5.416735
-23.611307
-42.217830
-54.219814
-61.977442
-64.162513
-52.947961
-30.470226
-1.146907
36.639406
71.410435
85.242815
73.843561
48.527991
28.273431
12.317702
-8.362369
-24.885524
-38.227634
-54.114394
-63.354998
-66.915264
-72.782408
-81.746898
-91.416988
-95.097192
-90.634471
-84.497996
-87.502526
-102.638796
-114.122218
-115.374905
-115.749216
-114.453279
-111.936219
-111.649585
-103.045379
-77.013458
-40.503211
-3.159243
35.522981
66.770919
75.329300
75.408322
82.287338
86.713586
89.129178
94.952599
101.606936
109.165366
114.318256
117.035213
124.377849
134.723376
138.070650
125.950599
102.024486
79.445280
61.708717
49.308343
42.106450
22.801575
-9.890532
-30.920364
-41.140579
-55.760157
-70.678762
-81.334307
-88.667126
-95.051897
-103.660080
-115.441593
-129.715385
-138.868549
-142.898982
-150.907708
-155.910270
-147.013116
-123.530287
-91.226052
-61.898057
-36.146693
-8.375553
17.548821
43.089067
70.670129
95.982890
124.753980
162.208768
195.807304
216.036143
230.448808
247.525359
266.467144
282.011855
294.780458
302.327900
276.540060
202.214038
120.307607
67.789959
30.208216
-10.739272
-51.624336
-90.572390
-128.509972
-163.396734
-198.582756
-232.121443
-251.683261
-254.944267
-250.534852
-248.546408
-251.889008
-255.217114
-266.093598
-276.708930
-242.772557
-164.351345
-95.408741
-51.393368
-13.791755
15.725382
31.440531
41.248793
49.401068
54.286962
59.408056
67.684244
75.727102
79.906928
79.012652
79.682948
90.661365
105.452080
120.232741
146.701162
184.396294
221.185929
250.902261
269.621705
272.715309
251.094672
203.390209
147.513830
95.418888
44.929432
-0.662672
-35.477424
-64.646908
-94.179011
-117.815916
-131.940311
-141.208504
-146.833901
-152.023734
-159.933097
-164.087676
-157.824716
-145.553634
-138.020688
-135.296951
-126.829049
-111.788405
-97.616551
-82.392610
-62.501374
-43.858849
-28.298941
-13.654817
-2.752852
5.663147
14.134088
23.677925
39.237365
60.075714
79.618592
96.206974
112.694824
128.000594
133.342159
124.739587
110.489175
98.822690
90.771412
84.116138
69.065204
37.274619
6.744202
-5.626013
-14.339171
-25.345646
-27.894037
-24.604278
-21.324571
-22.689013
-33.991008
-50.618905
-66.457970
-79.217924
-88.090766
-93.528424
-91.450669
-78.097106
-56.771290
-34.927846
-20.243743
-15.534132
-15.271579
-10.728198
-4.295502
-3.846612
-5.967389
-8.487491
-14.306940
-20.279760
-24.747394
-25.914978
-19.496310
-6.986755
8.898132
25.509660
42.080975
64.598689
90.780942
110.008662
121.794614
122.117253
99.133811
64.927166
44.667229
38.683888
33.744919
26.452313
15.839085
-1.406504
-22.597422
-42.439563
-52.281494
-37.368737
-6.078014
9.819497
3.593475
-7.874750
-17.993263
-27.696553
-34.822461
-35.391759
-28.591065
-20.477132
-19.285937
