EVENT_NAME: 202302060117
EVENT_ID: 13194
EVENT_DATE_YYYYMMDD: 2023/02/06
EVENT_TIME_HHMMSS: 01:17:32.00000
EVENT_LATITUDE_DEGREE: 37.288
EVENT_LONGITUDE_DEGREE: 37.043
EVENT_DEPTH_KM: 8.6
HYPOCENTER_REFERENCE: AFAD
MAGNITUDE_W: 7.7
MAGNITUDE_W_REFERENCE: AFAD
MAGNITUDE_L: 
MAGNITUDE_L_REFERENCE: 
FOCAL_MECHANISM: 
NETWORK: TK
STATION_CODE: 5502
STATION_NAME: 
STATION_LATITUDE_DEGREE: 40.90938
STATION_LONGITUDE_DEGREE: 35.90253
STATION_ELEVATION_M: 916.0
LOCATION: Kahramanmaras_Pazarck_Turkiye
SENSOR_DEPTH_M: 
VS30_M/S: 422
SITE_CLASSIFICATION_EC8: unknown
MORPHOLOGIC_CLASSIFICATION: 
EPICENTRAL_DISTANCE_KM: 414.52
EARTHQUAKE_BACKAZIMUTH_DEGREE: 
DATE_TIME_FIRST_SAMPLE_YYYYMMDD_HHMMSS: 2023/02/06 01:18:04.7544750
DATE_TIME_FIRST_SAMPLE_PRECISION: millisecond
SAMPLING_INTERVAL_S: 0.01
NDATA: 21001
DURATION_S: 
STREAM: HNN
UNITS: cm/s^2
INSTRUMENT: sensor = CMG-5T/GURALP | digitizer = 
INSTRUMENT_ANALOG/DIGITAL: 
INSTRUMENTAL_FREQUENCY_HZ: 
INSTRUMENTAL_DAMPING: 
FULL_SCALE_G: 
N_BIT_DIGITAL_CONVERTER: 
PGA_CM/S^2: 2.630
TIME_PGA_S: 
BASELINE_CORRECTION: BASELINE REMOVED
FILTER_TYPE: BUTTERWORTH
FILTER_ORDER: 
LOW_CUT_FREQUENCY_HZ: 
HIGH_CUT_FREQUENCY_HZ: 
LATE/NORMAL_TRIGGERED: 
DATABASE_VERSION: 
HEADER_FORMAT: DYNA 1.2
DATA_TYPE: Acceleration
PROCESSING: Automatic Paolucci et al., 2011
DATA_TIMESTAMP_YYYYMMDD_HHMMSS: 
DATA_LICENSE: U (unknown license)
DATA_CITATION: Turkish Accelerometric Archive v 1.0 - Disaster And Emergency Management Presidency, Earthquake Department
DATA_CREATOR: AFAD
ORIGINAL_DATA_MEDIATOR_CITATION: : AFAD - Disaster And Emergency Management Presidency
ORIGINAL_DATA_MEDIATOR: AFAD PROCESS SERVICE
ORIGINAL_DATA_CREATOR_CITATION: AFAD PROCESS SERVICE
ORIGINAL_DATA_CREATOR: network: TK
USER1: GuestUser
USER2: 
USER3: 
USER4: 
USER5: 
[...]
0.143896
0.158508
0.176229
0.194882
0.213846
0.233432
0.253950
0.274158
0.292811
0.309288
0.324522
0.336336
0.345973
0.354368
0.358409
0.362451
0.366493
0.363385
0.356235
0.345355
0.331677
0.314890
0.288466
0.263285
0.234063
0.197380
0.159142
0.116863
0.073652
0.029818
-0.013393
-0.054739
-0.094221
-0.131525
-0.166032
-0.196809
-0.224477
-0.248414
-0.269242
-0.285718
-0.297220
-0.302194
-0.302504
-0.298151
-0.288824
-0.276078
-0.259290
-0.241569
-0.221673
-0.202087
-0.181879
-0.163848
-0.148303
-0.135557
-0.129339
-0.125297
-0.130270
-0.139285
-0.151720
-0.168196
-0.187781
-0.209853
-0.230681
-0.253996
-0.280110
-0.306534
-0.327362
-0.348191
-0.364977
-0.378034
-0.385805
-0.389846
-0.391400
-0.391711
-0.392021
-0.385803
-0.380517
-0.368703
-0.353470
-0.338236
-0.317096
-0.298132
-0.281033
-0.255541
-0.230048
-0.200514
-0.169115
-0.138648
-0.106627
-0.074917
-0.046005
-0.016782
0.013685
0.042908
0.071198
0.097624
0.124360
0.145189
0.168816
0.189957
0.210475
0.227885
0.242186
0.255865
0.264881
0.271721
0.276073
0.277007
0.273898
0.268925
0.262397
0.254004
0.243123
0.232865
0.221052
0.209861
0.198670
0.186546
0.175044
0.166962
0.159812
0.152351
0.149243
0.146135
0.144270
0.144581
0.147069
0.149557
0.155464
0.160438
0.167589
0.176294
0.184377
0.196502
0.206762
0.219819
0.234120
0.248110
0.263344
0.278888
0.296298
0.314018
0.331739
0.348527
0.364071
0.377751
0.386145
0.392363
0.397337
0.397649
0.397338
0.392676
0.387702
0.380863
0.369983
0.363455
0.357238
0.349467
0.343250
0.339520
0.334235
0.328640
0.319936
0.308434
0.295999
0.280456
0.261182
0.236934
0.210510
0.178490
0.146780
0.111652
0.077766
0.045746
0.015592
-0.013941
-0.045961
-0.074872
-0.106892
-0.138601
-0.174352
-0.211346
-0.246475
-0.284091
-0.323261
-0.364296
-0.406264
-0.449476
-0.492688
-0.541184
-0.584085
-0.627918
-0.671752
-0.714963
-0.756310
-0.794547
-0.830919
-0.864805
-0.894027
-0.916099
-0.935683
-0.947185
-0.959309
-0.963039
-0.962417
-0.954955
-0.935370
-0.909255
-0.875680
-0.841172
-0.801068
-0.761897
-0.722415
-0.678891
-0.636922
-0.595886
-0.553916
-0.511947
-0.469667
-0.436092
-0.402827
-0.373293
-0.342827
-0.310806
-0.280339
-0.248007
-0.217852
-0.187385
-0.160960
-0.131426
-0.103757
-0.071736
-0.040337
-0.006451
0.030544
0.065363
0.101737
0.135623
0.173861
0.208059
0.239458
0.268059
0.291997
0.311583
0.327439
0.343916
0.355730
0.363502
0.366922
0.363192
0.355110
0.344851
0.334904
0.324023
0.312211
0.302885
0.293559
0.278326
0.265581
0.253768
0.241333
0.231386
0.222682
0.217086
0.212735
0.207450
0.203409
0.199368
0.190664
0.179162
0.169836
0.161132
0.144656
0.125693
0.104243
0.079684
0.051084
0.018131
-0.016376
-0.051194
-0.088499
-0.131710
-0.174922
-0.216579
-0.253884
-0.290567
-0.326007
-0.357094
-0.380410
-0.401549
-0.421134
-0.432947
-0.443205
-0.452220
-0.457194
-0.458126
-0.455016
-0.448798
-0.442580
-0.433564
-0.421439
-0.408071
-0.388796
-0.372319
-0.356775
-0.340919
-0.324131
-0.312007
-0.305478
-0.301125
-0.300503
-0.296150
-0.298947
-0.304232
-0.308273
-0.311070
-0.315422
-0.320706
-0.320706
-0.325679
-0.323813
-0.325056
-0.328165
-0.331584
-0.335314
-0.331272
-0.328163
-0.320701
-0.311063
-0.295830
-0.279974
-0.263187
-0.239870
-0.213134
-0.184222
-0.152201
-0.120180
-0.085672
-0.049920
-0.018521
0.009769
0.033397
0.056091
0.078475
0.099926
0.118269
0.133813
0.152466
0.171119
0.192571
0.218063
0.246354
0.278064
0.309463
0.345215
0.387184
0.432262
0.481692
0.529878
0.578376
0.629050
0.681900
0.737236
0.786667
0.835786
0.882418
0.929983
0.975683
1.016408
1.058378
1.096927
1.132057
1.160036
1.184907
1.206047
1.225633
1.243976
1.260764
1.275375
1.284391
1.289366
1.290921
1.287813
1.282839
1.275378
1.260146
1.242115
1.225639
1.206676
1.185226
1.164709
1.144813
1.128959
1.118078
1.109064
1.101603
1.096940
1.091034
1.085439
1.078600
1.070207
1.060570
1.044405
1.025131
1.001815
0.977567
0.951454
0.921610
0.889279
0.851042
0.815602
0.776121
0.735397
0.692807
0.649284
0.608249
0.565659
0.527421
0.492604
0.463071
0.441620
0.422968
0.406181
0.394368
0.382866
0.377271
0.370432
0.363283
0.359863
0.357999
0.355512
0.349917
0.345876
0.344011
0.344012
0.342147
0.342769
0.343081
0.345568
0.345879
0.341528
0.335932
0.327539
0.316348
0.301737
0.283085
0.265366
0.247957
0.229926
0.213450
0.196352
0.178944
0.160292
0.137287
0.113661
0.089102
0.067652
0.049932
0.029415
0.009519
-0.010066
-0.027785
-0.050168
-0.071618
-0.090270
-0.106746
-0.120425
-0.131927
-0.141874
-0.147159
-0.148091
-0.144360
-0.139385
-0.133789
-0.116068
-0.093063
-0.065083
-0.032751
0.006731
0.049633
0.092223
0.134814
0.175229
0.215333
0.256991
0.297095
0.337510
0.379168
0.415852
0.453780
0.489842
0.523728
0.557304
0.591190
0.621657
0.647460
0.670777
0.690052
0.709327
0.727047
0.743213
0.756892
0.764354
0.769329
0.768707
0.766843
0.764978
0.759693
0.756585
0.750057
0.743840
0.739488
0.732028
0.723324
0.714930
0.709335
0.706227
0.705295
0.705917
0.709337
0.713068
0.721773
0.729235
0.739184
0.750065
0.760635
0.771516
0.774315
0.777424
0.774938
0.769342
0.759706
0.748515
0.730484
0.704993
0.672040
0.632870
0.594321
0.551731
0.509763
0.469661
0.434221
0.402201
0.369248
0.336607
0.304587
0.278162
0.256401
0.238993
0.218786
0.197958
0.178062
0.159721
0.139203
0.114333
0.090085
0.059931
0.026978
-0.009083
-0.045145
-0.083071
-0.126905
-0.168873
-0.210841
-0.256229
-0.304104
-0.354465
-0.405138
-0.458920
-0.513634
-0.564306
-0.614979
-0.659123
-0.702335
-0.745236
-0.785339
-0.822022
-0.856840
-0.893834
-0.931449
-0.973728
-1.017562
-1.060773
-1.109581
-1.163673
-1.217766
-1.273723
-1.331857
-1.390612
-1.449368
-1.509989
-1.567190
-1.618484
-1.664183
-1.703664
-1.740036
-1.771124
-1.804387
-1.839827
-1.872469
-1.904800
-1.939928
-1.974746
-2.006455
-2.039719
-2.072361
-2.104381
-2.136401
-2.162825
-2.190803
-2.215984
-2.234947
-2.249869
-2.261992
-2.269142
-2.270074
-2.268519
-2.258571
-2.245202
-2.225927
-2.201368
-2.169347
-2.129864
-2.088828
-2.042196
-1.990900
-1.939916
-1.887998
-1.834216
-1.776703
-1.718257
-1.658568
-1.598568
-1.537635
-1.475148
-1.413904
-1.353283
-1.300122
-1.248516
-1.200329
-1.157116
-1.119189
-1.087168
-1.056390
-1.030587
-1.006648
-0.985508
-0.967166
-0.950378
-0.937321
-0.925817
-0.918045
-0.914936
-0.912759
-0.910272
-0.909338
-0.909649
-0.912757
-0.917109
-0.921150
-0.923015
-0.924258
-0.927055
-0.927676
-0.929230
-0.930473
-0.931405
-0.933270
-0.934202
-0.934202
-0.932336
-0.929226
-0.921454
-0.914614
-0.905909
-0.890676
-0.875753
-0.855545
-0.831918
-0.804871
-0.775959
-0.746425
-0.718756
-0.693885
-0.673056
-0.659377
-0.646008
-0.638236
-0.632951
-0.628909
-0.625799
-0.623001
-0.620203
-0.613052
-0.605279
-0.595642
-0.584139
-0.563620
-0.539682
-0.511702
-0.479992
-0.449526
-0.418748
-0.389214
-0.356882
-0.325794
-0.292840
-0.260197
-0.225379
-0.188073
-0.152321
-0.115948
-0.082372
-0.052838
-0.025481
0.004053
0.035453
0.066852
0.097318
0.128718
0.157941
0.186853
0.215765
0.244056
0.269859
0.295041
0.320844
0.346026
0.373073
0.398565
0.422193
0.438048
0.444888
0.448308
0.451417
0.452661
0.448931
0.441782
0.434321
0.427482
0.419711
0.411318
0.404790
0.401681
0.399506
0.400128
0.404170
0.407901
0.415984
0.421891
0.425001
0.425934
0.423758
0.416298
0.406350
0.401998
0.395781
0.391429
0.386456
0.382726
0.376820
0.373711
0.372779
0.377132
0.383039
0.388325
0.393610
0.392989
0.395166
0.396720
0.398275
0.399208
0.399831
0.400764
0.397345
0.387086
0.374962
0.360041
0.341700
0.323047
0.302530
0.279836
0.254034
0.227610
0.201807
0.177559
0.153622
0.130307
0.106680
0.081811
0.055076
0.026475
-0.000571
-0.024819
-0.049999
-0.074558
-0.104091
-0.138909
-0.172794
-0.206680
-0.235902
-0.266056
-0.298387
-0.327298
-0.355277
-0.381701
-0.407193
-0.433617
-0.460041
-0.481180
-0.496102
-0.510091
-0.522215
-0.532162
-0.541488
-0.551436
-0.563870
-0.583766
-0.607082
-0.633195
-0.661484
-0.688219
-0.716820
-0.746974
-0.778994
-0.812569
-0.843967
-0.871013
-0.902411
-0.935053
-0.967073
-0.993808
-1.015258
-1.035775
-1.056915
-1.078676
-1.096395
-1.114426
-1.132456
-1.153285
-1.175046
-1.193076
-1.208930
-1.226339
-1.246235
-1.265198
-1.276389
-1.287891
-1.297839
-1.302190
-1.297527
-1.284158
-1.272966
-1.259598
-1.246540
-1.233172
-1.218871
-1.207679
-1.200839
-1.196797
-1.196175
-1.196175
-1.199283
-1.203324
-1.206743
-1.210162
-1.213892
-1.217622
-1.220730
-1.219176
-1.212647
-1.203941
-1.192749
-1.184666
-1.174717
-1.161660
-1.147359
-1.136478
-1.120622
-1.105078
-1.087979
-1.073678
-1.060310
-1.044766
-1.034506
-1.022692
-1.014298
-1.009012
-1.005592
-1.005281
-1.008078
-1.012741
-1.018336
-1.024864
-1.028905
-1.031081
-1.034189
-1.036986
-1.040406
-1.042581
-1.044135
-1.040093
-1.032943
-1.020507
-1.009004
-1.000299
-0.992837
-0.986930
-0.979779
-0.973561
-0.968587
-0.963923
-0.958016
-0.951176
-0.945580
-0.939361
-0.932522
-0.953350
-0.933142
-0.904852
-0.899256
-0.889929
-0.884643
-0.869410
-0.863192
-0.852310
-0.860704
-0.862257
-0.862257
-0.875002
-0.887437
-0.904224
-0.921322
-0.940907
-0.964844
-0.987227
-1.008988
-1.033857
-1.056551
-1.077690
-1.096964
-1.114373
-1.128051
-1.148879
-1.175304
-1.196754
-1.219758
-1.246804
-1.276959
-1.312709
-1.342553
-1.370843
-1.398821
-1.427422
-1.452602
-1.478715
-1.498300
-1.510113
-1.516641
-1.516951
-1.516018
-1.511044
-1.507934
-1.502338
-1.498296
-1.488658
-1.472181
-1.447621
-1.434253
-1.410937
-1.375185
-1.350004
-1.324822
-1.302127
-1.275080
-1.238707
-1.190831
-1.150416
-1.129898
-1.104095
-1.061193
-1.026063
-1.005855
-0.982228
-0.953005
-0.924715
-0.894559
-0.871864
-0.850102
-0.828340
-0.802537
-0.773625
-0.753106
-0.730101
-0.710515
-0.691551
-0.676628
-0.663260
-0.646783
-0.635280
-0.620668
-0.606678
-0.589890
-0.572480
-0.553827
-0.530200
-0.506883
-0.483878
-0.465535
-0.448747
-0.435690
-0.425430
-0.415171
-0.404600
-0.395895
-0.389056
-0.386568
-0.387811
-0.391541
-0.394649
-0.394338
-0.394337
-0.394337
-0.393404
-0.391538
-0.389672
-0.389050
-0.389671
-0.386873
-0.385007
-0.382830
-0.376612
-0.367907
-0.353295
-0.333399
-0.310704
-0.284279
-0.256921
-0.225833
-0.191946
-0.155884
-0.114537
-0.076920
-0.039925
-0.006660
0.027848
0.066086
0.101216
0.137590
0.170543
0.198834
0.228678
0.256658
0.282772
0.303913
0.324120
0.342463
0.356763
0.368577
0.377904
0.383501
0.382258
0.380393
0.377285
0.371689
0.362674
0.348685
0.329100
0.308272
0.284024
0.257600
0.230243
0.200710
0.170866
0.142577
0.113044
0.086309
0.061750
0.039678
0.017917
-0.003222
-0.021253
-0.037107
-0.051407
-0.067261
-0.080939
-0.096483
-0.112337
-0.130989
-0.150263
-0.172957
-0.194718
-0.221142
-0.247566
-0.276477
-0.305699
-0.334611
-0.369118
-0.404868
-0.444971
-0.485696
-0.531705
-0.577715
-0.625589
-0.671910
-0.719785
-0.769525
-0.819886
-0.871181
-0.922165
-0.970350
-1.016360
-1.059571
-1.101539
-1.140399
-1.174906
-1.205682
-1.233661
-1.258531
-1.277805
-1.292104
-1.299876
-1.303917
-1.299875
-1.294589
-1.280599
-1.263811
-1.241117
-1.211583
-1.179251
-1.141634
-1.105261
-1.062981
-1.020701
-0.976866
-0.930856
-0.887332
-0.844431
-0.802462
-0.761114
-0.720389
-0.678109
-0.636761
-0.598212
-0.559351
-0.519869
-0.481631
-0.446190
-0.407641
-0.367848
-0.328676
-0.287329
-0.247225
-0.206189
-0.164531
-0.121629
-0.080903
-0.040178
0.001792
0.043139
0.086973
0.127388
0.169046
0.209772
0.250808
0.292777
0.332881
0.374229
0.414332
0.459410
0.503245
0.551742
0.601794
0.651224
0.701898
0.754748
0.810396
0.862313
0.915163
0.964904
1.016821
1.066251
1.113195
1.162003
1.207392
1.254957
1.299413
1.338895
1.377134
1.409465
1.438378
1.464492
1.485321
1.498690
1.505219
1.508017
1.502733
1.493407
1.485635
1.478796
1.471336
1.460456
1.449265
1.439628
1.430924
1.422220
1.411650
1.399216
1.389890
1.382740
1.376212
1.367819
1.358493
1.349478
1.343261
1.339531
1.336112
1.332693
1.327719
1.323056
1.315596
1.309690
1.302229
1.293525
1.283267
1.270210
1.255910
1.240367
1.220471
1.198399
1.173219
1.147105
1.118816
1.087418
1.053221
1.017160
0.984207
0.952498
0.923587
0.894987
0.873537
0.857993
0.848046
0.844627
0.847736
0.851778
0.862348
0.872297
0.881002
0.896235
0.908049
0.924216
0.936962
0.949709
0.963388
0.971782
0.982663
0.993234
1.002560
1.012820
1.020592
1.030230
1.040490
1.054480
1.066915
1.077175
1.092098
1.102979
1.113549
1.128161
1.140908
1.153654
1.168266
1.181012
1.195002
1.208371
1.224226
1.238838
1.256248
1.276455
1.299461
1.328684
1.356974
1.388684
1.419773
1.452105
1.484436
1.514903
1.544748
1.566821
1.589826
1.610656
1.621537
1.635838
1.639569
1.644544
1.648585
1.647653
1.649208
1.645789
1.650142
1.653251
1.660713
1.671283
1.687138
1.702994
1.722580
1.746207
1.768902
1.795949
1.822063
1.851908
1.879576
1.914706
1.947971
1.984655
2.021650
2.058956
2.101547
2.140407
2.180200
2.218439
2.256988
2.292429
2.325693
2.356782
2.389735
2.420202
2.448492
2.477094
2.502275
2.530255
2.553882
2.573468
2.593365
2.606111
2.618236
2.626319
2.629118
2.629740
2.627564
2.622591
2.613265
2.608913
2.599277
2.590572
2.587464
2.583734
2.582802
2.579694
2.577207
2.566016
2.552027
2.535862
2.510059
2.483324
2.450061
2.411512
2.364881
2.317628
2.263225
2.205402
2.141983
2.078254
2.011726
1.940536
1.874630
1.798154
1.724787
1.646446
1.568106
1.493806
1.420128
1.350492
1.282721
1.221478
1.165832
1.111428
1.065108
1.022518
0.985524
0.956924
0.932054
0.914334
0.898480
0.887289
0.878585
0.872057
0.868016
0.867706
0.865841
0.864598
0.866153
0.868640
0.869263
0.871439
0.874238
0.873617
0.874239
0.872063
0.868022
0.863049
0.858697
0.853723
0.847817
0.840357
0.831342
0.820772
0.813623
0.804918
0.791551
0.779738
0.766993
0.754869
0.739636
0.724715
0.711348
0.696115
0.678395
0.664096
0.650417
0.635807
0.624305
0.612803
0.602855
0.594773
0.588245
0.581717
0.576121
0.571770
0.565242
0.556849
0.548144
0.537264
0.521410
0.501203
0.478821
0.452085
0.424107
0.395507
0.365352
0.335508
0.307219
0.282038
0.255614
0.229190
0.204320
0.179761
0.154269
0.127223
0.102354
0.075308
0.049194
0.022770
-0.002410
-0.026658
-0.049041
-0.068626
-0.085413
-0.100024
-0.111837
-0.120852
-0.129866
-0.136705
-0.144477
-0.150072
-0.153491
-0.156289
-0.157532
-0.158153
-0.160639
-0.163126
-0.166545
-0.169342
-0.169653
-0.169652
-0.170584
-0.174004
-0.174003
-0.176179
-0.174624
-0.171825
-0.168405
-0.162498
-0.156591
-0.147886
-0.135761
-0.120217
-0.103429
-0.083843
-0.061459
-0.033790
-0.004878
0.026210
0.056677
0.089631
0.122584
0.150875
0.183207
0.213984
0.245694
0.275539
0.305073
0.335850
0.365695
0.394608
0.421033
0.446525
0.472018
0.495334
0.516164
0.533884
0.550361
0.565284
0.575854
0.586114
0.593265
0.600104
0.604146
0.606012
0.606634
0.603215
0.600418
0.595755
0.587051
0.577103
0.564980
0.550991
0.536691
0.519904
0.502806
0.486952
0.471408
0.457108
0.443430
0.430063
0.419494
0.407992
0.398044
0.387475
0.375973
0.365714
0.351725
0.334006
0.312866
0.287064
0.256598
0.219915
0.178880
0.129450
0.075669
0.018468
-0.043707
-0.105572
-0.171477
-0.236140
-0.302356
-0.369816
-0.433857
-0.495410
-0.552922
-0.609502
-0.661107
-0.710847
-0.759966
-0.808773
-0.857269
-0.902657
-0.946802
-0.990635
-1.035401
-1.080789
-1.125555
-1.171564
-1.218195
-1.263894
-1.312702
-1.361509
-1.409073
-1.454772
-1.500781
-1.547101
-1.591867
-1.636633
-1.682332
-1.727409
-1.770621
-1.812589
-1.853624
-1.890618
-1.925436
-1.959321
-1.990098
-2.018387
-2.046055
-2.069059
-2.092064
-2.114447
-2.135586
-2.158590
-2.175066
-2.193097
-2.207086
-2.220764
-2.232577
-2.239727
-2.247187
-2.251850
-2.253404
-2.253092
-2.251848
-2.247185
-2.242521
-2.237236
-2.232883
-2.226976
-2.222934
-2.218270
-2.215782
-2.212673
-2.212673
-2.212983
-2.211428
-2.211117
-2.209562
-2.207385
-2.206141
-2.202721
-2.199923
-2.198368
-2.191528
-2.187175
-2.182511
-2.175361
-2.166655
-2.154842
-2.142406
-2.129659
-2.112561
-2.095773
-2.078985
-2.060953
-2.042611
-2.024269
-2.005926
-1.991003
-1.979811
-1.972039
-1.967686
-1.966442
-1.970483
-1.974213
-1.978876
-1.984160
-1.989445
-1.993175
-1.994728
-1.994728
-1.993795
-1.990686
-1.988509
-1.981047
-1.972653
-1.962083
-1.951201
-1.940631
-1.927574
-1.913894
-1.896796
-1.883427
-1.868816
-1.853582
-1.838038
-1.820628
-1.804462
-1.787985
-1.771507
-1.756585
-1.739175
-1.723942
-1.707775
-1.690987
-1.674510
-1.657722
-1.641245
-1.622592
-1.606426
-1.589016
-1.571606
-1.554818
-1.537409
-1.518445
-1.501657
-1.482071
-1.461863
-1.442588
-1.422070
-1.407147
-1.389427
-1.376058
-1.364555
-1.351498
-1.342171
-1.332844
-1.327559
-1.322584
-1.316366
-1.306417
-1.298023
-1.287764
-1.277504
-1.259162
-1.237400
-1.217192
-1.194187
-1.170248
-1.144445
-1.118953
-1.093149
-1.067967
-1.042786
-1.017604
-0.993666
-0.968795
-0.942059
-0.917188
-0.885167
-0.854390
-0.820193
-0.783819
-0.743405
-0.701746
-0.662264
-0.622471
-0.582367
-0.538844
-0.502471
-0.464854
-0.429413
-0.394594
-0.359775
-0.324024
-0.288272
-0.252521
-0.217080
-0.180396
-0.142157
-0.103919
-0.063815
-0.024644
0.012973
0.050279
0.087896
0.123337
0.163130
0.200125
0.238674
0.276602
0.311732
0.348727
0.381369
0.416188
0.448831
0.479919
0.508210
0.535257
0.560749
0.584377
0.608004
0.626657
0.643756
0.656192
0.665518
0.672980
0.677644
0.682618
0.684484
0.684795
0.687283
0.687594
0.693502
0.701896
0.704694
0.714332
0.743555
0.739825
0.749774
0.761898
0.738583
0.770293
0.778066
0.769672
0.776823
0.778689
0.783664
0.765011
0.739831
0.731437
0.740143
0.726775
0.683564
0.645326
0.629472
0.613307
0.580976
0.540562
0.508231
0.478387
0.451652
0.422741
0.389788
0.359634
0.326059
0.292174
0.263885
0.240569
0.217876
0.199534
0.186167
0.175598
0.166583
0.158811
0.150107
0.142336
0.130523
0.118088
0.105964
0.095706
0.084204
0.071458
0.060267
0.048765
0.036642
0.026694
0.021099
0.016436
0.021411
0.027940
0.038199
0.054365
0.073951
0.098511
0.127112
0.158822
0.192709
0.232502
0.277580
0.326388
0.378927
0.433331
0.490844
0.550534
0.611777
0.673953
0.733332
0.793954
0.853954
0.912399
0.968358
1.022762
1.076856
1.130327
1.183177
1.235716
1.284214
1.329913
1.374991
1.417893
1.458308
1.495924
1.529189
1.557790
1.580174
1.598516
1.614061
1.626807
1.639865
1.650746
1.661627
1.666602
1.673442
1.679038
1.683702
1.689920
1.694273
1.699558
1.707020
1.714792
1.716347
1.720078
1.721633
1.723499
1.725054
1.725676
1.721324
1.718527
1.715729
1.708269
1.704850
1.697700
1.694281
1.691172
1.688997
1.688065
1.687754
1.687755
1.693973
1.699880
1.710450
1.722575
1.729415
1.742783
1.755530
1.766722
1.774495
1.783821
1.792216
1.799055
1.799989
1.799678
