EVENT_NAME: 202302060117
EVENT_ID: 13194
EVENT_DATE_YYYYMMDD: 2023/02/06
EVENT_TIME_HHMMSS: 01:17:32.00000
EVENT_LATITUDE_DEGREE: 37.288
EVENT_LONGITUDE_DEGREE: 37.043
EVENT_DEPTH_KM: 8.6
HYPOCENTER_REFERENCE: AFAD
MAGNITUDE_W: 7.7
MAGNITUDE_W_REFERENCE: AFAD
MAGNITUDE_L: 
MAGNITUDE_L_REFERENCE: 
FOCAL_MECHANISM: 
NETWORK: TK
STATION_CODE: 3136
STATION_NAME: 
STATION_LATITUDE_DEGREE: 36.11593
STATION_LONGITUDE_DEGREE: 36.24722
STATION_ELEVATION_M: 269.0
LOCATION: Kahramanmaras_Pazarck_Turkiye
SENSOR_DEPTH_M: 
VS30_M/S: 344
SITE_CLASSIFICATION_EC8: C
MORPHOLOGIC_CLASSIFICATION: 
EPICENTRAL_DISTANCE_KM: 148.38
EARTHQUAKE_BACKAZIMUTH_DEGREE: 
DATE_TIME_FIRST_SAMPLE_YYYYMMDD_HHMMSS: 2023/02/06 01:17:37.6087370
DATE_TIME_FIRST_SAMPLE_PRECISION: millisecond
SAMPLING_INTERVAL_S: 0.01
NDATA: 12501
DURATION_S: 
STREAM: HNZ
UNITS: cm/s^2
INSTRUMENT: sensor = GMS+/GEOSIG | digitizer = 
INSTRUMENT_ANALOG/DIGITAL: 
INSTRUMENTAL_FREQUENCY_HZ: 
INSTRUMENTAL_DAMPING: 
FULL_SCALE_G: 
N_BIT_DIGITAL_CONVERTER: 
PGA_CM/S^2: 220.461
TIME_PGA_S: 
BASELINE_CORRECTION: BASELINE REMOVED
FILTER_TYPE: BUTTERWORTH
FILTER_ORDER: 
LOW_CUT_FREQUENCY_HZ: 
HIGH_CUT_FREQUENCY_HZ: 
LATE/NORMAL_TRIGGERED: 
DATABASE_VERSION: 
HEADER_FORMAT: DYNA 1.2
DATA_TYPE: Acceleration
PROCESSING: Automatic Paolucci et al., 2011
DATA_TIMESTAMP_YYYYMMDD_HHMMSS: 
DATA_LICENSE: U (unknown license)
DATA_CITATION: Turkish Accelerometric Archive v 1.0 - Disaster And Emergency Management Presidency, Earthquake Department
DATA_CREATOR: AFAD
ORIGINAL_DATA_MEDIATOR_CITATION: : AFAD - Disaster And Emergency Management Presidency
ORIGINAL_DATA_MEDIATOR: AFAD PROCESS SERVICE
ORIGINAL_DATA_CREATOR_CITATION: AFAD PROCESS SERVICE
ORIGINAL_DATA_CREATOR: network: TK
USER1: GuestUser
USER2: 
USER3: 
USER4: 
USER5: 
[...]
13.037254
26.335812
30.989294
20.922507
8.787188
8.128936
10.503474
-1.022689
-19.679482
-23.446897
-6.737845
13.691603
23.004282
24.056861
24.811486
22.952846
14.710409
9.991725
14.486229
15.450487
7.484183
4.405153
13.517811
21.763104
16.122763
4.654788
3.273341
6.678379
-6.030768
-30.684562
-36.005649
-12.863705
9.402042
4.781030
-14.800276
-24.735361
-22.969979
-21.534762
-20.851832
-11.416283
3.900932
10.495920
5.319264
3.327103
4.280451
-4.511395
-13.023731
-8.360897
-0.725020
-6.336787
-19.692236
-20.548431
-4.744151
8.423484
4.995586
-5.076396
-10.222919
-10.859351
-12.124421
-11.511110
-2.041790
7.751979
5.382376
-2.478462
1.508196
18.057230
28.404046
19.920544
2.004870
-6.854256
-9.690143
-17.133794
-17.619820
1.746917
29.582348
33.266376
3.223696
-17.431751
-1.067671
21.041436
20.027561
2.252680
-10.435684
-7.090134
-0.124198
-2.726034
-15.449987
-28.495533
-30.241174
-21.998478
-17.473582
-25.437028
-34.665284
-28.097572
-7.460310
3.814916
-11.674266
-39.739334
-54.516752
-43.994853
-20.815242
-12.882710
-21.462325
-26.474288
-21.899256
-9.019184
6.350764
15.873596
18.925349
16.023481
8.340844
-3.117260
-15.761724
-17.403458
-2.304968
12.300743
8.209138
-6.003285
-8.840731
8.691785
33.625608
41.962859
30.789981
21.600690
27.286749
32.846561
25.463177
16.298824
11.623780
9.376527
5.934602
-8.356791
-28.780265
-36.006490
-23.460219
-3.722274
8.343166
6.817808
-2.826856
-9.763439
-8.946210
-3.655257
-4.191938
-13.616839
-21.369613
-17.706107
0.771964
19.791911
15.635104
-5.328168
-12.056937
6.033561
25.859308
23.038228
-1.135256
-22.436746
-20.484331
-3.257562
5.882372
-6.244115
-27.316490
-33.390384
-18.224094
1.793621
9.697579
10.388302
15.389873
28.267607
44.734036
45.507104
22.448544
-0.510785
5.757934
36.744610
48.339091
17.414758
-18.877419
-15.952952
16.937823
34.977925
20.957211
-3.071583
-9.117682
4.673916
12.825173
1.999864
-13.147204
-16.160253
-9.366803
-6.309335
-12.246331
-17.802768
-11.728355
0.195252
6.737766
12.296539
20.497931
17.418122
-5.777855
-27.133117
-22.446125
-3.968314
3.610675
-3.883630
-10.788262
-0.730828
17.067430
19.846427
3.979801
-12.493902
-12.294141
-1.538191
-0.150511
-13.767286
-26.926351
-26.738539
-25.304101
-38.071955
-50.543154
-39.906957
-20.445145
-21.336149
-33.540047
-25.975605
-0.375997
8.484167
-9.096147
-22.759941
-13.076832
5.443062
12.501215
4.799355
-4.601646
1.908917
21.402680
31.892628
25.795614
13.317142
5.660482
9.750008
21.587372
30.251411
36.167105
42.152417
36.866399
17.073641
1.711225
1.289102
1.980863
-4.294091
-7.450792
-5.535004
-10.056265
-24.039833
-32.973772
-24.907459
-5.408760
10.024572
13.177115
13.424673
9.155906
-5.064570
-10.730629
0.377047
12.846167
13.346739
4.943246
-3.130082
-6.075851
-2.150498
3.927551
4.067306
-8.581575
-21.585817
-11.939596
9.195382
12.032826
-2.084782
-9.068383
-3.726776
-0.851146
-10.708040
-22.943629
-15.673765
7.903810
19.957301
9.758292
-8.584960
-22.304864
-26.452059
-19.039582
-6.745027
-3.433506
-10.593749
-12.399916
0.041668
12.242966
7.332573
-0.064579
14.436705
35.428550
30.706228
7.298540
-1.747359
13.721821
29.837822
22.266625
3.311619
0.147905
7.521417
5.828509
-3.043605
-4.443236
9.473571
18.711956
-0.416835
-28.691275
-33.759348
-17.188233
-7.776842
-18.101838
-26.868227
-17.107707
2.046540
12.627147
8.625941
-3.368324
-16.692341
-22.858973
-15.333496
-2.589802
1.462837
-7.167953
-18.957521
-18.359796
-6.720115
0.005016
-5.339450
-17.424374
-19.265869
0.296993
22.357783
19.142375
-4.070747
-11.787413
7.942999
21.652770
4.944756
-15.179206
-2.485647
28.218921
35.726733
14.955689
-1.627895
10.654971
30.616836
23.368271
-3.477186
-18.332534
-10.585476
1.042515
-2.764904
-18.585551
-31.023240
-32.380787
-27.319989
-19.348232
-10.719521
-4.407421
5.121905
19.735928
27.701971
18.021199
2.736194
6.881050
26.886297
30.674492
4.042564
-22.980834
-21.547175
-7.299684
-7.349301
-22.243355
-27.931494
-9.994000
13.416805
18.498384
6.711154
0.862479
12.064970
19.131176
3.694727
-14.671386
-8.840376
8.828518
13.768005
13.432904
20.994747
32.018778
28.935072
7.762167
-1.941724
11.930922
21.857433
10.286850
-5.075566
-3.483709
0.722972
-12.238669
-29.417901
-27.629140
-7.563627
3.335455
-7.515831
-16.854229
-7.145663
11.599190
19.549387
9.778995
-1.151520
1.415765
12.219513
18.165080
19.220257
25.556516
30.568997
22.579055
5.966635
-3.630751
0.498000
5.541394
5.224216
3.682493
4.164362
13.299360
28.379407
29.842419
1.393155
-32.787888
-23.249990
28.263288
60.534256
33.903887
-13.281917
-18.462730
15.822999
35.215973
16.540996
-4.193940
3.236981
20.825866
24.725762
10.686863
-8.673381
-8.616752
11.737883
23.070777
11.278092
-7.520793
-9.132914
7.711737
16.046909
3.098517
-12.219219
-12.836428
-6.491857
-3.634930
2.555599
16.971159
23.844358
6.386914
-19.103333
-21.317856
3.873658
23.923065
3.334378
-40.331052
-52.269466
-16.849331
20.712850
16.591112
-14.922375
-31.578954
-19.114511
-1.612128
-4.204872
-15.448408
-13.628474
-0.692292
5.087804
-7.324688
-22.051192
-23.214433
-18.368463
-18.397817
-25.471818
-31.611953
-27.383971
-13.955788
-4.808581
-11.545403
-18.276770
-9.041761
0.301571
-4.069025
-14.444416
-17.518250
-12.917501
-9.442067
-7.550437
-2.479768
4.131585
4.556824
-2.712522
-13.331576
-16.267993
-3.019829
14.706993
20.913368
10.941916
0.797978
10.346526
26.486946
28.167903
18.626107
12.296861
19.349820
30.790778
26.732942
12.139440
17.243359
47.383192
61.866811
32.348083
-14.225449
-30.892419
-4.248543
24.009270
13.024723
-16.657659
-25.236495
-6.420206
17.847312
26.594217
21.632909
10.647843
-6.614516
-22.301122
-26.136336
-24.332768
-26.615609
-28.086935
-20.802264
-11.595310
-12.077440
-11.283070
4.406652
20.730727
15.578750
-6.835326
-12.561391
3.350173
10.233503
2.413189
1.576476
18.462169
34.269826
28.559607
5.836667
-4.479757
17.730920
42.002595
34.139159
5.705481
-7.650227
12.317093
34.798708
28.193069
17.560767
32.417413
40.945594
4.372088
-44.941995
-55.145420
-31.785790
-16.242318
-24.978054
-42.746700
-48.135586
-36.845033
-24.934155
-19.847640
-17.592855
-7.162394
12.166417
16.444794
-1.090581
-14.388361
-2.256680
19.166640
14.512897
-15.012846
-26.309114
1.181086
31.943062
26.617040
-0.698337
-10.474184
0.468799
6.228633
-4.473547
-16.066990
-11.068536
-4.642138
-16.474048
-26.356400
-14.929989
3.438980
6.046270
-11.162576
-24.858581
-21.467311
-15.198852
-13.974566
-13.956123
-13.759999
-5.440412
21.000065
45.652300
39.304870
13.989706
4.816781
27.418927
53.402733
39.838431
-5.017256
-34.633657
-24.964057
-3.553725
-5.596021
-22.538605
-30.831437
-24.010711
-14.770247
-10.152873
1.460831
14.492088
7.379642
-14.979364
-17.229214
12.572660
40.326524
38.434374
16.099268
2.441969
8.457154
7.398599
-18.856925
-40.930964
-18.501304
37.230345
65.941714
40.747082
5.274992
-0.568748
14.078526
26.335415
20.538693
-3.208771
-25.118638
-23.824474
-0.320933
16.777770
13.215572
10.112384
21.894158
27.867001
2.812384
-28.335089
-17.998924
24.740691
49.736859
34.022458
2.739126
-8.253474
0.217817
6.262097
-1.486781
-18.556132
-24.974998
-10.465661
13.563131
29.705629
26.295135
13.202571
9.419830
11.225476
7.041654
-0.860227
-5.578912
-4.723237
-3.322569
-3.169047
0.476795
-1.354310
-17.724885
-28.926078
-23.046751
-18.073235
-22.875046
-29.227152
-36.778086
-49.268248
-47.817185
-20.200219
8.915868
16.113517
4.322651
-2.991635
12.426370
30.912494
23.258431
10.586951
27.110529
53.143430
57.195030
43.329137
29.083723
20.664385
6.391955
-19.816551
-35.822932
-28.613333
-21.719613
-35.649668
-55.366054
-47.536390
-12.113397
6.333502
-10.953275
-25.069584
-0.450080
38.921645
45.370383
14.763227
-14.657309
-5.292936
30.003550
34.687424
-7.869056
-44.565692
-34.533456
-9.534950
-6.456441
-6.877265
17.193869
57.208000
66.476778
23.307765
-4.664046
36.467607
74.280464
31.749960
-44.518162
-64.369108
-16.017206
17.112295
-14.534192
-44.931976
-18.465781
16.726278
-9.765375
-72.082662
-83.715589
-35.100543
1.468286
-18.678795
-57.734383
-56.265396
-13.085214
20.290547
6.060979
-25.041035
-26.534960
-13.637743
-8.732806
-6.584786
-5.936146
0.296465
10.427674
7.466578
-8.832561
-25.051951
-20.008557
21.303374
59.646678
42.430818
-9.648235
-26.774995
18.420986
58.145736
26.063357
-41.884918
-71.375072
-41.545922
-14.921789
-42.024676
-76.631738
-65.945926
-29.690637
-11.705086
-24.614253
-43.497563
-29.042518
1.376565
8.835021
6.766748
4.401820
-5.003598
-7.242538
18.320444
53.096354
57.083272
35.104047
25.018038
44.337757
57.401225
26.523651
-20.771257
-38.853183
-16.637831
14.145447
1.777636
-50.533390
-89.651583
-79.743515
-27.369367
13.008439
-3.315118
-40.419330
-31.395772
9.161534
13.411336
-10.585506
-10.713572
11.004844
20.707955
0.228631
-26.765413
-19.845716
20.787442
51.496166
29.222884
-20.729189
-31.353438
-5.033493
11.700496
-3.814923
-51.924982
-91.839103
-93.717486
-80.475297
-63.117865
-36.576078
-13.964839
2.790451
28.372136
50.174717
55.941824
60.614269
63.532501
54.327105
46.596930
56.051703
65.545181
54.689479
33.329801
14.629367
3.748987
-1.580412
-19.818199
-53.562573
-54.689966
13.313899
92.777685
92.913283
19.474293
-18.627167
19.641842
52.975521
28.770606
-31.508282
-62.115958
-36.264894
0.398491
24.097637
25.120343
13.012040
-1.315460
-26.207982
-35.351034
-33.491356
-39.364710
-32.264214
-17.863200
-12.076351
-21.660749
-59.411263
-79.046861
-26.384890
47.433620
61.714361
1.752650
-61.633581
-75.074494
-69.507408
-51.849684
-22.374338
-18.668749
-46.165704
-67.156771
-47.220622
5.002341
32.177962
9.486973
-21.904682
-30.325839
1.051268
73.861878
130.481674
117.999564
78.343912
74.989009
86.107335
52.110208
-17.178990
-50.673726
-7.449124
66.191965
81.804016
45.836549
29.359988
33.353660
20.211481
-14.530661
-40.252882
-39.853619
-27.717262
-24.036871
-29.798784
-18.366138
5.934890
-1.187687
-45.672165
-85.479002
-88.261896
-51.093004
1.185550
27.199229
9.110549
-32.534406
-60.351136
-54.740409
-22.069398
15.927895
22.627309
2.674794
7.176052
33.888766
42.777505
33.521713
27.484446
37.446286
53.454743
43.047920
-6.792713
-63.704229
-68.992845
-12.358762
29.953795
15.081821
-21.290105
-36.641350
-12.622170
18.563748
29.070061
18.256961
0.823675
20.672542
58.034702
56.244640
25.292253
15.872288
39.429082
42.602926
15.393014
-0.643499
11.161913
38.321168
58.681778
66.071915
52.999613
35.952083
43.951375
61.131386
57.876753
15.421582
-47.921787
-76.716023
-41.383950
21.910323
30.946090
-17.513877
-34.878064
-8.815549
1.034850
-27.844850
-76.522761
-93.009972
-58.816202
-12.602449
26.438331
40.447355
32.977468
23.992095
19.478367
43.517290
79.142901
92.624336
71.346225
45.949754
77.062158
123.044456
104.982792
21.944598
-55.971752
-44.850569
14.603814
13.865553
-27.354941
-21.949431
41.951400
100.567771
99.105537
65.481176
54.299206
74.706054
71.453239
17.196811
-9.437714
39.530097
114.175189
128.003154
72.207861
37.912780
60.707415
103.568342
115.122039
80.573165
46.130795
37.462598
57.285228
94.661676
106.297200
69.756425
3.900320
-63.699607
-94.638746
-72.923188
-73.341415
-136.450993
-178.753680
-145.998245
-59.036777
22.377867
3.922135
-114.418780
-208.959758
-193.383814
-97.591276
-25.113948
-38.804757
-100.681737
-125.586467
-64.080957
45.199511
105.313965
50.895182
-58.068631
-115.030541
-102.525314
-48.883239
0.244590
1.447055
-14.989241
-32.388238
-67.751225
-88.652413
-87.685817
-98.675039
-129.874986
-137.881034
-88.491100
-19.609739
7.341702
-12.167129
-18.906029
2.725365
29.825133
36.438824
-11.940615
-87.664004
-123.158953
-95.882283
-39.926454
4.913645
30.385707
49.039382
68.535743
78.553433
64.416082
38.573070
15.317606
-12.188441
-32.997930
-48.824811
-71.248758
-84.425227
-64.648576
-32.673223
-54.290851
-90.391579
-62.270663
-8.398173
27.109504
43.911812
42.232931
26.547364
11.860864
23.683162
66.052349
102.782233
96.158930
54.963114
17.144540
-4.383987
-27.074196
-56.166126
-82.955992
-92.471552
-73.941007
-37.988348
-0.786205
16.949709
20.031335
22.747208
19.944312
12.839918
-12.587985
-27.677644
15.286411
62.650935
56.997865
27.906974
25.113429
24.130207
-0.378897
-29.332890
-57.277425
-35.646811
26.094829
56.166082
42.717377
-5.476327
-35.522904
-1.888934
48.846079
89.282593
90.888217
27.700189
-18.521877
-12.767239
35.674283
106.990449
117.268426
79.360232
43.862426
4.389390
-19.909562
-16.285021
-4.467919
16.354039
36.888433
12.772617
-14.168694
-6.004449
28.742628
76.827228
86.473190
86.160169
88.913968
97.866609
106.011632
66.198300
37.810861
57.356319
88.505350
74.542563
15.805918
-11.680127
1.569596
24.732062
49.277532
69.792963
72.766526
68.626604
83.146851
103.288736
95.414130
52.218361
8.813738
5.728993
26.235592
13.512938
-41.786718
-84.489708
-77.251795
-40.578020
-7.480730
-0.460502
-30.000532
-77.014370
-104.771612
-93.508336
-38.459357
41.004430
62.227209
-20.838261
-124.070294
-155.358822
-99.194660
-31.712409
-56.368022
-151.227995
-220.461342
-204.971641
-125.268089
-67.139822
-77.991108
-115.951774
-106.402966
-54.623946
2.761126
28.140971
-7.922610
-38.268960
-21.219092
10.758598
5.474398
-61.894335
-114.686971
-88.124922
-17.383882
18.658657
-17.583126
-67.000337
-45.014879
50.566987
144.719351
164.211296
95.297463
18.315498
14.294810
56.469950
88.692602
113.733190
134.251478
130.974245
113.261449
91.705127
82.643642
70.381037
33.511396
0.689718
-30.641671
-52.979115
-71.131439
-109.973238
-128.552880
-116.539133
-80.259166
-32.339518
-51.747040
-115.377194
-114.496841
-27.725003
40.776836
-9.852192
-101.932388
-141.826248
-121.739434
-48.063796
11.731662
-0.775645
-60.058322
-80.699742
-5.559273
76.706111
92.620792
80.161283
73.070397
103.392067
152.579642
168.879300
141.275840
96.664335
90.852807
128.727229
154.858063
153.912507
135.192331
98.368409
66.847130
49.212004
61.393561
93.919881
91.634183
60.584382
29.628617
13.456505
-14.454520
-76.105242
-108.147876
-102.813802
-105.351475
-114.290610
-112.913840
-88.539297
-89.556809
-141.028524
-167.631618
-156.275864
-133.531884
-85.914865
-43.894547
-21.936105
25.737543
79.552104
75.568822
43.822584
49.628396
60.173155
36.595319
7.145169
-2.446243
13.971609
7.072172
-15.950020
-3.037996
0.577713
-4.720255
-0.615662
-11.275240
-39.098983
-84.132091
-108.308692
-83.943500
-53.291146
-52.191289
-47.266869
-0.303946
54.568130
49.377707
-15.942756
-58.437152
-33.373964
16.900480
39.216882
24.956401
2.673768
-10.587645
-16.067709
-11.428255
-1.841780
10.839050
20.659576
-0.179267
-56.404476
-114.543395
-152.189223
-159.123729
-126.189573
-67.572941
-21.471409
-21.882362
-48.818478
-59.045542
-39.088093
-7.059488
6.405842
1.889256
-12.015082
-42.314153
-78.784012
-66.188905
32.028567
134.770417
139.717177
66.039460
-8.342488
-42.644843
-21.007734
24.723629
36.106919
14.144839
-4.846015
3.931023
19.534242
1.544014
-44.340094
-90.298755
-94.369579
-37.649513
31.864383
64.924526
70.350818
82.863838
95.093711
109.565382
136.600988
145.228659
136.456296
125.614621
114.507723
110.393778
106.771833
86.113269
53.567465
29.649852
31.421209
65.130513
99.269992
103.256130
80.629564
65.155188
78.137869
84.946126
53.267427
7.822067
-36.504991
-90.730247
-145.706752
-170.314308
-119.854649
-44.714960
-23.800525
-43.574839
-72.007478
-88.958635
-79.830650
-32.822008
22.357633
17.088760
-47.826465
-79.629593
-31.081307
66.122291
134.949620
109.083748
38.481943
-11.596637
-25.915825
-3.576304
30.063642
42.247796
21.357259
-0.033851
9.260385
38.655203
54.554298
37.523133
-3.161200
-43.703700
-53.998563
-46.179289
-61.419355
-90.666366
-105.149467
-111.607558
-115.476802
-107.768189
-66.691868
-9.114308
13.798261
21.495964
11.759601
-15.178852
-1.199962
32.452972
29.367188
-13.914304
-36.983775
-5.199611
34.589041
52.342619
36.169727
-10.703317
-30.355800
8.567565
71.347757
110.066945
92.951875
55.392550
49.938721
76.072153
110.800786
106.917775
46.649278
-22.159089
-51.829522
-32.303547
-1.003591
-2.856517
-38.620066
-75.005500
-88.944907
-90.957590
-85.295948
-63.556491
-29.542999
-10.752167
-30.150338
-58.756242
-69.893273
-47.854043
9.576488
50.816723
51.254432
8.633269
-50.644213
-53.062134
-27.734762
-32.524104
-41.082678
-43.610480
-44.047410
-37.804149
-43.914930
-73.509251
-101.948904
-96.537679
-69.164894
-64.878464
-91.824971
-133.952315
-152.514032
-130.980311
-115.563345
-111.154045
-96.002562
-65.995731
-34.114934
-8.598711
19.398037
46.591062
58.247108
42.474518
45.124151
58.785865
38.110675
22.173912
44.729301
102.599099
153.618298
158.389195
124.000078
84.250130
61.182738
70.724273
104.226541
107.792115
79.993570
50.803707
40.716659
45.663159
38.326533
20.514505
1.417926
-8.951491
-9.966665
-24.491069
-66.461513
-122.056265
-156.828541
-140.619023
-99.930015
-79.904766
-82.102663
-106.528641
-127.950923
-106.749445
-59.893287
-18.301846
0.616532
-7.271062
-9.945633
10.543561
34.421688
40.783404
33.882409
39.121667
49.325870
46.582721
38.404187
50.251681
92.749973
137.312380
158.464243
145.185945
113.422042
96.924700
116.622382
165.488624
207.249434
215.951659
185.318007
138.052973
117.550269
130.862855
142.715545
138.450155
129.011228
107.574918
74.676869
52.108491
44.903307
40.813001
30.735304
6.840551
-25.389895
-54.977203
-77.926920
-99.587149
-124.895040
-133.638309
-122.291127
-103.861113
-85.372651
-91.321597
-118.851802
-130.105469
-108.382897
-78.940281
-83.475830
-106.708434
-101.863763
-59.570169
-0.400232
22.479607
-7.740495
-42.571997
-49.200756
-29.633997
-0.386208
31.187543
41.768929
21.158163
10.627430
24.747115
46.222648
48.211171
20.160651
-10.466508
-28.918084
-31.923079
-18.314358
-4.583286
-4.351054
-9.982823
-3.776449
20.252084
52.548509
73.269936
66.867176
44.610260
32.673403
46.728666
74.653198
83.444523
57.897905
13.675273
-6.967965
10.046574
25.462501
10.433367
-34.957961
-77.342215
-87.191057
-79.385031
-74.399306
-80.704654
-95.361540
-104.835017
-105.882142
-106.095412
-105.807849
-110.471983
-118.134098
-115.039743
-101.798594
-81.662424
-72.951627
-84.181914
-90.356598
-79.849766
-55.213117
-26.105082
-8.569449
-7.031364
-10.606810
-11.023219
-8.464765
-4.632150
-4.138332
-3.494368
-2.982106
-12.341545
-35.490764
-53.324871
-50.998910
-59.007556
-84.357269
-99.684356
-93.804250
-55.917359
-1.044243
42.752109
54.175402
43.712729
51.348087
51.470957
27.283965
12.560059
16.659975
27.297991
31.211134
33.834270
40.248459
29.116364
-6.117779
-15.959866
16.400202
55.453452
87.917428
96.642252
81.161902
66.685295
57.233119
56.366532
