EVENT_NAME: 202302060117
EVENT_ID: 13194
EVENT_DATE_YYYYMMDD: 2023/02/06
EVENT_TIME_HHMMSS: 01:17:32.00000
EVENT_LATITUDE_DEGREE: 37.288
EVENT_LONGITUDE_DEGREE: 37.043
EVENT_DEPTH_KM: 8.6
HYPOCENTER_REFERENCE: AFAD
MAGNITUDE_W: 7.7
MAGNITUDE_W_REFERENCE: AFAD
MAGNITUDE_L: 
MAGNITUDE_L_REFERENCE: 
FOCAL_MECHANISM: 
NETWORK: TK
STATION_CODE: 6802
STATION_NAME: 
STATION_LATITUDE_DEGREE: 38.3709
STATION_LONGITUDE_DEGREE: 34.027
STATION_ELEVATION_M: 980.0
LOCATION: Kahramanmaras_Pazarck_Turkiye
SENSOR_DEPTH_M: 
VS30_M/S: 214
SITE_CLASSIFICATION_EC8: C
MORPHOLOGIC_CLASSIFICATION: 
EPICENTRAL_DISTANCE_KM: 290.95
EARTHQUAKE_BACKAZIMUTH_DEGREE: 
DATE_TIME_FIRST_SAMPLE_YYYYMMDD_HHMMSS: 2023/02/06 01:17:59.6471600
DATE_TIME_FIRST_SAMPLE_PRECISION: millisecond
SAMPLING_INTERVAL_S: 0.01
NDATA: 18251
DURATION_S: 
STREAM: HNZ
UNITS: cm/s^2
INSTRUMENT: sensor = CMG-5T/GURALP | digitizer = 
INSTRUMENT_ANALOG/DIGITAL: 
INSTRUMENTAL_FREQUENCY_HZ: 
INSTRUMENTAL_DAMPING: 
FULL_SCALE_G: 
N_BIT_DIGITAL_CONVERTER: 
PGA_CM/S^2: 6.299
TIME_PGA_S: 
BASELINE_CORRECTION: BASELINE REMOVED
FILTER_TYPE: BUTTERWORTH
FILTER_ORDER: 
LOW_CUT_FREQUENCY_HZ: 
HIGH_CUT_FREQUENCY_HZ: 
LATE/NORMAL_TRIGGERED: 
DATABASE_VERSION: 
HEADER_FORMAT: DYNA 1.2
DATA_TYPE: Acceleration
PROCESSING: Automatic Paolucci et al., 2011
DATA_TIMESTAMP_YYYYMMDD_HHMMSS: 
DATA_LICENSE: U (unknown license)
DATA_CITATION: Turkish Accelerometric Archive v 1.0 - Disaster And Emergency Management Presidency, Earthquake Department
DATA_CREATOR: AFAD
ORIGINAL_DATA_MEDIATOR_CITATION: : AFAD - Disaster And Emergency Management Presidency
ORIGINAL_DATA_MEDIATOR: AFAD PROCESS SERVICE
ORIGINAL_DATA_CREATOR_CITATION: AFAD PROCESS SERVICE
ORIGINAL_DATA_CREATOR: network: TK
USER1: GuestUser
USER2: 
USER3: 
USER4: 
USER5: 
[...]
1.896564
1.912792
1.929333
1.932453
1.982390
2.042938
2.105672
2.191190
2.212412
2.198990
2.107227
2.015776
1.922765
1.792924
1.693983
1.606902
1.531369
1.451466
1.391851
1.281673
1.233294
1.086600
0.978607
0.983599
0.946768
0.961124
0.966741
0.993581
1.023543
1.045702
1.059121
1.057559
1.058494
1.059741
1.087206
1.168042
1.260114
1.376531
1.495757
1.608429
1.731400
1.820351
1.873097
1.906180
1.905866
1.916165
1.947063
1.995127
2.083141
2.190819
2.315351
2.430832
2.546313
2.644003
2.699870
2.740131
2.753863
2.720465
2.660850
2.585629
2.467961
2.325948
2.167705
1.984181
1.814701
1.688918
1.616506
1.588727
1.580298
1.559073
1.524115
1.456697
1.372425
1.287841
1.217302
1.165490
1.121792
1.054686
0.944821
0.801559
0.659858
0.530330
0.400489
0.291560
0.190434
0.080880
-0.067687
-0.262447
-0.527746
-0.814892
-1.107031
-1.389184
-1.645430
-1.889193
-2.135452
-2.376405
-2.573662
-2.789646
-2.962559
-3.102387
-3.230043
-3.337724
-3.437914
-3.499401
-3.616133
-3.704463
-3.823068
-3.971011
-4.123948
-4.276261
-4.376763
-4.517840
-4.590876
-4.664848
-4.713851
-4.749122
-4.782207
-4.772845
-4.773158
-4.746318
-4.677342
-4.586831
-4.489765
-4.362112
-4.241637
-4.118666
-3.989452
-3.824033
-3.632396
-3.428588
-3.186701
-2.923902
-2.636447
-2.313411
-1.967902
-1.620209
-1.296860
-1.008469
-0.726007
-0.466330
-0.243794
-0.048100
0.140415
0.313637
0.469693
0.649781
0.831117
1.005900
1.186924
1.372943
1.553655
1.762770
1.922259
2.047727
2.163208
2.231559
2.299911
2.375129
2.468762
2.544292
2.598286
2.590794
2.552715
2.469691
2.348902
2.236852
2.136350
2.035223
1.941588
1.846080
1.722169
1.545199
1.317355
1.090447
0.856672
0.678454
0.535816
0.404727
0.287059
0.193111
0.104157
0.036740
0.003654
-0.022565
-0.036923
-0.032867
-0.055653
-0.099975
-0.158341
-0.264461
-0.368084
-0.471708
-0.536941
-0.621525
-0.741378
-0.881519
-1.071909
-1.344074
-1.596263
-1.829414
-2.069743
-2.226737
-2.323182
-2.355643
-2.358453
-2.300402
-2.241101
-2.170877
-2.088480
-1.983299
-1.886858
-1.779180
-1.646221
-1.533237
-1.396845
-1.271064
-1.095033
-0.934920
-0.754208
-0.554457
-0.386229
-0.223931
-0.123119
-0.053832
-0.024806
-0.048841
-0.068817
-0.074125
-0.057896
-0.019820
0.029493
0.104399
0.164011
0.222375
0.271688
0.293222
0.302584
0.290410
0.293530
0.292593
0.318184
0.314438
0.332227
0.418681
0.536659
0.669618
0.771365
0.857507
0.902450
1.000765
1.089716
1.161188
1.268554
1.330351
1.292584
1.220797
1.134964
1.021353
0.920851
0.872784
0.908364
0.970161
1.041322
1.102807
1.107487
1.077523
1.039755
0.981077
0.921462
0.845617
0.782880
0.748234
0.765087
0.848420
1.004163
1.190494
1.377761
1.575640
1.753543
1.932071
2.107477
2.255106
2.388065
2.500112
2.602796
2.686441
2.708600
2.673642
2.594988
2.524449
2.443922
2.334057
2.194228
2.063451
1.969816
1.894907
1.844655
1.860260
1.938599
2.050022
2.180172
2.313131
2.396464
2.420808
2.407385
2.355885
2.299391
2.251636
2.198264
2.122106
2.077473
2.035648
2.017544
2.008179
1.990075
1.992571
2.036890
2.101808
2.207925
2.345254
2.483519
2.618975
2.729774
2.849312
2.956990
3.073407
3.142383
3.212919
3.273156
3.325902
3.406738
3.467598
3.535014
3.601805
3.623339
3.605547
3.602425
3.596181
3.571211
3.544679
3.511594
3.436685
3.324323
3.181061
3.028749
2.857085
2.686045
2.514381
2.336787
2.189468
2.081475
2.032784
1.989399
1.909808
1.815861
1.683211
1.511235
1.336138
1.145123
0.949738
0.752793
0.573014
0.400102
0.225004
0.067385
-0.083367
-0.198226
-0.281250
-0.349604
-0.437309
-0.605228
-0.871775
-1.221968
-1.613672
-2.017860
-2.394895
-2.722928
-3.006953
-3.258830
-3.481057
-3.658651
-3.776631
-3.833437
-3.839369
-3.804413
-3.753540
-3.754478
-3.807851
-3.885569
-3.998555
-4.077209
-4.134952
-4.201433
-4.233582
-4.218602
-4.190825
-4.154622
-4.116233
-4.067233
-3.994824
-3.900879
-3.830030
-3.780093
-3.715175
-3.655875
-3.583154
-3.500757
-3.369047
-3.219233
-3.038833
-2.850942
-2.712677
-2.584399
-2.470479
-2.326284
-2.188019
-2.077532
-1.986084
-1.936460
-1.884650
-1.821917
-1.704875
-1.564426
-1.388395
-1.188955
-1.022912
-0.828779
-0.625594
-0.436455
-0.232646
-0.052558
0.069165
0.174346
0.246755
0.300125
0.333208
0.363170
0.386577
0.416226
0.459297
0.479583
0.435573
0.321962
0.174331
0.022642
-0.148397
-0.361260
-0.602838
-0.870008
-1.097853
-1.351603
-1.545427
-1.709912
-1.816032
-1.870653
-1.923714
-1.834451
-1.727085
-1.592254
-1.424026
-1.230204
-1.033886
-0.810726
-0.606293
-0.403108
-0.223956
-0.112533
-0.020773
0.000137
0.021672
-0.000802
-0.063538
-0.159671
-0.281084
-0.403746
-0.508930
-0.609744
-0.676226
-0.720547
-0.749263
-0.738965
-0.741151
-0.760504
-0.775174
-0.729607
-0.665001
-0.548584
-0.383165
-0.199643
-0.008007
0.170209
0.334691
0.440808
0.486688
0.474826
0.408344
0.298479
0.145542
-0.024874
-0.215264
-0.437491
-0.649417
-0.840744
-1.013033
-1.160040
-1.295186
-1.436575
-1.589512
-1.695008
-1.763050
-1.773351
-1.753065
-1.732467
-1.714054
-1.723107
-1.682221
-1.598576
-1.497140
-1.412247
-1.332347
-1.228727
-1.113870
-1.011186
-0.969052
-0.967805
-1.026796
-1.161943
-1.287414
-1.432548
-1.627309
-1.849223
-2.113272
-2.373577
-2.589249
-2.756231
-2.873275
-2.944750
-2.993754
-3.019973
-3.011235
-3.019351
-3.035895
-3.025596
-3.007807
-2.980967
-2.936648
-2.865487
-2.776536
-2.678534
-2.589583
-2.498447
-2.385463
-2.274976
-2.171668
-2.050257
-1.943204
-1.830220
-1.719109
-1.644515
-1.617050
-1.630785
-1.626729
-1.593334
-1.503759
-1.377666
-1.198826
-0.971609
-0.692580
-0.381092
-0.056495
0.266541
0.585520
0.892326
1.151067
1.378285
1.549010
1.695389
1.832094
1.974416
2.127663
2.277476
2.379848
2.453193
2.519048
2.579597
2.622667
2.637959
2.641079
2.634523
2.649191
2.650750
2.644507
2.647939
2.659173
2.679459
2.722217
2.792754
2.930082
3.120470
3.300559
3.434454
3.522157
3.561170
3.529020
3.422588
3.251861
3.073018
2.928508
2.851102
2.840801
2.863896
2.894482
2.938489
2.984056
3.003094
2.993417
2.960955
2.890416
2.786793
2.692846
2.655391
2.621369
2.571429
2.540528
2.482786
2.366990
2.230907
2.062053
1.829839
1.581395
1.315160
1.027702
0.727759
0.440613
0.157525
-0.055338
-0.183930
-0.255094
-0.270389
-0.286620
-0.303788
-0.325949
-0.344990
-0.369960
-0.388376
-0.428016
-0.458604
-0.496684
-0.565974
-0.672719
-0.800375
-0.891825
-0.933962
-0.946448
-0.991082
-1.088775
-1.256069
-1.402764
-1.540407
-1.624992
-1.606578
-1.600649
-1.569127
-1.481425
-1.412449
-1.334422
-1.301339
-1.269193
-1.196472
-1.106897
-1.012952
-0.964575
-0.894975
-0.825688
-0.784178
-0.774816
-0.746727
-0.740174
-0.772323
-0.848168
-0.958658
-1.095365
-1.242684
-1.337256
-1.376896
-1.437135
-1.506114
-1.544505
-1.578215
-1.574783
-1.592575
-1.589143
-1.560118
-1.517984
-1.491143
-1.509247
-1.560747
-1.599139
-1.602573
-1.562936
-1.498954
-1.445272
-1.379105
-1.260504
-1.096333
-0.919366
-0.733348
-0.536717
-0.370674
-0.255818
-0.169364
-0.107566
-0.041088
-0.025795
-0.038593
-0.089157
-0.239597
-0.481487
-0.603837
-0.655961
-0.738673
-0.821072
-0.924695
-1.015522
-1.093552
-1.159097
-1.174704
-1.109474
-0.990872
-0.763342
-0.516774
-0.268957
-0.018331
0.210447
0.410511
0.628052
0.851837
1.018816
1.163323
1.349342
1.565947
1.779120
1.981056
2.120882
2.235738
2.378997
2.487923
2.561581
2.592478
2.591853
2.662701
2.687045
2.708579
2.787855
2.879615
2.974184
3.073123
3.176119
3.280363
3.398965
3.480426
3.519126
3.553145
3.585916
3.633356
3.731358
3.836227
3.955453
4.037850
4.064690
4.018184
3.895522
3.756005
3.634592
3.505999
3.405497
3.344010
3.276592
3.182956
3.060294
2.976334
2.917655
2.879264
2.849924
2.814654
2.731318
2.663900
2.532811
2.400785
2.322755
2.228808
2.044347
1.833981
1.645775
1.421988
1.271860
1.115802
0.978158
0.826470
0.708489
0.615790
0.598935
0.568970
0.540566
0.531826
0.485007
0.444431
0.358911
0.287435
0.137307
-0.020624
-0.184173
-0.371754
-0.561521
-0.729128
-0.869580
-0.969146
-1.075890
-1.222585
-1.373337
-1.503490
-1.624279
-1.765356
-1.914860
-2.058122
-2.140521
-2.195767
-2.220113
-2.246332
-2.288781
-2.310318
-2.263190
-2.182354
-2.085600
-1.997273
-1.906450
-1.771930
-1.662067
-1.559383
-1.457636
-1.453892
-1.507889
-1.573122
-1.654585
-1.688295
-1.766637
-1.849972
-1.910836
-1.971387
-1.987619
-1.937370
-1.839992
-1.741989
-1.620891
-1.515397
-1.454849
-1.430193
-1.431443
-1.429260
-1.420522
-1.419899
-1.379950
-1.277578
-1.145243
-1.001048
-0.843744
-0.688313
-0.552232
-0.472957
-0.394930
-0.265404
-0.086564
0.101951
0.253949
0.347582
0.385658
0.385657
0.399389
0.415617
0.404068
0.411245
0.466800
0.591644
0.709621
0.837275
0.938710
0.997074
1.037335
1.040767
1.003000
0.912486
0.787015
0.636886
0.485510
0.366593
0.300112
0.253605
0.252043
0.267960
0.268583
0.325074
0.476448
0.673078
0.850669
1.041993
1.251108
1.431509
1.567277
1.660597
1.780448
1.882820
1.936814
1.987375
2.000482
2.029820
2.046985
2.063213
2.101290
2.087243
2.076006
2.068513
2.096914
2.171820
2.186176
2.185551
2.186173
2.110016
1.984233
1.822869
1.662753
1.501701
1.339088
1.186151
1.075350
0.981402
0.869976
0.789137
0.701120
0.618408
0.543187
0.483260
0.394930
0.268211
0.087496
-0.109450
-0.267068
-0.420942
-0.511144
-0.567638
-0.641923
-0.711837
-0.816397
-0.900045
-0.877574
-0.826077
-0.759598
-0.700922
-0.677515
-0.667216
-0.675020
-0.695621
-0.690629
-0.665349
-0.628833
-0.589820
-0.552368
-0.502743
-0.471533
-0.466853
-0.453121
-0.419414
-0.414422
-0.417232
-0.399755
-0.320168
-0.215299
-0.099506
0.018471
0.170157
0.369597
0.540946
0.775654
1.043446
1.301251
1.479154
1.642700
1.749754
1.743822
1.767542
1.741947
1.745691
1.747250
1.724152
1.705736
1.673587
1.653923
1.598365
1.545616
1.525015
1.516587
1.537497
1.536872
1.525634
1.430438
1.275004
1.129246
0.935109
0.791848
0.651083
0.574926
0.547771
0.554324
0.549953
0.544958
0.573046
0.636716
0.742521
0.824294
0.936653
1.052134
1.169800
1.274668
1.365492
1.452570
1.573357
1.677914
1.803070
1.965368
2.125793
2.245019
2.304631
2.337090
2.352382
2.338960
2.282466
2.211927
2.071786
1.903243
1.725961
1.518404
1.295242
1.049607
0.803348
0.610772
0.397597
0.123560
-0.185746
-0.523455
-0.833073
-1.130207
-1.402684
-1.647070
-1.887087
-2.092459
-2.266932
-2.409257
-2.513817
-2.637103
-2.738854
-2.811890
-2.920819
-3.022569
-3.127441
-3.207968
-3.252913
-3.297235
-3.361532
-3.433631
-3.508540
-3.560352
-3.563163
-3.573152
-3.584389
-3.600620
-3.621846
-3.673658
-3.738579
-3.797570
-3.836273
-3.874665
-3.906502
-3.906503
-3.855006
-3.756379
-3.634032
-3.440835
-3.215802
-2.990770
-2.774788
-2.580343
-2.413363
-2.229842
-2.059741
-1.913361
-1.800690
-1.712675
-1.581588
-1.440827
-1.338455
-1.230152
-1.097506
-1.018542
-0.979841
-0.982028
-1.000132
-1.016363
-1.074417
-1.131848
-1.175233
-1.208318
-1.188657
-1.147459
-1.085974
-0.990781
-0.916811
-0.830669
-0.728297
-0.655264
-0.597212
-0.556014
-0.474242
-0.368437
-0.320061
-0.268875
-0.199275
-0.147154
-0.128428
-0.139042
-0.195223
-0.266699
-0.357525
-0.452097
-0.524509
-0.581315
-0.623764
-0.791682
-0.960537
-1.079142
-1.209295
-1.322906
-1.425592
-1.489889
-1.547007
-1.573539
-1.616924
-1.661869
-1.685279
-1.663745
-1.589151
-1.524233
-1.492711
-1.441213
-1.338217
-1.254572
-1.232101
-1.243651
-1.223677
-1.210882
-1.214316
-1.253644
-1.326056
-1.344472
-1.375685
-1.428745
-1.486488
-1.560148
-1.609151
-1.666270
-1.676259
-1.627882
-1.543301
-1.400666
-1.233063
-1.089179
-0.952163
-0.791426
-0.587617
-0.337303
-0.079811
0.141477
0.271003
0.349342
0.420502
0.454209
0.473559
0.466691
0.449835
0.458261
0.478547
0.513503
0.499456
0.442026
0.362435
0.292520
0.187961
0.094950
0.051252
0.034397
0.022847
-0.045195
-0.138518
-0.212179
-0.203441
-0.168798
-0.146951
-0.159749
-0.234033
-0.444087
-0.679423
-0.937854
-1.211267
-1.423506
-1.614833
-1.738744
-1.912904
-2.157291
-2.432265
-2.704429
-2.954434
-3.104562
-3.132965
-3.051193
-2.939770
-2.871730
-2.772480
-2.606436
-2.402940
-2.189455
-1.900439
-1.600811
-1.292132
-1.007174
-0.778084
-0.577084
-0.391378
-0.186008
-0.005920
0.169487
0.308376
0.382658
0.473481
0.521545
0.566176
0.628598
0.681031
0.791206
0.935089
1.077724
1.191956
1.291519
1.383903
1.514366
1.632343
1.749384
1.897013
2.017799
2.148262
2.278412
2.376726
2.438523
2.487836
2.525288
2.546823
2.564300
2.579904
2.617980
2.659490
2.720039
2.815232
2.901374
2.911673
2.894817
2.807736
2.687883
2.621089
2.486255
2.360471
2.162902
1.903846
1.663829
1.479993
1.323935
1.142283
0.984976
0.880105
0.787406
0.655692
0.539584
0.412553
0.293012
0.175344
0.057363
-0.108371
-0.300634
-0.533472
-0.758196
-0.957014
-1.150213
-1.301590
-1.420507
-1.524754
-1.615268
-1.657717
-1.684248
-1.713588
-1.789121
-1.874642
-1.994807
-2.177707
-2.413042
-2.675531
-2.938957
-3.232345
-3.507631
-3.764814
-4.069438
-4.360954
-4.638736
-4.859090
-5.036684
-5.215839
-5.342871
-5.439315
-5.554799
-5.689009
-5.815416
-5.931524
-6.017981
-6.092265
-6.104751
-6.093205
-6.097576
-6.118489
-6.150326
-6.183723
-6.183100
-6.201828
-6.255513
-6.290159
-6.299212
-6.285481
-6.272373
-6.211200
-6.133797
-6.061076
-5.981177
-5.888480
-5.816071
-5.735859
-5.632863
-5.452775
-5.222748
-4.976804
-4.686540
-4.414690
-4.175612
-3.939656
-3.712750
-3.497393
-3.288591
-3.096018
-2.911248
-2.858502
-2.842898
-2.816994
-2.799829
-2.742713
-2.674674
-2.552639
-2.317931
-2.037654
-1.773919
-1.530784
-1.317299
-1.096012
-0.889082
-0.669980
-0.424972
-0.183397
0.023533
0.267605
0.520415
0.776035
1.017922
1.217673
1.385901
1.485464
1.509183
1.487958
1.452064
1.383397
1.297877
1.208299
1.147435
1.122153
1.122776
1.121214
1.153360
1.247929
1.406481
1.577830
1.782264
1.997933
2.199245
2.403678
2.632144
2.831895
2.970472
3.099374
3.176465
3.233268
3.264166
3.258859
3.231703
3.190503
3.119340
3.021647
2.887124
2.768520
2.664896
2.560961
2.467950
2.346224
2.225747
2.111200
2.005392
1.925177
1.885225
1.883975
1.811564
1.794708
1.778477
1.751321
1.776289
1.696387
1.677346
1.635834
1.634584
1.651749
1.613982
1.648313
1.665790
1.645813
1.649557
1.617720
1.523460
1.428264
1.370834
1.333067
1.265649
1.256908
1.254722
1.274384
1.399228
1.558405
1.722263
1.877070
1.989430
2.113025
2.219767
2.401416
2.541865
2.623950
2.652039
2.654846
2.619576
2.550286
2.466326
2.309331
2.068378
1.819310
1.730044
1.456006
1.308999
1.101442
0.876095
0.709425
0.488135
0.339255
0.135131
-0.087095
-0.326176
-0.520312
-0.689167
-0.740667
-0.859896
-0.921071
-0.952596
-0.974758
-1.006283
-1.039368
-1.144552
-1.254729
-1.346492
-1.495684
-1.589007
-1.686388
-1.797814
-1.869914
-1.877094
-1.985711
-2.065613
-2.045015
-2.056253
-2.082784
-2.093397
-2.155509
-2.154886
-2.086535
-1.993838
-1.877109
-1.731665
-1.657384
-1.574051
-1.432352
-1.339032
-1.245399
-1.140218
-1.037846
-0.971367
-0.913316
-0.875863
-0.868062
-0.879299
-0.879925
-0.907704
-0.970753
-1.058458
-1.133991
-1.200785
-1.261024
-1.330939
-1.448607
-1.586563
-1.700174
-1.790688
-1.912102
-2.068160
-2.186452
-2.300375
-2.438643
-2.573166
-2.726415
-2.890276
-3.035098
-3.157136
-3.275428
-3.372497
-3.516383
-3.708647
-3.905280
-4.083498
-4.243614
-4.386875
-4.562285
-4.748618
-4.874401
-4.969597
-5.062608
-5.126281
-5.181839
-5.256747
-5.299196
-5.290146
-5.247388
-5.252383
-5.170299
-5.001447
-4.811371
-4.570732
-4.345076
-4.161866
-3.966796
-3.733649
-3.492074
-3.179338
-2.889697
-2.625338
-2.299181
-1.973023
-1.642808
-1.292930
-0.972703
-0.653724
-0.298852
0.045720
0.365323
0.682429
0.996414
1.268576
1.486118
1.645607
1.734558
1.814458
1.874694
1.892483
1.908400
1.948349
2.011082
2.084116
2.169946
2.262642
2.378747
2.526687
2.670258
2.806339
2.895290
2.949908
3.017948
3.071318
3.092852
3.064448
3.032923
2.993284
2.950523
2.974866
3.046963
3.076612
3.090968
3.136848
3.118744
3.071925
3.092523
3.098452
3.087527
3.047887
2.992641
2.909306
2.866233
2.906494
2.922098
2.934893
2.938013
2.933018
2.920844
2.912416
2.905236
2.886508
2.865595
2.836254
2.767900
2.704540
2.625574
2.574698
2.538179
2.518202
2.496041
2.420508
2.309394
2.175496
2.067503
1.981358
1.927985
1.873988
1.820616
1.767555
1.692022
1.656440
1.710746
1.780658
1.874603
1.893016
1.918608
1.930155
1.936708
2.027220
2.138955
2.305310
2.398631
2.454810
2.492886
2.525657
2.540325
2.563108
2.592757
2.576526
2.605863
2.651118
2.667659
2.714787
2.775648
2.864911
2.958544
3.040628
3.090565
3.018465
3.009413
3.034068
3.018773
2.979133
3.000980
3.099919
3.170455
3.218519
3.175758
3.089925
3.067452
3.042481
2.966948
2.909830
2.895472
2.878304
2.787165
2.698524
2.587098
2.539655
2.547769
2.574921
2.566805
2.491272
2.416987
2.313676
2.206308
2.061174
1.916351
1.790256
1.710978
1.593622
1.487814
1.469710
1.474078
1.453477
1.417270
1.396045
1.422886
1.485307
1.588303
1.702848
1.840488
2.001538
2.122324
2.204097
2.265894
2.330188
2.420075
2.486554
2.525255
2.582058
2.598599
2.677874
2.701594
2.648845
2.587981
2.547093
2.458764
2.396339
2.355451
2.279918
2.234660
2.175982
2.150699
2.075478
2.028036
2.051131
2.104501
2.134150
2.208432
2.253999
2.272412
2.268978
2.244943
2.241509
2.259610
2.278336
2.206236
2.073274
1.907852
1.795178
1.742741
1.837623
1.982754
2.115089
2.227449
2.251792
2.257409
2.312339
2.438744
2.703103
2.989934
3.194055
3.366653
3.402544
3.354477
3.299232
3.328881
3.471516
3.590742
3.687184
3.721203
3.675321
3.568576
3.469323
3.406587
3.320130
3.259890
3.144719
2.970558
2.762377
2.554820
2.333218
2.136273
2.009865
1.909051
1.859111
1.794502
1.771405
1.778894
1.779205
1.810727
1.824146
1.794182
1.762345
1.728323
1.713340
1.684000
1.639679
1.600351
1.504531
1.415265
1.349407
1.307583
1.290415
1.295408
1.283234
1.217064
1.142156
1.066935
0.989529
0.916493
0.902759
0.912121
0.908686
0.900882
0.893078
0.878095
0.854061
0.826905
0.763857
0.693942
0.636200
0.558482
0.463598
0.355918
0.217338
0.058470
-0.107888
-0.250525
-0.439979
-0.671881
-0.918765
-1.190617
-1.459661
-1.724022
-1.956861
-2.154742
-2.386644
-2.641018
-2.859187
-3.034909
-3.162564
-3.268997
-3.361072
-3.475307
-3.625123
-3.784302
-3.899473
-3.984994
-4.078317
-4.179444
-4.250295
-4.293368
-4.304917
-4.322709
-4.337692
-4.326770
-4.355485
-4.392004
-4.436013
-4.475653
-4.494694
-4.523097
-4.555871
-4.598007
-4.629220
-4.633591
-4.602693
-4.474728
-4.317424
-4.182280
-4.061181
-3.982842
-3.951632
-3.949449
-3.944769
-3.910750
-3.866119
-3.805570
-3.725046
-3.632662
-3.576795
-3.563375
-3.555262
-3.498146
-3.420743
-3.305887
-3.163564
-3.040905
-2.901080
-2.808695
-2.677609
-2.541217
-2.414188
-2.290280
-2.148269
-2.023425
-1.997521
-1.948521
-1.834913
-1.720368
-1.599894
-1.478795
-1.378920
