EVENT_NAME: 202302060117
EVENT_ID: 13194
EVENT_DATE_YYYYMMDD: 2023/02/06
EVENT_TIME_HHMMSS: 01:17:32.00000
EVENT_LATITUDE_DEGREE: 37.288
EVENT_LONGITUDE_DEGREE: 37.043
EVENT_DEPTH_KM: 8.6
HYPOCENTER_REFERENCE: AFAD
MAGNITUDE_W: 7.7
MAGNITUDE_W_REFERENCE: AFAD
MAGNITUDE_L: 
MAGNITUDE_L_REFERENCE: 
FOCAL_MECHANISM: 
NETWORK: TK
STATION_CODE: 4408
STATION_NAME: 
STATION_LATITUDE_DEGREE: 38.09616
STATION_LONGITUDE_DEGREE: 37.88732
STATION_ELEVATION_M: 1215.0
LOCATION: Kahramanmaras_Pazarck_Turkiye
SENSOR_DEPTH_M: 
VS30_M/S: 654
SITE_CLASSIFICATION_EC8: unknown
MORPHOLOGIC_CLASSIFICATION: 
EPICENTRAL_DISTANCE_KM: 116.59
EARTHQUAKE_BACKAZIMUTH_DEGREE: 
DATE_TIME_FIRST_SAMPLE_YYYYMMDD_HHMMSS: 2023/02/06 01:17:32.1433170
DATE_TIME_FIRST_SAMPLE_PRECISION: millisecond
SAMPLING_INTERVAL_S: 0.01
NDATA: 12501
DURATION_S: 
STREAM: HNE
UNITS: cm/s^2
INSTRUMENT: sensor = GMS+/GEOSIG | digitizer = 
INSTRUMENT_ANALOG/DIGITAL: 
INSTRUMENTAL_FREQUENCY_HZ: 
INSTRUMENTAL_DAMPING: 
FULL_SCALE_G: 
N_BIT_DIGITAL_CONVERTER: 
PGA_CM/S^2: 137.181
TIME_PGA_S: 
BASELINE_CORRECTION: BASELINE REMOVED
FILTER_TYPE: BUTTERWORTH
FILTER_ORDER: 
LOW_CUT_FREQUENCY_HZ: 
HIGH_CUT_FREQUENCY_HZ: 
LATE/NORMAL_TRIGGERED: 
DATABASE_VERSION: 
HEADER_FORMAT: DYNA 1.2
DATA_TYPE: Acceleration
PROCESSING: Automatic Paolucci et al., 2011
DATA_TIMESTAMP_YYYYMMDD_HHMMSS: 
DATA_LICENSE: U (unknown license)
DATA_CITATION: Turkish Accelerometric Archive v 1.0 - Disaster And Emergency Management Presidency, Earthquake Department
DATA_CREATOR: AFAD
ORIGINAL_DATA_MEDIATOR_CITATION: : AFAD - Disaster And Emergency Management Presidency
ORIGINAL_DATA_MEDIATOR: AFAD PROCESS SERVICE
ORIGINAL_DATA_CREATOR_CITATION: AFAD PROCESS SERVICE
ORIGINAL_DATA_CREATOR: network: TK
USER1: GuestUser
USER2: 
USER3: 
USER4: 
USER5: 
[...]
0.040485
0.108797
0.186981
0.347771
0.350621
0.118642
0.022261
0.197858
0.318124
0.205378
-0.052319
-0.222214
-0.317815
-0.526415
-0.618120
-0.482528
-0.356547
-0.327200
-0.232651
-0.026922
0.026584
0.020083
0.186068
0.413878
0.589994
0.680127
0.857282
1.133668
1.208994
1.013382
0.710226
0.496690
0.312248
0.018184
-0.262891
-0.515652
-0.768413
-0.861157
-0.809470
-0.783240
-0.731033
-0.506081
-0.149686
0.164887
0.413738
0.666225
0.815845
0.800512
0.721536
0.532678
0.202506
0.022480
-0.014413
-0.308737
-0.746972
-0.923881
-0.786990
-0.585677
-0.467749
-0.222794
0.199582
0.530260
0.636238
0.565055
0.434905
0.301377
0.106285
-0.103874
-0.241558
-0.369110
-0.547058
-0.712277
-0.789695
-0.823471
-0.824517
-0.639309
-0.313567
-0.254866
-0.333582
0.226211
1.198256
1.572835
1.385795
1.391763
1.554371
1.036127
0.028741
-0.440926
-0.697844
-1.219464
-1.396113
-1.156354
-1.038426
-0.992973
-0.575013
0.097779
0.434951
0.354676
0.311288
0.554684
0.893415
0.668968
-0.202300
-0.929137
-1.538560
-2.266176
-2.866506
-3.031985
-2.642340
-2.550129
-2.651445
-2.049830
-1.206110
-0.648655
-0.271738
0.360271
0.997475
0.905510
0.599237
0.818215
1.270464
1.057967
0.003043
-0.954728
-1.257624
-1.159698
-1.008001
-0.836560
-0.532639
0.105864
0.933218
1.099723
0.678892
0.545365
0.727196
0.778104
0.721987
1.063575
1.595573
1.877674
1.901047
1.587760
1.432672
1.572940
1.449803
1.128464
0.976233
0.832575
0.423174
0.381085
1.035433
1.601461
1.660422
1.540402
1.622482
1.939912
2.315270
2.385400
2.222519
2.168221
1.846102
1.257981
0.805199
0.111871
-0.986174
-1.475064
-1.066975
-0.890859
-1.040492
-1.182592
-1.643947
-2.004511
-1.382114
0.144276
1.260752
1.396603
1.101760
0.532862
-0.157868
-0.650914
-0.613774
-0.522602
-1.409197
-2.524907
-2.767277
-2.724941
-2.957180
-3.161884
-2.912773
-2.181274
-1.921512
-2.718487
-3.362718
-2.941381
-2.580311
-3.188954
-3.370798
-2.725281
-3.234952
-4.472494
-4.089343
-2.466319
-1.461544
-1.279713
-0.750053
0.227188
0.459933
0.448497
1.188049
1.658742
1.137121
0.658362
0.777589
0.549506
-0.067969
-0.447237
-0.962363
-1.913120
-2.866216
-3.192231
-2.800248
-1.951853
-0.680036
1.018320
2.226494
2.190120
2.045163
2.411689
2.215298
1.224796
0.247283
-0.713865
-1.392126
-0.602438
1.053056
1.444519
0.693524
0.755082
1.441122
1.494108
1.429420
2.225602
2.839426
1.735926
0.424091
0.639172
1.444706
1.393525
0.890348
0.860987
0.427947
-0.296033
0.160633
1.494534
1.655324
0.376740
-0.069548
0.458034
0.327364
-0.404929
-0.665223
-0.283630
0.068348
0.213812
0.971288
2.588077
3.638572
3.789231
3.475944
2.446477
1.330248
0.619516
0.151927
-0.502435
-1.511900
-1.885193
-1.189801
-0.824574
-2.312532
-3.845688
-2.486589
-0.199859
0.506443
0.917649
1.663176
2.301420
2.071778
0.743838
-0.119118
-0.488255
-1.137162
-2.173902
-3.139726
-2.651889
-1.748422
-1.192266
0.089422
1.100173
1.295771
1.044309
0.401117
0.339286
0.450200
-0.309888
-0.921128
-1.124274
-2.031390
-2.839015
-2.074005
-1.398875
-2.503934
-3.422221
-3.144016
-2.393813
-1.338902
-1.267473
-2.471504
-2.939612
-2.068877
-1.368549
-1.807563
-2.677273
-3.046150
-2.809508
-1.937474
-0.921529
-0.795548
-1.264695
-1.509403
-1.684753
-1.738792
-1.281347
-0.627518
-0.572714
-0.728062
0.606879
3.192343
4.347264
3.749012
3.704845
3.898365
2.733299
1.729030
2.574827
3.310224
2.453762
1.296230
0.952810
1.115937
0.230642
-0.610234
-0.349693
-0.628431
-0.129943
1.760901
2.233672
1.265251
1.507867
2.187933
0.901036
-0.480676
0.410840
1.212218
-0.125334
-0.942051
-0.223280
-0.682037
-2.745899
-4.119819
-3.706535
-2.451083
-1.928437
-2.022479
-1.528148
-1.240331
-1.760913
-2.268766
-2.021474
-1.300364
-0.887080
-0.424181
-0.301317
-0.532257
-0.165732
-0.027022
-1.466663
-3.914722
-5.299812
-5.462433
-4.799512
-2.866845
-1.723094
-2.254066
-2.889465
-3.533696
-3.851659
-3.186919
-2.093303
-2.004989
-2.903013
-2.590519
-1.312208
-0.384583
0.872427
2.006308
1.584957
0.019329
-0.543075
0.148680
0.219331
-0.450618
-0.840536
-0.744169
-1.045246
-1.623756
-1.230215
-0.646782
-1.021894
-2.192415
-2.747286
-1.271031
0.781128
1.262212
0.716693
0.621871
0.480550
0.149859
0.769918
2.343066
3.928683
4.002970
3.067799
2.902839
3.203644
3.366512
3.735116
4.535974
4.554151
3.459222
2.943576
3.150345
2.975514
3.004602
3.847542
3.729600
2.155660
1.170613
1.312959
1.288015
1.036813
1.403858
1.664918
1.759727
2.173011
1.829072
1.437335
1.489541
0.854662
-0.345472
-2.229576
-3.414644
-3.544535
-4.438143
-5.378769
-5.839604
-5.105766
-3.094910
-2.352500
-2.406278
-1.239927
-0.098513
-0.021109
-0.254128
-1.189559
-3.283814
-5.287151
-5.415224
-3.344880
-1.695100
-2.431549
-3.590121
-3.868339
-4.220591
-4.360353
-4.124490
-4.372056
-4.493894
-3.747067
-2.970108
-2.331086
-1.193309
-0.372969
-0.286732
0.127851
0.607376
0.630488
1.037018
1.537844
0.829450
0.130928
0.627597
0.682402
0.315343
0.385993
0.232983
0.167775
0.996947
2.262530
2.366171
0.661307
-0.179049
0.807023
0.629336
0.045630
0.999751
2.071287
1.711502
0.935309
1.685512
2.346874
2.515717
2.309454
-0.062233
-1.573050
-0.176285
0.601713
0.178545
0.494676
0.777816
0.065785
-0.491424
0.515170
1.620996
1.428241
1.253151
1.471090
1.495501
1.192865
1.248449
1.384820
0.620576
-0.429672
-1.638119
-1.806975
-0.125764
0.590929
-0.661678
-1.848825
-1.709076
-1.427235
-2.110691
-2.134336
-1.691179
-2.171496
-1.785228
-0.883061
-2.188142
-3.683632
-2.937845
-2.288952
-3.282571
-4.551803
-3.839526
-0.711927
1.340752
0.856278
0.211528
0.159048
0.233595
0.425556
0.392299
-0.802380
-2.122267
-1.164250
-0.120769
-0.516662
0.182367
0.929713
0.790210
1.184791
0.987101
-0.325253
-1.015463
-0.019520
1.214112
1.665062
2.463322
2.914532
2.497858
1.767644
0.801300
-0.287134
-2.204747
-3.442029
-3.479962
-4.722698
-6.148831
-6.051944
-4.928974
-2.694197
-0.077302
1.232442
0.700950
-0.235001
0.863291
2.686596
3.570839
3.609798
1.723356
0.053302
-0.302327
-1.367902
-3.010681
-3.380338
-1.870313
-1.289998
-2.468312
-3.140598
-2.400526
-1.974514
-2.646020
-1.389010
0.895123
1.388415
1.235665
1.842476
3.709681
4.478068
3.566276
3.020237
1.543710
-0.981241
-2.295674
-1.151922
0.042224
-0.407181
-0.301202
-0.482787
-1.276644
-1.396404
-2.049727
-3.521579
-4.005793
-2.622795
-2.831655
-6.521146
-9.751366
-10.312991
-10.072193
-10.203383
-10.145201
-9.534494
-8.536212
-6.766680
-3.919370
-1.243248
-0.490966
-2.109587
-3.419344
-2.509383
-2.106490
-3.765894
-5.163452
-4.465722
-3.709025
-4.476646
-4.822923
-5.232844
-6.433238
-5.844610
-3.962858
-3.518922
-4.767113
-6.088819
-5.557860
-3.579734
-2.661981
-4.347881
-6.864519
-6.661647
-4.215160
-2.320419
-0.873778
-0.258395
-1.409693
-2.542288
-1.662720
0.766103
1.871149
0.771545
-0.162327
1.183264
3.639882
3.985627
1.520682
-2.111659
-3.618580
-3.171786
-3.428703
-3.873952
-4.538445
-4.345444
-2.971538
-1.404884
1.600364
3.660317
1.600091
-2.771550
-6.775879
-8.531138
-7.461420
-6.589126
-7.665351
-9.491526
-10.806738
-9.635192
-7.057261
-6.324722
-7.580447
-7.360950
-5.879241
-6.262924
-4.982535
-1.756484
-1.190456
-3.060013
-3.795163
-2.438401
-2.257350
-2.565961
-2.343087
-2.042282
-1.141673
-0.515639
0.430689
0.902420
0.152204
-1.648774
-2.928397
-0.793112
1.806120
2.964938
5.149319
5.187499
0.572195
-2.454627
-0.504296
2.154681
1.632022
-0.092065
0.044567
-0.826182
-3.157866
-3.277625
-2.099585
-2.261686
-2.935271
-0.258110
5.391316
9.221068
11.117367
11.405443
9.745779
9.752267
12.124201
13.049488
11.832468
10.432572
6.966222
2.342347
2.055037
3.362442
0.729687
-1.722788
0.125973
1.531051
0.916953
2.657911
5.323903
5.061530
5.427537
8.426291
7.643863
2.361216
-1.158386
0.191881
2.090258
-2.768188
-9.200308
-8.367499
-4.999095
-5.589814
-10.097054
-15.108763
-14.233352
-8.127254
-5.476329
-7.436284
-8.114545
-7.308752
-9.645631
-12.272151
-9.306907
-6.472585
-8.291227
-9.067421
-6.077498
-1.598587
0.175881
-1.277527
-2.479739
-2.405972
-1.583294
-2.957473
-5.497230
-6.030800
-7.437710
-9.187514
-9.402608
-8.784627
-8.027930
-7.553600
-6.314254
-5.260382
-2.015368
1.356153
-1.550137
-5.432895
-5.603569
-1.872789
-0.049225
-3.531420
-0.666187
5.997633
5.347947
0.858111
0.959154
6.954591
9.646560
8.027160
9.736166
16.031635
19.035585
14.250913
12.437466
16.545949
16.928321
12.541353
9.052663
7.492231
3.724290
-1.386650
-3.097488
-2.039460
-0.760110
-1.414992
-0.384499
5.013472
5.068536
2.097564
5.957708
8.968672
4.555727
0.073425
2.154419
3.370646
-1.024894
-2.811324
-2.466619
-3.201769
-3.185150
-3.576627
-2.250259
1.685738
4.832560
2.452819
-4.196467
-2.855032
3.635782
2.005472
-3.465247
-4.152080
-3.675932
-8.109658
-10.470955
-4.974013
-1.289471
-5.041566
-10.188614
-12.710188
-10.990791
-3.619623
2.479462
-0.193557
-4.931211
-2.167806
0.314010
-2.337448
0.876394
6.320603
4.698346
0.982619
0.351376
1.972581
0.666981
-4.407073
-6.837728
-2.562994
3.579212
4.715171
4.478515
9.473846
15.601505
16.426521
14.358502
11.294273
5.957074
-0.171117
-5.010341
-8.069374
-9.140664
-10.246243
-10.126756
-4.249254
-1.002681
-2.384394
-1.271554
-1.519120
-3.270482
-3.747163
-3.367129
-2.241302
-0.498265
3.507609
6.547147
0.721325
-6.975086
-6.110845
-4.869420
-6.819765
-5.734461
-0.352856
3.989678
2.195195
-0.445093
2.393124
6.491736
3.893790
-2.830309
-7.225069
-9.624552
-13.706552
-18.666827
-17.473460
-9.822263
-2.406674
-0.432185
-0.307763
2.670989
3.287931
0.982225
-3.127311
-7.012666
-4.820751
-1.945646
-1.056727
1.387682
4.773491
5.836974
0.751491
-1.625912
4.005590
6.945896
5.089069
6.031240
8.885044
8.810744
9.054919
9.868505
5.248266
-2.355407
-3.044838
0.909862
-1.539496
-6.536918
-7.461439
-8.297898
-11.097424
-11.635150
-8.718223
-4.998353
2.082135
8.542816
7.221889
4.639790
6.071104
5.726645
-0.779249
-6.607409
-7.869108
-9.946479
-11.892148
-11.063495
-7.656125
-3.401393
-2.612485
-4.411125
-6.091050
-6.677353
-4.731958
-0.140567
4.681758
5.942925
6.002925
6.011490
2.640735
-2.163419
-7.173310
-10.188443
-8.988062
-5.038817
-3.000945
-5.618113
-4.719842
-1.888379
-3.266194
-5.001711
-6.965563
-6.670993
-2.465357
0.846937
1.362570
1.215795
-0.425945
-7.110041
-15.088040
-17.162813
-14.015731
-11.647693
-9.924659
-7.260226
-6.534961
-5.902173
-1.459109
3.517778
3.432307
0.212997
-0.960641
-1.187685
-1.727490
-0.127586
1.051754
-2.070144
-4.750955
-3.468747
-3.205609
-6.617668
-9.875164
-7.373086
-0.633933
2.463533
1.649933
2.550282
3.130077
-2.070743
-8.010603
-7.899429
-5.968321
-7.066627
-7.750602
-5.039151
-1.703738
-1.186027
-4.599125
-8.071189
-7.515293
-7.026936
-8.923508
-6.726917
-0.632249
2.809150
5.544240
9.233717
10.988183
9.637383
6.026602
4.080674
3.704004
3.716986
3.088081
-0.262672
-3.332097
-5.701707
-7.326821
-6.362570
-4.860858
-7.072788
-10.311841
-7.129431
-1.028269
4.012261
9.137476
14.522978
17.689023
11.567325
1.147507
-0.813487
3.731665
4.648639
1.691694
-0.933267
-4.459104
-6.351000
-5.458185
-3.727877
-0.484941
1.028720
1.256530
2.399762
2.226750
0.166524
-2.558968
-3.695200
-2.161537
1.841480
7.189576
9.600735
6.374670
1.965882
-0.395674
-2.187300
-3.567194
-5.402981
-4.755646
1.901420
8.260532
8.535879
5.673750
3.979017
2.011788
-1.915650
-3.970161
-1.734086
1.873045
4.073273
5.544332
6.355840
6.793802
6.960826
5.492871
4.694078
4.369102
3.870341
6.648812
10.148658
12.176919
11.030037
4.728840
1.575251
4.176041
6.471084
8.565586
12.295846
14.497113
8.966907
-0.311750
-1.140416
4.029478
6.333093
9.130008
15.462364
19.917117
16.710795
14.031802
20.793294
26.071252
26.931337
28.200817
24.314422
14.160866
7.880710
11.695136
12.359096
3.304359
-3.475331
-7.299121
-13.643440
-12.445137
-3.484969
0.146320
2.168607
5.613902
8.657077
10.306077
6.220440
2.606802
3.159322
8.440916
14.297377
8.560136
3.120589
5.562661
1.133092
-7.346519
-13.874234
-19.170909
-16.232680
-5.321395
5.272453
13.132505
19.657868
23.406313
25.396388
24.762288
13.752537
2.736812
4.637008
7.061935
3.110598
2.325053
7.501442
11.348079
11.513025
12.810299
15.144047
13.701809
9.085207
7.715184
12.314109
16.348817
16.541559
19.506803
26.205172
30.734219
26.859254
17.151980
18.692397
28.763593
23.599919
7.775630
5.142615
13.852368
17.478202
18.019811
15.577986
8.754395
8.551770
9.387177
7.554507
9.808247
12.602824
10.550650
2.566417
-2.574397
-0.183240
3.560269
7.396775
8.293487
3.141503
2.148403
2.769762
-5.845708
-5.801035
5.807208
8.405920
9.208856
13.435533
14.501094
15.180900
14.855664
17.978847
24.654876
27.936258
27.083693
21.170589
16.708289
19.013982
23.041417
22.265484
19.006948
20.134594
24.248532
28.687440
29.624935
27.963973
29.005376
32.187786
33.440640
35.266022
48.598864
64.155839
67.604511
65.878087
62.386020
54.535567
40.219490
18.678488
-3.230345
-24.306622
-46.453143
-65.768454
-79.438228
-78.440726
-63.383285
-46.317058
-29.812450
-19.149763
-16.493383
-23.101886
-40.146045
-56.202307
-64.706856
-71.722934
-78.381832
-74.889778
-70.142266
-70.872741
-79.521720
-98.039803
-114.691193
-132.033566
-137.181134
-134.788678
-97.154287
-7.871280
49.674582
69.455124
77.710022
75.174161
68.617872
48.256736
21.339057
-5.213388
-14.359303
-7.457276
1.589395
19.207888
46.866151
80.070200
104.799580
116.067527
122.920198
125.838424
119.381366
106.680007
95.906385
83.110730
64.932164
48.766280
33.591670
16.063044
0.818297
-5.059739
-0.092463
6.538366
12.935145
27.930241
48.438652
63.706765
69.170198
62.778861
51.396084
43.538617
38.490020
33.977585
25.992832
17.466723
15.395846
20.036074
25.612245
16.989242
-5.828779
-21.222373
-22.661494
-21.655419
-22.791391
-21.513339
-17.476293
-14.998373
-14.817841
-12.074699
-6.861942
-4.968241
-9.553411
-20.573293
-31.545377
-39.192692
-42.398754
-39.594826
-40.598316
-50.821489
-65.776335
-77.493694
-79.527683
-80.233219
-76.805588
-58.256347
-35.752658
-20.893680
-17.247844
-20.434424
-24.851005
-31.498732
-31.217670
-23.732204
-18.550361
-11.872513
0.720769
18.419011
37.083330
56.745936
73.954516
75.572863
64.550903
46.293628
23.133233
7.582479
1.175037
-4.601689
-11.005495
-19.193386
-33.474135
-46.931938
-50.697281
-43.600428
-26.918398
-8.159784
4.403885
15.226849
28.143543
33.630614
31.003574
22.527600
12.006213
6.949564
1.788748
0.469640
5.723699
7.886001
5.217138
-0.383205
-1.154982
0.133200
-5.195166
-12.134094
-22.105292
-33.792517
-40.978744
-44.392621
-39.610300
-35.708073
-41.840940
-43.875449
-36.894453
-28.985825
-27.840515
-27.244874
-18.982442
-14.013348
-15.400775
-14.435225
-8.840610
-7.047179
-12.441006
-14.132882
-8.278239
-0.849922
4.757162
9.520520
11.443575
6.661241
0.619032
-2.484682
-7.908383
-14.528835
-19.654063
-20.345052
-12.211985
-3.904094
3.946346
12.168514
11.348939
7.282526
-1.069799
-21.389113
-41.726610
-51.254644
-49.923860
-38.108322
-18.386489
0.462265
15.120962
26.263441
33.745270
37.425396
30.879497
20.818419
15.737871
14.586833
18.546728
25.109499
36.946337
48.478208
50.255533
45.580223
38.310092
33.360987
27.621667
20.618577
25.460125
42.608698
58.436351
65.648281
72.577584
82.533442
82.735275
71.472511
52.847144
30.473846
16.597556
12.913521
13.522670
15.989160
21.506883
31.233887
39.286945
42.949407
39.182765
26.245536
9.302946
-5.526692
-10.073416
-5.768549
0.989307
10.511873
18.611949
22.387670
25.771140
24.310199
10.406633
-16.766657
-50.319327
-77.073092
-90.406207
-94.432617
-97.313969
-99.218335
-95.782131
-85.222052
-66.150677
-43.563863
-26.108504
-13.385598
0.990212
11.207917
9.669305
-1.366682
-11.020444
-6.869879
3.306003
6.083695
0.720780
-7.435940
-13.447756
-15.217821
-12.671323
-12.137766
-18.438703
-26.414624
-32.608278
-38.504757
-40.907097
-37.409329
-30.504184
-23.867121
-22.496851
-27.802878
-35.955441
-44.586237
-54.045173
-61.254779
-63.033936
-58.076791
-48.841529
-36.936371
-20.739069
-12.296358
-17.333784
-23.807727
-28.531873
-35.934487
-45.421218
-49.280856
-41.347291
-27.819363
-23.655290
-30.815020
-35.127694
-31.037395
-20.274437
-4.656417
13.548632
31.020356
41.376777
47.197650
46.814485
31.800412
11.776715
2.977849
8.539214
19.910808
30.450625
43.859578
61.374424
67.661320
56.732617
40.635572
17.442706
-10.892267
-33.076714
-46.661284
-50.520922
-48.166912
-36.321761
-13.833659
3.591827
5.587097
0.452518
4.238369
11.625123
10.472266
3.177457
-6.859203
-15.724050
-21.319977
-21.645213
-17.916511
-10.697048
2.741000
13.898025
16.794171
13.320028
4.185283
-8.825980
-20.829343
-25.873263
-26.488920
-26.299036
-27.083542
-31.492849
-34.858669
-33.841165
-29.029490
-25.214025
-26.153873
-26.586653
-22.103584
-11.559871
-1.026808
6.613480
18.452916
27.568685
20.119573
0.976489
-19.097084
-33.306396
-35.711334
-29.725509
-16.662566
-0.722173
4.908549
3.369677
-0.124727
-9.525216
-15.340127
-6.082784
13.033011
28.023432
31.115702
25.970992
16.719091
10.983149
15.743129
21.680378
20.287496
18.213502
20.479971
19.841195
15.348502
11.119733
3.644385
-6.052758
-13.968933
-19.867490
-23.186291
-20.453280
-10.204143
1.077571
7.704244
12.291739
16.375025
16.981056
14.384669
9.048250
3.076699
2.104381
3.320867
-2.268046
-12.355881
-13.582771
-7.065720
-7.832042
-11.140973
-2.634359
9.092597
11.708973
7.280962
-2.452808
-14.180557
-17.027880
-12.959921
-13.717671
-9.895972
3.921597
14.719883
18.008019
12.841228
3.704404
-3.993306
-8.451969
-3.882398
3.243809
0.316218
-11.215667
-19.438887
-17.458423
-14.154701
-18.538291
-24.032130
-19.525682
-4.570850
5.867917
2.939027
-1.575226
-2.819002
-10.614124
-20.380885
-16.333188
-1.467196
7.075785
6.552346
10.551986
18.497241
17.461799
8.620072
0.394254
-5.548723
-13.660243
-18.692214
-10.653962
1.454853
9.698322
20.521546
26.836497
18.546517
5.884123
-0.958171
-2.747719
-6.453055
-16.195398
-20.032957
-13.751775
-6.175390
0.835479
0.853916
-1.290734
2.114037
-1.195153
-7.958477
-8.148894
-3.665826
4.053431
13.606130
25.183720
32.074317
29.883428
28.746417
31.270056
30.830781
25.069642
13.187071
3.082092
4.414955
8.901659
5.417905
-1.829886
-5.755246
-6.530920
-3.951171
6.844777
16.935715
7.992678
-4.209927
0.673703
13.962125
26.406560
37.241733
51.829774
59.530587
53.660605
45.941335
42.742805
42.271320
34.582442
32.181141
34.437738
17.523203
-9.870890
-25.093037
-25.219031
-25.195399
-20.042909
-17.078444
-21.836360
-14.208801
-7.805528
-0.238495
5.347028
-1.356550
-6.243571
-14.691750
-16.956153
-16.849395
-18.924688
-15.217806
-12.946662
-6.707563
-6.327789
-10.111315
-4.471501
7.553150
18.829149
25.335290
37.911947
41.349190
28.424690
22.596270
17.212833
3.433697
-3.398466
1.468279
-0.938477
-15.022062
-24.033937
-18.926647
