EVENT_NAME: 202302060117
EVENT_ID: 13194
EVENT_DATE_YYYYMMDD: 2023/02/06
EVENT_TIME_HHMMSS: 01:17:32.00000
EVENT_LATITUDE_DEGREE: 37.288
EVENT_LONGITUDE_DEGREE: 37.043
EVENT_DEPTH_KM: 8.6
HYPOCENTER_REFERENCE: AFAD
MAGNITUDE_W: 7.7
MAGNITUDE_W_REFERENCE: AFAD
MAGNITUDE_L: 
MAGNITUDE_L_REFERENCE: 
FOCAL_MECHANISM: 
NETWORK: TK
STATION_CODE: 3803
STATION_NAME: 
STATION_LATITUDE_DEGREE: 38.39485
STATION_LONGITUDE_DEGREE: 35.479116
STATION_ELEVATION_M: 1271.0
LOCATION: Kahramanmaras_Pazarck_Turkiye
SENSOR_DEPTH_M: 
VS30_M/S: 499
SITE_CLASSIFICATION_EC8: C
MORPHOLOGIC_CLASSIFICATION: 
EPICENTRAL_DISTANCE_KM: 184.40
EARTHQUAKE_BACKAZIMUTH_DEGREE: 
DATE_TIME_FIRST_SAMPLE_YYYYMMDD_HHMMSS: 2023/02/06 01:17:43.8056830
DATE_TIME_FIRST_SAMPLE_PRECISION: millisecond
SAMPLING_INTERVAL_S: 0.01
NDATA: 13501
DURATION_S: 
STREAM: HNE
UNITS: cm/s^2
INSTRUMENT: sensor = ACEBOX/SARA | digitizer = 
INSTRUMENT_ANALOG/DIGITAL: 
INSTRUMENTAL_FREQUENCY_HZ: 
INSTRUMENTAL_DAMPING: 
FULL_SCALE_G: 
N_BIT_DIGITAL_CONVERTER: 
PGA_CM/S^2: 24.509
TIME_PGA_S: 
BASELINE_CORRECTION: BASELINE REMOVED
FILTER_TYPE: BUTTERWORTH
FILTER_ORDER: 
LOW_CUT_FREQUENCY_HZ: 
HIGH_CUT_FREQUENCY_HZ: 
LATE/NORMAL_TRIGGERED: 
DATABASE_VERSION: 
HEADER_FORMAT: DYNA 1.2
DATA_TYPE: Acceleration
PROCESSING: Automatic Paolucci et al., 2011
DATA_TIMESTAMP_YYYYMMDD_HHMMSS: 
DATA_LICENSE: U (unknown license)
DATA_CITATION: Turkish Accelerometric Archive v 1.0 - Disaster And Emergency Management Presidency, Earthquake Department
DATA_CREATOR: AFAD
ORIGINAL_DATA_MEDIATOR_CITATION: : AFAD - Disaster And Emergency Management Presidency
ORIGINAL_DATA_MEDIATOR: AFAD PROCESS SERVICE
ORIGINAL_DATA_CREATOR_CITATION: AFAD PROCESS SERVICE
ORIGINAL_DATA_CREATOR: network: TK
USER1: GuestUser
USER2: 
USER3: 
USER4: 
USER5: 
[...]
2.624363
1.313234
0.453099
0.067339
0.259059
0.973549
1.686636
2.093916
2.585831
3.115855
3.613382
4.318754
5.037218
5.848267
6.867394
7.706732
8.176203
8.173637
7.750469
7.186789
6.453139
5.607033
4.902139
4.295207
3.735970
3.367043
3.218120
3.129750
2.941082
2.565843
2.039571
1.528262
1.126136
0.885798
0.731731
0.421955
0.076409
-0.153642
-0.553898
-1.270948
-2.318121
-3.743577
-5.322638
-6.752069
-7.809996
-8.429085
-8.794505
-8.980368
-8.885909
-8.512295
-7.954683
-7.379302
-6.966411
-6.666209
-6.350811
-6.127529
-5.998234
-5.708553
-5.269710
-4.943791
-4.824315
-4.898423
-4.910809
-4.311581
-3.265800
-2.466675
-1.788658
-1.044242
-0.438234
0.276958
1.092916
1.653567
1.824479
1.565671
1.332581
1.452758
1.658038
1.864019
2.178481
2.874268
4.108255
5.678443
7.393352
8.874697
9.882369
10.560620
11.016063
11.343852
11.395060
10.974931
10.308615
9.677134
9.110649
8.423758
7.635166
6.972590
6.447720
6.143556
6.115038
6.117849
6.109204
6.182155
6.138908
5.800843
5.315251
4.794824
4.197010
3.658113
3.242895
2.684359
1.906988
1.134294
0.527362
0.292401
0.604293
1.339357
2.255380
3.236633
4.228406
4.997605
5.361165
5.401852
5.283088
5.278885
5.422209
5.517837
5.552913
5.379675
4.870470
4.143132
3.684895
3.856274
4.222406
4.767393
5.444008
5.887761
6.555258
7.036886
7.178339
7.996635
8.912658
9.407612
9.840610
9.974582
9.998435
10.066709
10.097810
10.135223
10.001029
9.771679
9.428237
9.003667
8.575356
7.924002
7.356582
6.904190
6.089879
5.003897
3.709834
2.354985
1.381693
0.679371
0.059113
-0.351664
-0.588962
-0.647640
-0.394198
0.105432
0.696010
1.307629
1.880438
2.196070
1.959005
1.104248
-0.327988
-2.032131
-3.346300
-4.272365
-5.101171
-5.252666
-4.537241
-3.814568
-3.504547
-3.424817
-3.646685
-4.222288
-4.765861
-4.951724
-4.683085
-3.962984
-3.238207
-2.858748
-2.550832
-2.241746
-2.176044
-2.287793
-2.329637
-2.269312
-2.242186
-2.414021
-3.102782
-4.575466
-6.749541
-9.308914
-11.895641
-14.084679
-15.395575
-15.811261
-15.723581
-15.212261
-14.119020
-12.521244
-10.690839
-8.680645
-6.688453
-5.168297
-4.107086
-3.570515
-3.534739
-3.674544
-4.101686
-4.546363
-4.829252
-4.918323
-4.348086
-3.695786
-2.966567
-1.482884
-0.137842
0.826343
1.913974
2.772015
3.119210
2.800784
1.879628
0.482227
-1.234307
-2.840722
-4.316912
-5.516988
-6.266537
-6.821332
-7.174828
-7.536273
-8.152323
-8.725121
-9.041910
-8.882455
-8.015529
-6.438795
-4.280373
-1.921353
0.524874
3.302858
6.330071
9.363129
12.365091
15.328711
17.971561
19.954401
21.071490
21.026840
19.950209
18.304750
16.349509
14.214244
11.735297
9.115605
6.569558
4.215459
2.971897
2.448430
1.984816
2.572822
3.648295
4.377046
5.402954
6.181739
6.307060
6.625731
7.336480
8.097028
8.865058
9.563182
9.873203
9.948024
9.925819
9.424095
8.496160
7.247220
5.799085
4.786048
4.103365
3.252582
2.556807
2.045265
1.323772
0.538452
-0.361895
-1.544670
-2.641875
-3.653978
-4.752118
-5.680755
-6.430070
-7.007076
-7.290900
-7.496636
-7.581265
-7.137278
-6.202551
-5.103698
-3.997364
-3.132776
-2.743732
-2.667976
-2.789545
-3.231650
-4.018372
-5.156492
-6.477207
-7.706507
-8.946095
-10.218882
-11.341337
-12.266467
-12.812845
-12.889291
-12.609431
-11.959001
-11.007674
-9.751476
-7.927150
-5.594082
-3.064857
-0.326151
2.610582
5.427378
7.985359
10.199425
11.919243
13.130552
13.659875
13.362257
12.316487
10.867651
9.746365
9.254929
9.368560
10.357294
12.100492
14.289074
16.819935
19.237404
21.054950
22.152400
22.420804
21.877699
20.860687
19.540907
17.820164
15.612656
13.005588
10.365088
7.900870
5.773788
4.202209
2.799431
1.256608
-0.200878
-1.517151
-2.583963
-3.266411
-3.786605
-4.329476
-4.918406
-5.748848
-7.037767
-8.669433
-10.451430
-12.255871
-13.906007
-15.248465
-16.053891
-16.193696
-15.719316
-14.575574
-12.794735
-10.723052
-8.613026
-6.411585
-4.425004
-3.097731
-2.252782
-1.729071
-1.508361
-1.536411
-2.110611
-3.286372
-4.903776
-7.047691
-9.500219
-11.907624
-14.067204
-15.624054
-16.342741
-16.383650
-15.969823
-15.195481
-14.193187
-13.190658
-12.470791
-12.147678
-12.111901
-12.377723
-12.913581
-13.543892
-14.135862
-14.376199
-13.950917
-12.610318
-10.140945
-6.815875
-3.058280
0.947374
4.848989
8.101348
10.504790
12.274407
13.384014
13.513310
12.406519
10.084684
7.207347
4.482913
2.179548
0.554195
-0.538568
-1.401508
-1.809011
-1.738633
-1.319195
-0.271076
1.531740
3.895670
6.693294
9.795322
12.791673
15.409974
17.506907
18.867613
19.866634
20.186241
19.356032
18.479532
17.212824
15.043659
13.495459
12.257274
10.699956
9.436054
7.982074
6.606650
6.031982
5.797957
5.822044
6.472941
7.550050
8.484310
9.201138
9.717368
10.062458
10.880754
12.077568
13.187643
14.487094
15.671049
16.254612
16.443526
16.139128
15.141754
13.917831
12.826939
11.719680
10.675080
9.790397
8.732703
7.260020
5.312962
2.869319
0.082461
-2.829946
-5.545028
-7.691515
-9.155314
-9.955597
-10.237551
-10.339714
-10.524876
-10.922794
-11.553573
-12.335853
-13.135902
-13.800815
-14.217437
-14.206910
-13.689511
-12.748705
-11.424004
-9.906421
-8.508074
-7.436809
-6.567779
-5.567823
-4.523445
-3.425761
-2.168160
-1.155344
-0.265506
0.549283
0.704530
0.736566
0.914491
0.401779
-0.636509
-1.901113
-3.329141
-4.450427
-5.504379
-6.464579
-6.909957
-7.138839
-7.179281
-7.063311
-6.958799
-6.673794
-6.456123
-6.396733
-6.172282
-5.733907
-5.104986
-4.384184
-3.467459
-2.313664
-1.253388
-0.184695
1.010716
2.156095
3.361793
4.572167
5.429507
5.696275
5.293448
4.345640
3.236745
2.399990
1.993188
1.920483
2.004656
2.218819
2.476002
2.440704
2.183299
1.204396
-1.345626
-4.097414
-5.733288
-6.919803
-7.714942
-8.142552
-8.772396
-9.368339
-9.793611
-9.981345
-9.605861
-8.781720
-7.576723
-6.132084
-4.841751
-3.526402
-1.847031
0.014001
1.681682
2.940920
3.882193
4.487500
4.599027
4.294862
3.601893
2.927627
2.574131
2.003204
1.172996
0.108756
-1.146262
-1.743375
-1.875465
-2.090786
-2.307745
-2.927769
-3.612088
-3.744879
-3.653927
-3.249452
-2.340910
-1.357553
-0.476366
0.475429
1.296530
1.607252
1.611934
1.371362
0.626723
-0.098276
-0.348200
-0.371574
-0.200195
-0.029751
-0.329941
-1.156409
-2.603609
-4.739341
-7.121028
-9.357761
-11.097675
-11.940274
-11.958037
-11.252431
-9.768982
-7.817003
-5.730591
-3.352399
-0.575818
2.139743
4.564227
6.646431
8.235790
9.482403
10.140548
10.538008
10.979423
10.275933
9.390315
9.668539
9.614304
9.413010
9.890663
10.099450
10.304963
10.894372
11.217017
11.213048
10.988141
10.201887
8.938452
7.807112
6.825169
5.886479
5.239801
4.668874
4.031548
3.448697
2.781212
1.992619
0.959475
-0.626600
-2.564073
-4.355889
-5.886554
-7.112348
-7.950739
-8.516523
-8.814843
-8.931970
-9.018235
-8.944116
-8.805702
-8.682252
-8.315418
-7.679250
-6.792919
-5.728435
-4.855430
-4.365151
-4.254092
-4.348073
-4.389683
-4.528320
-5.008534
-5.836638
-7.010061
-8.406526
-9.746179
-10.932928
-11.995531
-12.797684
-13.311331
-13.590479
-13.437336
-12.832965
-11.927229
-10.633857
-9.011298
-7.339876
-5.621694
-3.633243
-1.455416
0.656247
2.574793
3.912119
4.375744
4.328757
4.062234
3.591371
3.081465
2.576936
2.067030
1.741356
1.631945
1.466889
0.856918
-0.380098
-2.345626
-5.098115
-7.679465
-9.094401
-9.734766
-10.062077
-10.073293
-9.721890
-9.194672
-8.822461
-8.317453
-7.721499
-7.335026
-6.871634
-6.184498
-5.175891
-3.921096
-2.427126
-0.938065
0.107482
1.123804
1.736592
2.231780
3.267508
3.367111
3.358466
4.318210
4.684809
5.041590
5.929323
6.423810
6.702502
6.960854
6.886512
6.237262
5.627057
5.184017
4.455510
3.999377
3.444348
2.538156
1.995752
1.426695
0.931518
0.877516
0.731866
0.463005
-0.008792
-1.188060
-3.049081
-5.162369
-7.157589
-8.758160
-9.797850
-10.328331
-10.465330
-10.307278
-10.020403
-9.807876
-9.813014
-9.939726
-9.942526
-9.620815
-8.848110
-7.665791
-6.208294
-4.621974
-3.057163
-1.448866
0.214607
1.491614
2.084529
2.094588
1.505424
0.396530
-1.102105
-3.202067
-5.653893
-7.713641
-9.165751
-10.068670
-10.509840
-10.719083
-10.568278
-9.929304
-9.107501
-8.242446
-7.232202
-6.084018
-4.920170
-3.923253
-3.242430
-2.963971
-3.052809
-3.381288
-3.745773
-3.722621
-3.103287
-2.027580
-0.581304
0.870349
1.912622
2.594848
3.014053
3.213487
3.038846
2.195311
0.832045
-0.499191
-1.135582
-0.979633
-0.588017
-0.171385
0.352561
1.087391
2.169176
3.544845
5.168105
6.907562
8.716458
10.763124
12.936509
14.897840
16.490707
17.744099
18.255186
18.251451
18.409737
17.672580
16.303001
15.449647
13.719085
11.876768
11.452899
10.863736
10.179884
10.190177
10.006886
9.606630
9.449290
9.438307
9.126895
8.616755
8.363792
8.254147
8.597133
9.487672
10.416554
11.334916
11.880604
11.682116
10.995225
9.912983
8.572863
7.389854
6.498625
5.749544
5.156406
4.816470
4.681107
4.765514
5.114111
5.630107
6.140726
6.419652
6.270728
5.608386
4.483827
3.025873
1.305598
-0.462605
-1.963110
-3.170200
-4.118943
-4.755568
-5.185048
-5.380029
-5.216833
-4.833166
-4.234406
-3.381975
-2.573031
-1.856671
-1.025282
-0.206986
0.505868
1.252388
1.846005
1.897680
1.336104
0.271631
-1.172062
-2.776841
-4.363851
-5.782761
-6.906852
-7.848816
-8.720640
-9.418753
-9.954611
-10.505432
-11.085711
-11.604034
-12.080040
-12.455980
-12.545051
-12.372269
-12.077913
-11.638135
-11.101564
-10.594920
-10.174080
-10.045719
-10.337726
-10.781234
-11.018299
-10.829853
-10.220104
-9.348970
-8.315814
-7.218364
-6.157386
-5.180810
-4.271566
-3.364661
-2.656250
-2.356516
-2.384800
-2.791602
-3.475219
-4.125170
-4.748234
-5.289937
-5.743264
-6.259717
-6.809836
-7.337043
-7.671134
-7.879676
-8.121884
-8.446623
-8.964244
-9.319377
-9.752130
-10.312770
-10.438547
-11.147649
-11.856984
-11.331636
-11.542983
-12.424160
-11.972458
-10.740107
-9.880195
-9.217608
-7.565123
-5.255200
-3.263476
-0.760437
1.819054
3.823170
6.023909
8.005814
9.630711
11.108783
12.162980
13.474822
14.922734
16.014105
17.155977
17.897354
18.324039
18.761012
18.249469
17.138003
16.116314
14.644332
13.001444
11.685405
10.284498
8.433530
6.910347
6.288218
5.366361
4.156699
3.819803
3.764165
3.664339
4.036316
4.852274
6.014252
7.142797
7.953612
8.699898
9.417194
9.771636
9.762757
9.804613
9.839220
9.875231
10.190629
10.457397
10.746844
11.335083
11.871887
12.502678
13.423611
14.177379
14.412585
14.009524
12.953233
11.326478
9.330088
6.911227
3.926110
0.906156
-1.990353
-4.932920
-7.290759
-8.988122
-10.381314
-11.263659
-11.852355
-12.396630
-12.732357
-12.985788
-13.227061
-13.216534
-12.790083
-11.976462
-10.808172
-9.348102
-7.794280
-6.133613
-4.426419
-3.054491
-2.112049
-1.574544
-1.458341
-1.469324
-1.420220
-1.274325
-0.740093
0.270151
1.357781
2.202262
2.674071
2.630356
2.182406
1.460212
0.532978
-0.410155
-1.514374
-2.664650
-3.557049
-4.277840
-4.653781
-4.874714
-4.784228
-4.028590
-3.706412
-3.341916
-1.873664
-0.600632
0.589635
2.443887
4.004489
5.177222
6.101428
6.219735
5.656757
4.930822
4.169116
3.534129
3.500234
3.883900
4.282297
4.811152
5.155073
5.174718
5.212131
4.964077
4.301034
3.681477
3.225110
3.007684
3.204080
3.729194
4.586300
5.704558
6.771848
7.737904
8.500790
8.664922
8.275655
7.684387
6.863297
5.741076
4.514814
3.426728
2.829147
2.864223
3.202533
3.628751
4.047955
4.262353
4.272412
4.087016
3.679279
3.170542
2.520591
1.602475
0.481890
-0.759334
-2.130783
-3.551096
-4.761225
-5.560806
-5.964568
-6.131260
-6.252829
-6.377204
-6.386316
-6.190856
-5.834076
-5.414404
-5.041492
-4.781971
-4.538349
-4.359488
-4.445754
-4.679312
-5.041926
-5.728115
-6.570013
-7.499820
-8.675347
-9.894594
-11.017984
-12.182055
-13.272947
-14.112274
-14.815998
-15.503590
-16.118705
-16.544444
-16.598446
-16.069357
-14.917199
-13.401719
-11.900034
-10.619053
-9.539605
-8.526322
-7.543433
-6.675104
-5.969499
-5.465192
-5.101398
-4.771739
-4.526480
-4.415420
-4.511272
-4.920645
-5.564049
-6.295362
-6.978278
-7.487483
-7.796323
-7.838635
-7.535394
-6.933595
-6.134937
-5.204185
-4.101825
-2.771747
-1.254163
0.436664
2.308451
4.314203
6.373962
8.429514
10.489507
12.478893
14.386217
16.316219
18.123478
19.809162
21.445280
22.655421
23.327593
23.628964
23.408265
22.768601
22.147173
21.491144
20.814774
20.369863
19.375763
17.675829
16.375688
15.094251
13.420268
12.187460
11.264668
10.313119
9.583209
9.122167
8.920405
8.982134
9.288881
9.401109
8.895879
7.901311
6.304715
4.276062
2.417146
0.793195
-0.538976
-1.544532
-2.455167
-3.167775
-3.844145
-4.932934
-6.300408
-7.801615
-9.484014
-11.058166
-12.391506
-13.736536
-15.244523
-16.979994
-18.906244
-20.679123
-22.024621
-22.954193
-23.427393
-23.458249
-23.161087
-22.498266
-21.539458
-20.500691
-19.492786
-18.685244
-18.164338
-17.753551
-17.331541
-16.842899
-16.182650
-15.374641
-14.522912
-13.676561
-12.896841
-12.142372
-11.244351
-10.126560
-8.727746
-7.054921
-5.348429
-3.728676
-2.152877
-0.729513
0.469872
1.559373
2.566811
3.408253
4.162255
4.981486
5.931644
7.149032
8.756394
10.709074
12.838505
14.905980
16.752750
18.259111
19.382045
20.274455
21.060955
21.850727
22.715783
23.534079
24.184509
24.509025
24.387222
23.701500
22.118231
19.803410
17.114279
14.004547
11.200388
9.452058
8.253853
7.118773
6.083290
5.109063
4.009520
2.991104
2.325957
1.427713
0.498842
0.334255
0.225311
-0.036303
0.120113
0.163138
-0.158094
-0.534035
-1.063580
-1.815233
-2.653858
-3.450633
-4.186388
-4.809919
-5.326138
-5.872750
-6.332624
-6.623228
-6.832004
-6.844156
-6.657814
-6.409983
-6.099728
-5.875511
-5.812614
-5.705529
-5.573428
-5.446938
-5.102316
-4.560368
-4.029642
-3.665147
-3.631708
-3.905947
-4.341973
-4.884845
-5.483360
-6.152249
-6.843348
-7.376400
-7.826688
-8.278145
-8.599610
-8.850002
-9.070934
-9.089165
-8.840633
-8.426105
-7.896548
-7.179253
-6.320276
-5.358896
-4.192943
-2.939784
-1.792068
-0.832559
-0.156411
0.310020
0.725016
1.101435
1.416833
1.709085
2.049032
2.548896
3.288870
4.257498
5.500603
7.013745
8.556579
9.910738
11.035075
11.848929
12.068937
11.594802
10.893416
10.459026
10.333950
10.514681
11.088893
11.937349
12.992014
14.327236
15.898125
17.623321
19.094846
19.812843
19.851893
19.247065
17.874915
15.833403
13.287590
10.632827
7.903951
4.720340
1.465186
-1.192382
-3.342610
-5.374770
-7.279745
-8.808539
-9.882832
-10.541433
-10.849339
-10.904509
-10.839976
-10.819162
-10.908000
-11.031673
-11.023484
-10.890214
-10.916394
-11.134287
-11.254687
-11.263332
-11.403605
-11.719693
-12.173254
-12.733661
-13.135553
-13.176929
-12.894029
-12.331273
-11.638760
-10.989967
-10.409910
-9.903734
-9.414858
-8.885068
-8.416533
-8.134334
-8.113520
-8.321828
-8.618979
-9.001933
-9.394707
-9.556956
-9.517439
-9.223550
-8.417178
-7.261279
-6.064932
-4.927035
-4.005869
-3.412953
-3.014089
-2.611017
-2.162822
-1.723044
-1.276953
-0.783635
-0.235843
0.381154
1.018491
1.511575
1.782084
1.913016
1.992980
2.170672
2.716828
3.735488
4.938848
6.005203
6.870492
7.420389
7.426941
6.861391
5.883423
4.684282
3.433472
2.278052
1.309669
0.543755
-0.004026
-0.362198
-0.675013
-1.067553
-1.615802
-2.301290
-2.926692
-3.337936
-3.565415
-3.686984
-3.760157
-3.818835
-3.946015
-4.260467
-4.822042
-5.639158
-6.577147
-7.398939
-7.951162
-8.153625
-8.046306
-7.808061
-7.526096
-7.160432
-6.711302
-6.235051
-5.809534
-5.514243
-5.355021
-5.222686
-5.008523
-4.637013
-4.016276
-3.149116
-2.038106
-0.628770
1.012258
2.725530
4.320267
5.732876
6.975280
7.974301
8.716146
9.123192
9.121561
8.696991
8.079070
7.501831
6.374933
4.853153
3.783302
2.657808
1.500517
0.949696
0.597135
0.418987
0.623098
1.068487
1.755857
2.531134
3.335636
4.222201
5.359163
6.860848
8.461430
10.146880
11.745825
12.983553
14.001746
14.553513
14.749909
14.993765
15.030009
14.946783
14.732396
14.239090
13.633560
12.787454
12.066195
11.289058
9.922986
8.724080
7.641604
6.419317
5.424983
4.225609
2.993503
2.131966
1.482482
1.009984
0.550811
0.309538
0.164823
-0.220469
-0.435557
-0.565309
-0.728727
-0.667233
-0.593581
-0.477145
-0.270930
-0.253857
-0.360931
-0.564796
-0.911512
-1.167748
-1.395227
-1.816524
-2.247875
-2.703774
-3.420123
-4.271373
-5.161668
-6.087499
-7.041386
-8.062140
-9.085698
-10.168408
-11.303021
-12.425476
-13.420511
-14.091504
-14.488018
-14.228731
-13.221293
-11.759587
-9.669200
-7.431755
-4.972436
-2.335431
-0.051460
2.660360
4.503857
5.511295
7.779368
8.428629
7.335866
7.870800
8.376041
8.015999
7.515445
6.493756
6.006528
5.933355
5.564429
5.461564
5.692327
5.974292
6.317980
7.244290
8.485993
9.337956
10.386075
11.522101
12.383884
13.803974
15.469551
16.693953
17.953424
18.840925
18.877169
18.907802
18.627952
17.721759
17.405671
16.787751
15.032406
13.900132
13.126970
11.867743
10.914090
9.829042
8.506223
7.481729
6.203097
4.625439
3.112309
1.582345
0.067344
-1.142785
-1.962005
-2.631127
-2.881986
-2.627842
-2.423732
-2.137792
-1.686324
-1.441299
-1.239526
-1.082876
-1.088950
-0.998698
-0.952635
-1.087530
-1.248377
-1.580363
-2.039536
-2.443064
-3.049996
-3.907559
-4.689839
-5.413202
-6.232656
-7.136277
-8.186488
-9.310580
-10.376222
-11.465712
-12.528549
-13.435443
-14.173068
-14.766206
-15.408441
-16.168978
-16.787366
-17.178971
-17.506983
-17.765089
-17.864682
-17.846440
-17.748473
-17.620580
-17.522146
-17.387006
-17.141279
-16.759716
-16.162359
-15.285847
-14.199386
-13.035070
-11.806927
-10.460717
-9.160798
-8.092573
-7.173510
-6.434238
-6.001006
-5.750604
-5.430997
-4.842524
-4.025163
-3.056301
-2.076451
-1.276859
-0.517480
0.055796
0.284456
0.328181
0.105378
-0.223569
-0.721785
-1.213455
-1.263716
-1.757958
-2.438536
-2.383121
-2.601014
-3.021376
-2.882962
-2.708310
-2.541607
-2.185528
-1.771935
-1.317662
-0.773376
-0.173213
0.352837
1.029685
1.905963
2.854952
3.984666
5.105729
6.324286
7.794643
9.171948
10.484024
11.830702
13.077081
14.117718
14.942326
15.445230
15.517713
15.706159
15.817452
15.604702
15.795486
15.390555
14.377985
14.271379
13.815480
12.810391
12.454557
11.788942
10.768189
10.016770
9.181652
8.410126
7.897181
7.479624
7.043364
6.710209
6.454908
6.089722
5.942903
5.980550
5.886335
5.937309
6.109389
6.247569
6.606921
7.078729
7.496764
8.059520
8.607079
8.916164
9.117703
9.120748
8.882281
8.609679
8.269275
7.729209
7.008886
6.360571
5.998425
5.727226
5.447610
5.298687
5.249595
5.297295
5.452776
5.550275
5.518484
5.350857
4.974683
4.450281
3.828386
3.041664
2.122612
1.017692
-0.333650
-1.687097
-2.939777
-4.161362
-5.210639
-6.089945
-6.935350
-7.682327
-8.332745
-8.971941
-9.530945
-9.911094
-10.110283
-10.158440
-10.050654
-9.835789
-9.649447
-9.552649
-9.584440
-9.781525
-9.976273
-9.981878
-9.770052
-9.222961
-8.271401
-7.151740
-6.019220
-4.835499
-3.745297
-2.911570
-2.283118
