EVENT_NAME: 202302060117
EVENT_ID: 13194
EVENT_DATE_YYYYMMDD: 2023/02/06
EVENT_TIME_HHMMSS: 01:17:32.00000
EVENT_LATITUDE_DEGREE: 37.288
EVENT_LONGITUDE_DEGREE: 37.043
EVENT_DEPTH_KM: 8.6
HYPOCENTER_REFERENCE: AFAD
MAGNITUDE_W: 7.7
MAGNITUDE_W_REFERENCE: AFAD
MAGNITUDE_L: 
MAGNITUDE_L_REFERENCE: 
FOCAL_MECHANISM: 
NETWORK: TK
STATION_CODE: 0217
STATION_NAME: 
STATION_LATITUDE_DEGREE: 38.029958
STATION_LONGITUDE_DEGREE: 38.556268
STATION_ELEVATION_M: 798.0
LOCATION: Kahramanmaras_Pazarck_Turkiye
SENSOR_DEPTH_M: 
VS30_M/S: None
SITE_CLASSIFICATION_EC8: unknown
MORPHOLOGIC_CLASSIFICATION: 
EPICENTRAL_DISTANCE_KM: 156.69
EARTHQUAKE_BACKAZIMUTH_DEGREE: 
DATE_TIME_FIRST_SAMPLE_YYYYMMDD_HHMMSS: 2023/02/06 01:17:39.0367100
DATE_TIME_FIRST_SAMPLE_PRECISION: millisecond
SAMPLING_INTERVAL_S: 0.01
NDATA: 4032
DURATION_S: 
STREAM: HNE
UNITS: cm/s^2
INSTRUMENT: sensor = ACEBOX/SARA | digitizer = 
INSTRUMENT_ANALOG/DIGITAL: 
INSTRUMENTAL_FREQUENCY_HZ: 
INSTRUMENTAL_DAMPING: 
FULL_SCALE_G: 
N_BIT_DIGITAL_CONVERTER: 
PGA_CM/S^2: 17.900
TIME_PGA_S: 
BASELINE_CORRECTION: BASELINE REMOVED
FILTER_TYPE: BUTTERWORTH
FILTER_ORDER: 
LOW_CUT_FREQUENCY_HZ: 
HIGH_CUT_FREQUENCY_HZ: 
LATE/NORMAL_TRIGGERED: 
DATABASE_VERSION: 
HEADER_FORMAT: DYNA 1.2
DATA_TYPE: Acceleration
PROCESSING: Automatic Paolucci et al., 2011
DATA_TIMESTAMP_YYYYMMDD_HHMMSS: 
DATA_LICENSE: U (unknown license)
DATA_CITATION: Turkish Accelerometric Archive v 1.0 - Disaster And Emergency Management Presidency, Earthquake Department
DATA_CREATOR: AFAD
ORIGINAL_DATA_MEDIATOR_CITATION: : AFAD - Disaster And Emergency Management Presidency
ORIGINAL_DATA_MEDIATOR: AFAD PROCESS SERVICE
ORIGINAL_DATA_CREATOR_CITATION: AFAD PROCESS SERVICE
ORIGINAL_DATA_CREATOR: network: TK
USER1: GuestUser
USER2: 
USER3: 
USER4: 
USER5: 
[...]
-0.088917
-0.071159
-0.037970
-0.023018
-0.036822
-0.037066
-0.005047
0.037260
0.061799
0.054307
0.040736
0.050078
0.068069
0.073203
0.070620
0.056582
0.014722
-0.007967
0.049069
0.119432
0.102354
0.024256
-0.018773
0.003894
0.060463
0.105575
0.109072
0.096436
0.088009
0.070230
0.061336
0.049869
0.005905
-0.039930
-0.063086
-0.059823
-0.028037
0.012633
0.042548
0.048383
0.028734
-0.016867
-0.076964
-0.130280
-0.188506
-0.249771
-0.284383
-0.294915
-0.287677
-0.275998
-0.275073
-0.283500
-0.316242
-0.355063
-0.355775
-0.338017
-0.334286
-0.314190
-0.244763
-0.154528
-0.094686
-0.070849
-0.052857
-0.030423
-0.010327
0.011874
0.027528
0.020269
0.013245
0.026093
0.038241
0.043841
0.038220
0.002906
-0.062802
-0.124067
-0.118934
-0.053949
-0.007901
0.019677
0.057308
0.087223
0.116204
0.130221
0.093037
0.035045
0.013525
0.020762
0.012803
-0.001469
0.008106
0.041295
0.103007
0.196983
0.326964
0.458815
0.515150
0.503216
0.494789
0.527276
0.581740
0.573781
0.478615
0.354926
0.198973
-0.000233
-0.181904
-0.313308
-0.401928
-0.441216
-0.431174
-0.396114
-0.351470
-0.300278
-0.261946
-0.240915
-0.197673
-0.085227
0.073979
0.209805
0.328563
0.434697
0.450585
0.363134
0.205778
0.000026
-0.172293
-0.281954
-0.374081
-0.434878
-0.438863
-0.402869
-0.352847
-0.294876
-0.203238
-0.078400
0.076363
0.289108
0.504659
0.621313
0.619666
0.525903
0.390290
0.281564
0.218896
0.186856
0.172817
0.181925
0.247144
0.338548
0.362619
0.295743
0.217878
0.222309
0.295244
0.338486
0.317200
0.247985
0.117750
-0.069766
-0.274817
-0.468879
-0.621325
-0.699424
-0.705980
-0.617382
-0.398090
-0.114505
0.161600
0.451965
0.775297
1.075716
1.268588
1.325156
1.244018
1.002028
0.629578
0.238191
-0.089837
-0.353337
-0.551373
-0.660567
-0.673904
-0.590683
-0.497174
-0.480585
-0.489246
-0.468682
-0.387331
-0.219709
-0.015848
0.192455
0.347452
0.341129
0.201776
0.048394
-0.066411
-0.152459
-0.242715
-0.348168
-0.393067
-0.264255
-0.020883
0.142297
0.183435
0.195348
0.236253
0.310356
0.382589
0.419051
0.394959
0.311249
0.214681
0.143596
0.087474
0.036028
0.054722
0.182598
0.336894
0.477162
0.607143
0.669323
0.620916
0.483199
0.343144
0.258032
0.161463
0.011121
-0.139221
-0.226438
-0.242347
-0.272517
-0.381009
-0.491372
-0.493487
-0.383846
-0.199157
0.033227
0.203421
0.223517
0.141678
0.033887
-0.022469
0.007681
0.030816
-0.016187
-0.011054
0.163816
0.406019
0.559848
0.583217
0.497637
0.396392
0.382821
0.484279
0.646056
0.763178
0.823487
0.888940
0.915817
0.809195
0.601806
0.388806
0.147517
-0.113411
-0.279651
-0.317771
-0.233380
-0.088203
0.018165
0.091099
0.129665
0.158646
0.240464
0.324387
0.404101
0.505559
0.546697
0.470469
0.290201
0.085384
-0.004405
0.051228
0.127670
0.130465
0.097489
0.121326
0.231668
0.364688
0.533012
0.779891
1.016250
1.189717
1.210982
0.940234
0.526403
0.186451
-0.021639
-0.081735
-0.114243
-0.232789
-0.356011
-0.373322
-0.301323
-0.189812
-0.000447
0.234275
0.400261
0.472260
0.472484
0.434832
0.360474
0.211301
-0.041444
-0.371109
-0.630868
-0.783314
-0.944177
-1.112989
-1.174255
-1.004061
-0.748531
-0.745502
-0.904027
-0.936769
-0.836948
-0.625138
-0.333837
-0.081346
0.127190
0.285928
0.315844
0.206416
-0.069475
-0.520480
-0.945066
-1.135388
-1.079053
-0.787986
-0.309179
0.128245
0.296335
0.201870
-0.033808
-0.332377
-0.585357
-0.651765
-0.490222
-0.215754
-0.023116
-0.081108
-0.450752
-0.961609
-1.341774
-1.514561
-1.526027
-1.390201
-1.070611
-0.509742
0.230450
0.958718
1.482881
1.798731
2.050754
2.226325
2.250630
2.114082
1.817616
1.537984
1.417101
1.327780
1.093738
0.656293
0.190559
-0.106608
-0.239415
-0.178171
-0.002366
-0.013832
-0.389555
-1.042795
-1.654185
-1.942468
-1.958610
-1.937345
-1.964008
-1.871669
-1.598136
-1.282520
-1.011560
-0.881111
-0.861249
-0.765870
-0.610405
-0.501232
-0.446067
-0.446077
-0.508979
-0.616302
-0.757059
-0.967019
-1.141910
-1.145427
-1.226565
-1.625434
-2.019159
-1.981060
-1.509969
-0.808588
-0.067227
0.457871
0.601412
0.491517
0.352397
0.206030
-0.022401
-0.142115
0.104530
0.509924
0.689470
0.583316
0.222556
-0.311447
-0.766661
-1.015431
-1.050979
-0.866757
-0.473988
0.174087
0.972027
1.671070
2.203416
2.587301
2.852651
3.022611
2.954098
2.607834
2.281442
2.199135
2.306671
2.495569
2.651969
2.660609
2.431477
1.994500
1.533909
0.965771
0.027532
-1.048647
-1.692067
-1.673608
-1.203452
-0.503473
0.272957
0.961246
1.470212
1.569799
1.184958
0.715249
0.429071
0.333204
0.450326
0.723390
0.939175
0.866687
0.481847
-0.178173
-1.029206
-1.829972
-2.502383
-3.016982
-3.262011
-3.320471
-3.284711
-3.006970
-2.260933
-1.112765
-0.020007
0.750578
1.427645
2.143288
2.609936
2.643827
2.352739
1.773145
1.004643
0.389044
-0.019176
-0.617006
-1.428995
-1.857555
-1.586361
-0.871653
-0.088443
0.357866
0.320214
0.223879
0.371161
0.436380
0.167269
-0.200972
-0.366979
-0.193044
0.262850
0.778597
1.131386
1.058899
0.553185
0.137249
0.136303
0.431111
1.115893
2.190883
3.076730
3.245287
2.617999
1.307555
-0.266379
-1.408723
-1.877029
-1.892938
-1.501338
-0.730518
0.147614
0.805509
1.039296
1.046299
1.075046
0.886127
0.391168
0.021758
0.018474
0.261613
0.622352
0.823173
0.401159
-0.818572
-2.592870
-4.478455
-5.795446
-5.972207
-5.031651
-3.351594
-1.489409
-0.024446
0.817214
0.939012
0.354040
-0.442517
-0.769844
-0.410508
0.155271
0.455222
0.647627
0.870192
0.764037
-0.024104
-1.232378
-2.021922
-1.837700
-1.044904
-0.616832
-0.973149
-1.321985
-1.016890
-0.495766
-0.105335
0.424906
1.124651
1.536358
1.319617
0.722489
0.233374
-0.231659
-1.098356
-2.209371
-3.034686
-3.313382
-3.145059
-2.919689
-2.733830
-2.129942
-0.937587
0.365589
1.210522
1.392406
1.031646
0.338193
-0.206331
0.050368
1.071584
2.200580
3.086662
3.524086
3.150467
2.323516
1.931895
2.100686
2.561490
3.309164
4.144978
4.666336
4.460116
3.415266
2.090560
0.914082
-0.220547
-1.241784
-1.948797
-2.344392
-2.609529
-3.108229
-3.790460
-4.129008
-4.159646
-4.291986
-4.294802
-3.630828
-2.316430
-0.942882
-0.076440
0.272375
0.545440
0.951068
1.309001
1.547932
1.693109
1.670421
1.487815
1.248863
0.933928
0.454166
-0.063940
-0.490396
-0.781250
-0.632332
-0.010208
0.590173
0.876564
0.920508
0.986194
1.199173
1.306242
1.187696
0.739263
-0.256490
-1.399302
-2.124317
-2.660191
-3.614562
-4.993742
-6.038827
-6.057073
-4.881551
-2.863190
-0.931333
0.235538
0.928737
1.785593
2.990574
4.158849
4.843163
4.916331
4.491511
3.906540
3.557938
3.457394
3.122586
2.268748
1.336588
0.754656
0.286350
-0.432119
-1.279411
-1.751692
-1.668471
-1.411304
-1.137070
-0.622493
-0.130126
-0.275792
-1.186677
-2.491978
-3.607201
-4.111044
-4.239643
-4.375958
-4.303491
-3.652376
-2.673711
-1.935390
-1.393458
-0.593648
0.508696
1.523365
1.993288
2.016891
2.095436
2.245290
2.210677
1.896443
1.615175
1.628491
1.234766
0.212828
-0.798590
-1.976003
-3.242026
-3.675029
-3.262855
-2.807662
-2.354339
-1.334994
-0.155263
0.329622
0.151458
-0.364543
-0.949982
-1.468321
-2.002090
-2.251796
-1.898773
-1.300730
-0.923859
-0.582525
-0.088055
0.297701
0.747984
1.381096
1.795375
2.100937
2.716749
3.780750
4.872572
5.193098
4.539391
3.143844
1.572249
0.572755
0.079666
-0.058051
0.197245
0.218043
-0.384463
-1.091944
-1.204645
-0.743139
-0.341486
-0.097178
0.298864
0.705193
0.793324
0.656308
0.438633
-0.137454
-0.886551
-1.242868
-1.372636
-1.549397
-1.545901
-1.284292
-1.108487
-1.166245
-1.223069
-1.064798
-0.422100
0.567086
1.602096
3.095582
5.008034
6.611405
7.466391
7.125037
5.369676
2.943552
1.226300
0.630341
0.253917
-0.328015
-0.833729
-1.051405
-1.168781
-1.649011
-2.316045
-2.923695
-3.565713
-3.821263
-3.464265
-2.887030
-2.323823
-1.567967
-0.429852
0.476569
0.568909
0.263793
-0.183004
-0.743193
-0.735488
-0.120144
0.149881
0.110593
0.616988
1.652231
2.674616
3.445903
3.625917
2.920072
1.894627
1.168676
0.587680
0.116100
-0.114434
-0.240695
-0.267826
-0.202841
-0.222257
-0.505863
-1.178275
-1.963376
-2.246281
-1.792491
-0.907111
0.173957
1.380808
2.319260
2.607287
2.497626
2.206304
1.319033
-0.282956
-1.965372
-3.048331
-3.154953
-2.507111
-1.843605
-1.598830
-1.907219
-2.741418
-3.440482
-3.293434
-2.468608
-1.558445
-1.027736
-1.222499
-1.841371
-2.065827
-1.864772
-1.812178
-1.738308
-1.150552
-0.336714
0.057925
-0.231527
-1.196886
-2.615110
-3.892823
-4.388717
-3.998053
-3.079707
-1.907692
-0.680968
0.339313
1.054722
1.360518
1.112917
0.376912
-0.754911
-1.726349
-1.677262
-0.937771
-0.543132
-0.852456
-1.617685
-2.118957
-1.959050
-1.732745
-1.900154
-2.013790
-1.533814
-0.698000
0.094095
0.878475
1.499196
1.782548
2.129726
2.894934
3.400394
2.632827
1.060062
-0.196609
-0.992933
-1.411206
-1.350663
-0.757296
0.255036
1.067471
1.468189
1.867972
2.222865
2.372953
2.209986
1.580126
1.049395
1.094274
1.344193
1.457808
1.207634
0.415986
-0.659258
-1.444827
-1.772153
-2.028406
-2.015323
-1.446037
-0.863893
-0.502920
-0.545248
-1.553626
-3.264097
-4.493180
-4.238585
-2.822018
-1.262367
0.016026
0.774454
0.910046
0.562379
-0.128502
-0.928099
-1.741023
-2.122356
-1.471241
0.000502
1.659283
2.856782
3.341200
3.140124
2.274362
1.424031
1.107459
1.337505
2.131003
2.911641
3.325452
3.492139
3.280776
2.865542
2.325226
1.252787
-0.544657
-2.551115
-3.809189
-3.879572
-3.033704
-2.036101
-1.305963
-0.401879
0.611154
1.237486
1.473377
1.571796
1.710427
1.464462
0.886037
0.964349
1.771406
2.714534
3.429476
3.712360
3.903362
4.016743
3.298507
1.710078
0.264266
-0.223446
0.109004
0.538011
0.644612
0.531210
0.089323
-0.802858
-1.533485
-1.616493
-1.460795
-1.648310
-1.915084
-1.534004
-0.767394
-0.150179
0.231367
-0.196726
-1.271502
-1.883594
-1.995827
-2.096136
-2.154596
-2.019939
-1.746875
-1.311321
-0.452360
0.266556
-0.017518
-0.871590
-1.351586
-1.048829
-0.217924
0.638231
1.338678
1.890896
2.429087
2.540598
1.429115
-0.331622
-1.355898
-1.120241
0.021147
1.318711
1.908337
1.299753
0.004038
-1.357140
-2.707564
-3.418084
-3.216561
-2.903050
-2.593512
-1.900782
-1.107518
-0.899683
-1.615113
-2.717711
-3.487616
-3.823125
-4.059271
-4.181557
-3.374499
-1.434928
0.746624
2.558542
3.633766
3.831782
3.465878
2.433185
0.831430
-0.180923
0.018730
0.760792
1.596373
2.348722
2.332112
1.273935
-0.383464
-2.189091
-3.826383
-5.098485
-5.662882
-5.039121
-2.975637
-0.088017
1.972661
2.512255
2.600386
2.983102
3.304563
3.364872
3.422610
3.228314
2.615988
2.140668
1.660438
0.659308
-0.477659
-1.164799
-1.400244
-1.537961
-1.621671
-1.783001
-2.282402
-2.420587
-1.527024
0.054838
1.400564
1.379512
0.138973
-0.865196
-1.121215
-1.350580
-1.499987
-0.719115
0.206011
-0.079934
-0.779700
-0.577943
0.519257
1.529952
1.501419
1.109798
1.834091
3.422733
4.425713
4.590296
4.533473
4.204276
3.448165
2.338787
0.685596
-1.629241
-4.170628
-5.823117
-5.666250
-4.101689
-2.746377
-2.608681
-2.357826
-0.424801
2.526411
4.981974
6.401113
7.439630
8.852924
10.533214
11.968251
12.652332
12.445411
11.414822
9.062577
5.209822
0.747089
-3.478105
-7.004948
-9.226032
-9.466152
-7.695850
-5.123389
-3.153891
-2.265004
-2.056935
-1.617173
-0.773409
0.017049
0.538407
0.506600
0.736178
2.521677
5.135053
6.568921
5.664349
3.429938
1.496191
0.062301
-0.654064
-0.037083
1.814113
3.806289
4.470964
4.085656
3.847172
2.844172
-0.718675
-5.804945
-8.972207
-9.088648
-8.349626
-8.430062
-8.869846
-8.773298
-8.363695
-8.188358
-7.991043
-7.508964
-6.359159
-3.750226
0.117238
3.931396
6.553890
7.749051
8.032169
8.361111
9.461818
10.472046
10.232861
8.764370
6.009760
2.569189
-0.563471
-3.518679
-5.905525
-7.576017
-9.671786
-12.138358
-13.410225
-12.370539
-9.859567
-7.116434
-3.529293
0.870761
4.045250
4.864699
4.204678
3.046436
1.400259
-0.259010
-0.653437
0.417578
1.920183
2.740099
2.197679
0.843281
-0.139379
-0.885904
-1.845886
-2.305542
-2.148207
-2.254829
-2.575843
-2.113636
-0.953544
-0.706197
-2.211394
-4.812633
-7.696533
-9.973962
-10.736152
-9.484178
-6.319743
-2.153486
2.276728
6.557546
9.717305
11.138081
11.005040
9.587517
7.432363
5.517319
4.880913
5.695686
6.759453
6.966821
6.081654
3.748814
-0.139245
-4.227668
-6.574769
-6.793380
-6.311768
-6.529444
-7.556525
-8.580100
-8.797776
-7.938581
-6.004387
-3.189946
-0.018029
3.377866
7.232471
11.199299
14.412598
16.018775
15.743585
13.986354
11.589454
9.746186
8.950564
8.857268
8.547710
6.917198
4.929677
3.875708
2.396930
-0.685230
-4.306292
-6.624636
-7.123336
-6.646166
-5.470878
-4.091017
-3.459775
-3.636068
-3.717674
-2.732229
-1.718261
-1.766433
-2.015438
-2.264910
-2.297184
-1.528703
-0.669275
-0.705290
-1.682105
-1.930642
-0.299449
2.180662
3.991177
3.199062
-0.310479
-3.792199
-5.305813
-4.629681
-2.529958
0.193068
3.027849
4.626545
4.453758
3.537730
2.330858
0.462106
-2.051926
-4.240747
-4.879024
-3.364729
-0.092279
2.893301
3.771667
3.971320
5.249245
6.559668
7.287235
7.980200
8.482386
8.783974
9.120164
10.058849
11.453907
11.821660
11.060406
9.308552
6.364801
3.713295
2.039296
0.766494
-0.821234
-3.093520
-5.063272
-6.654507
-7.311488
-6.085933
-5.093240
-4.841918
-4.266086
-3.576628
-2.023056
-0.504319
0.529755
2.617321
4.101923
3.211846
0.862875
-1.247156
-2.424569
-3.659731
-4.006462
-2.762671
-1.351715
0.420224
1.645077
0.518632
-2.563996
-6.854887
-10.785497
-13.141249
-14.997142
-16.587442
-16.712300
-15.716100
-14.918862
-14.422287
-14.242741
-13.990952
-12.153316
-9.340745
-7.203615
-5.293969
-2.806844
0.347304
3.319559
4.591405
3.596120
1.230315
-0.166868
-0.051149
-0.437860
-0.414724
1.885830
5.282894
8.580127
10.312554
8.853415
5.406531
2.571495
1.540907
1.595605
2.311248
3.555273
3.629843
1.561195
-2.466909
-8.282392
-14.289122
-17.900365
-17.505258
-13.183994
-6.298908
0.133545
3.516581
4.918653
5.499395
4.773912
3.507655
2.469585
1.764676
1.752040
1.907505
0.897257
-1.349779
-3.845809
-6.005405
-6.306312
-3.323771
1.918421
6.752870
8.291246
6.751914
5.100827
4.810908
5.581494
5.901552
5.207631
4.941559
4.987607
3.674357
0.438593
-3.778886
-7.582778
-10.106396
-11.056559
-10.526551
-8.854911
-6.878633
-4.497886
-0.557010
3.491413
5.002902
4.413723
3.578121
3.060717
3.528301
5.787240
7.952660
7.910098
6.003237
2.677461
-0.803089
-2.864023
-4.183819
-5.211602
-4.860215
-2.919942
-1.385073
-2.487204
-5.725073
-8.797647
-10.439616
-11.235706
-11.527495
-10.005251
-7.007280
-5.070747
-4.479484
-3.702119
-2.566576
-1.289352
0.297887
1.703232
2.146034
1.321420
-0.514600
-2.267155
-2.404638
-0.901799
0.687544
1.574794
1.312229
-1.157615
-5.156494
-7.878840
-7.850093
-6.221940
-4.168742
-1.948848
-0.069362
0.843840
0.331346
-1.445056
-3.382545
-4.018717
-2.758794
-1.167347
-0.480929
0.087890
0.430626
-0.270308
-1.541942
-1.901299
-0.553001
0.939317
1.328579
1.326231
1.257718
1.053135
0.583425
-0.121016
-0.462371
-0.135532
1.185412
2.886978
3.379812
2.825234
2.260604
1.976997
2.186001
2.932740
3.781179
4.143555
3.674547
2.231306
0.494182
-0.764593
-2.140266
-3.642658
-4.400873
-3.901960
-2.460143
-2.154113
-3.065932
-2.822560
-1.615007
-0.628627
-0.078279
0.081394
0.350485
0.531901
0.356075
-0.136313
-1.377319
-3.388921
-5.798446
-7.591915
-7.358830
-5.581513
-4.086858
-2.419660
1.322956
5.924310
8.468949
8.351104
6.784419
5.233397
4.297964
3.660622
3.062792
2.478055
1.924880
1.367731
0.970966
0.871124
0.748604
-0.240369
-2.288911
-3.549556
-3.139486
-2.378019
-1.469025
0.164272
2.504338
4.764680
5.649826
5.031655
3.320249
0.806684
-1.410893
-1.982304
-0.651073
1.027113
1.205023
-0.406786
-2.226908
-2.048531
-0.199907
0.900567
0.513622
-0.127461
0.203586
1.177808
0.993800
-1.043520
-3.371684
-4.469606
-4.430105
-3.754441
-2.510650
-1.356170
-1.648193
-3.623790
-5.702258
-6.419559
-6.029829
-5.262283
-4.236859
-3.198575
-2.556111
-2.692893
-3.426793
-3.820518
-3.703162
-3.314134
-2.997583
-3.538600
-4.372098
-4.520569
-4.019552
-3.269073
-3.084150
-3.060080
-2.160438
-0.994268
0.051029
1.244788
2.007190
1.966499
1.605272
0.530262
-2.066067
-4.862761
-6.778038
-8.604239
-9.510915
-8.400155
-6.930983
-6.695092
-6.689024
-5.342128
-2.896619
-0.016014
3.091141
5.502516
6.713809
7.087874
6.247363
3.510288
-0.279109
-3.585714
-5.911773
-6.746206
-5.890752
-4.153415
-2.201686
-1.318644
-1.917176
-2.043203
-0.614244
1.768841
4.344107
6.666639
8.605509
10.067667
11.079999
11.002134
9.440825
7.257382
4.365299
0.371564
-3.557409
-5.896795
-6.409991
-6.044108
-4.638997
-2.046430
0.042772
1.037102
0.930012
-0.752403
-2.371226
-2.481589
-1.925396
-1.002374
0.704803
2.582418
3.789035
4.651269
5.320387
4.565211
2.392757
0.923096
1.515061
3.652425
5.787217
7.071689
8.164681
9.210446
9.852676
10.687322
11.599589
11.164715
8.808262
5.752522
3.575157
2.477469
1.592068
0.442243
-0.348003
-0.305228
-0.237671
-1.024643
-2.856221
-4.903127
-5.890931
-5.556377
-3.594829
-0.196362
2.698739
4.149675
5.192634
6.582548
7.606570
7.573828
7.364101
7.913982
9.051863
9.725656
8.872052
6.961684
4.888593
2.851741
1.319891
0.319462
-0.701307
-1.656146
-2.676447
-3.999283
-5.008596
-5.890490
-7.267566
-8.409676
-8.402906
-6.958985
-4.589694
-2.597518
-1.799578
-1.750725
-1.032043
0.917816
3.115266
4.665799
5.140631
4.453724
3.285897
2.493547
1.427421
-0.940955
-3.002824
-3.091911
-2.162577
-0.894939
1.123656
3.581556
5.724766
7.251217
7.834765
7.481721
6.962914
6.188333
4.814530
3.494734
2.485187
1.862341
1.509530
0.261043
-1.793111
-3.233312
-4.215505
-4.685915
-3.552944
-1.680005
0.165113
2.743419
5.514373
7.427292
8.235051
7.955887
7.032144
6.042002
5.274201
4.999946
5.490443
6.376290
7.383712
8.429477
8.865498
0.000000
0.000000
0.000000
0.000000
0.000000
0.000000
0.000000
0.000000
0.000000
0.000000
0.000000
0.000000
0.000000
0.000000
0.000000
0.000000
0.000000
0.000000
0.000000
0.000000
0.000000
0.000000
0.000000
0.000000
0.000000
0.000000
0.000000
0.000000
0.000000
0.000000
0.000000
0.000000
0.000000
0.000000
0.000000
0.000000
0.000000
0.000000
0.000000
0.000000
0.000000
0.000000
0.000000
0.000000
0.000000
0.000000
0.000000
0.000000
0.000000
0.000000
0.000000
0.000000
0.000000
0.000000
0.000000
0.000000
0.000000
0.000000
0.000000
0.000000
0.000000
0.000000
0.000000
0.000000
0.000000
0.000000
0.000000
0.000000
0.000000
0.000000
0.000000
0.000000
0.000000
0.000000
0.000000
0.000000
0.000000
0.000000
0.000000
0.000000
0.000000
0.000000
0.000000
0.000000
0.000000
0.000000
0.000000
0.000000
0.000000
0.000000
0.000000
0.000000
0.000000
0.000000
0.000000
0.000000
0.000000
0.000000
0.000000
0.000000
0.000000
0.000000
0.000000
0.000000
0.000000
0.000000
0.000000
0.000000
0.000000
0.000000
0.000000
0.000000
0.000000
0.000000
0.000000
0.000000
0.000000
0.000000
0.000000
0.000000
