EVENT_NAME: 202302060117
EVENT_ID: 13194
EVENT_DATE_YYYYMMDD: 2023/02/06
EVENT_TIME_HHMMSS: 01:17:32.00000
EVENT_LATITUDE_DEGREE: 37.288
EVENT_LONGITUDE_DEGREE: 37.043
EVENT_DEPTH_KM: 8.6
HYPOCENTER_REFERENCE: AFAD
MAGNITUDE_W: 7.7
MAGNITUDE_W_REFERENCE: AFAD
MAGNITUDE_L: 
MAGNITUDE_L_REFERENCE: 
FOCAL_MECHANISM: 
NETWORK: TK
STATION_CODE: 1201
STATION_NAME: 
STATION_LATITUDE_DEGREE: 38.89708
STATION_LONGITUDE_DEGREE: 40.5032
STATION_ELEVATION_M: 1133.0
LOCATION: Kahramanmaras_Pazarck_Turkiye
SENSOR_DEPTH_M: 
VS30_M/S: 529
SITE_CLASSIFICATION_EC8: B
MORPHOLOGIC_CLASSIFICATION: 
EPICENTRAL_DISTANCE_KM: 351.68
EARTHQUAKE_BACKAZIMUTH_DEGREE: 
DATE_TIME_FIRST_SAMPLE_YYYYMMDD_HHMMSS: 2023/02/06 01:17:56.9842900
DATE_TIME_FIRST_SAMPLE_PRECISION: millisecond
SAMPLING_INTERVAL_S: 0.01
NDATA: 4702
DURATION_S: 
STREAM: HNZ
UNITS: cm/s^2
INSTRUMENT: sensor = CMG-5T/GURALP | digitizer = 
INSTRUMENT_ANALOG/DIGITAL: 
INSTRUMENTAL_FREQUENCY_HZ: 
INSTRUMENTAL_DAMPING: 
FULL_SCALE_G: 
N_BIT_DIGITAL_CONVERTER: 
PGA_CM/S^2: 2.397
TIME_PGA_S: 
BASELINE_CORRECTION: BASELINE REMOVED
FILTER_TYPE: BUTTERWORTH
FILTER_ORDER: 
LOW_CUT_FREQUENCY_HZ: 
HIGH_CUT_FREQUENCY_HZ: 
LATE/NORMAL_TRIGGERED: 
DATABASE_VERSION: 
HEADER_FORMAT: DYNA 1.2
DATA_TYPE: Acceleration
PROCESSING: Automatic Paolucci et al., 2011
DATA_TIMESTAMP_YYYYMMDD_HHMMSS: 
DATA_LICENSE: U (unknown license)
DATA_CITATION: Turkish Accelerometric Archive v 1.0 - Disaster And Emergency Management Presidency, Earthquake Department
DATA_CREATOR: AFAD
ORIGINAL_DATA_MEDIATOR_CITATION: : AFAD - Disaster And Emergency Management Presidency
ORIGINAL_DATA_MEDIATOR: AFAD PROCESS SERVICE
ORIGINAL_DATA_CREATOR_CITATION: AFAD PROCESS SERVICE
ORIGINAL_DATA_CREATOR: network: TK
USER1: GuestUser
USER2: 
USER3: 
USER4: 
USER5: 
[...]
-0.018700
-0.038126
-0.056925
-0.056288
-0.045619
-0.028367
-0.005160
0.012405
0.024955
0.034056
0.036574
0.041286
0.044431
0.041307
0.041317
0.034744
0.028485
0.025046
0.020981
0.017543
0.017867
0.023833
0.032621
0.048305
0.061795
0.071523
0.080938
0.084396
0.089108
0.092253
0.092264
0.096036
0.096046
0.096056
0.093872
0.087612
0.079785
0.071645
0.061624
0.051602
0.039700
0.024036
0.008059
-0.008232
-0.018880
-0.021064
-0.016665
-0.001295
0.012195
0.018475
0.016918
0.009404
0.003772
0.005350
0.019153
0.036718
0.053970
0.057742
0.052109
0.038640
0.023289
0.009820
-0.005217
-0.019000
-0.026827
-0.028384
-0.028374
-0.019900
-0.003275
0.020246
0.050977
0.090173
0.122158
0.147560
0.160423
0.156358
0.145710
0.127224
0.111247
0.091821
0.068634
0.045446
0.018497
-0.001869
-0.014085
-0.020971
-0.021588
-0.019383
-0.017492
-0.014347
-0.010262
-0.005236
-0.000210
0.006070
0.014230
0.023958
0.032746
0.039339
0.044052
0.043748
0.037176
0.025900
0.008356
-0.012638
-0.029555
-0.036128
-0.025460
0.004645
0.051364
0.104979
0.152011
0.186505
0.195292
0.182450
0.161143
0.125416
0.091257
0.053336
0.018863
-0.007773
-0.029079
-0.041608
-0.048495
-0.048485
-0.047847
-0.048778
-0.049395
-0.044055
-0.038716
-0.028047
-0.021141
-0.018623
-0.019239
-0.023618
-0.022981
-0.018895
-0.008854
0.003069
0.011229
0.018450
0.030372
0.047310
0.063621
0.078052
0.084332
0.081520
0.070245
0.055208
0.047068
0.038614
0.031728
0.014183
-0.010885
-0.038775
-0.067292
-0.087971
-0.105516
-0.122121
-0.134336
-0.142477
-0.139959
-0.120513
-0.094483
-0.061871
-0.033334
-0.017650
-0.012624
-0.023272
-0.046146
-0.076544
-0.111330
-0.142355
-0.168050
-0.182146
-0.179315
-0.161436
-0.131959
-0.099033
-0.065167
-0.026912
0.016045
0.064331
0.111364
0.151186
0.175334
0.180047
0.168772
0.138374
0.099513
0.058143
0.013639
-0.024596
-0.054053
-0.065328
-0.056227
-0.033332
0.002101
0.037221
0.065758
0.080189
0.077377
0.061713
0.038212
0.012831
-0.013178
-0.037306
-0.056732
-0.070828
-0.082103
-0.084601
-0.078321
-0.067339
-0.050715
-0.030015
-0.008688
0.013580
0.035533
0.055293
0.068783
0.069733
0.062534
0.045929
0.019607
-0.005775
-0.023633
-0.032087
-0.029569
-0.020468
-0.008859
-0.000698
0.001193
0.001830
0.006542
0.018465
0.033836
0.050774
0.062069
0.063333
0.049864
0.021661
-0.018455
-0.063900
-0.102448
-0.122500
-0.119982
-0.096147
-0.057579
-0.015876
0.024260
0.051543
0.065973
0.072880
0.070069
0.060048
0.041562
0.019629
-0.001991
-0.017969
-0.022347
-0.017321
-0.006339
0.004329
0.014684
0.022845
0.032260
0.043555
0.054537
0.057369
0.053617
0.044536
0.028872
0.014462
0.000679
-0.005267
-0.004629
0.000083
0.006363
0.004178
-0.008037
-0.026209
-0.046575
-0.061299
-0.068185
-0.064726
-0.057193
-0.051853
-0.050903
-0.062178
-0.081604
-0.106672
-0.129546
-0.139254
-0.138617
-0.131083
-0.117593
-0.092504
-0.056444
-0.003769
0.055489
0.117569
0.179022
0.230129
0.272773
0.296294
0.297558
0.275938
0.239898
0.199783
0.162802
0.132091
0.103574
0.077879
0.050616
0.024921
0.007376
-0.002645
-0.006083
-0.009208
-0.017035
-0.025175
-0.028927
-0.016691
0.012160
0.055430
0.105597
0.149181
0.176465
0.180550
0.163946
0.133235
0.097508
0.057706
0.019158
-0.021898
-0.063895
-0.102443
-0.138796
-0.156968
-0.153510
-0.130302
-0.085464
-0.028086
0.033053
0.090430
0.131506
0.153774
0.158172
0.142822
0.112424
0.072309
0.028745
-0.006355
-0.025467
-0.031413
-0.025446
-0.016972
-0.013200
-0.009115
0.000300
0.028523
0.074615
0.125409
0.164918
0.177468
0.161177
0.124510
0.080319
0.035188
-0.005241
-0.038460
-0.067290
-0.092986
-0.112411
-0.123373
-0.122109
-0.109246
-0.087292
-0.058128
-0.023635
0.013366
0.050053
0.077337
0.088319
0.088642
0.077681
0.060449
0.039143
0.013134
-0.014129
-0.038570
-0.055175
-0.057045
-0.047944
-0.034454
-0.022845
-0.021581
-0.024079
-0.028144
-0.033463
-0.045992
-0.072001
-0.103026
-0.131856
-0.148460
-0.152212
-0.146872
-0.138398
-0.128670
-0.118001
-0.099182
-0.069705
-0.031450
0.009626
0.041298
0.056982
0.057306
0.051987
0.047922
0.052007
0.059854
0.069896
0.071787
0.063333
0.049864
0.032946
0.020730
0.015725
0.017616
0.029538
0.047103
0.064982
0.081920
0.094470
0.103884
0.110164
0.113309
0.111752
0.104865
0.087007
0.058490
0.026212
-0.001051
-0.012013
-0.007300
-0.001020
-0.002891
-0.008210
-0.011962
-0.009444
-0.001283
0.014088
0.033220
0.054547
0.077442
0.106919
0.146428
0.185623
0.213533
0.226396
0.226093
0.220774
0.214828
0.205120
0.189456
0.157805
0.112673
0.057511
-0.000160
-0.049366
-0.086974
-0.109221
-0.118928
-0.126755
-0.136777
-0.146798
-0.153998
-0.156495
-0.156799
-0.161177
-0.163361
-0.157709
-0.149548
-0.139820
-0.140123
-0.150771
-0.168003
-0.184921
-0.192120
-0.185841
-0.165141
-0.135036
-0.096781
-0.052570
-0.004911
0.044002
0.090721
0.137440
0.183532
0.229938
0.276970
0.312404
0.332790
0.334995
0.328422
0.317460
0.306812
0.297417
0.279559
0.258880
0.234125
0.204668
0.172076
0.135408
0.103444
0.087466
0.088730
0.105668
0.129817
0.151144
0.164947
0.167465
0.159952
0.141466
0.122668
0.107004
0.085384
0.052792
0.003899
-0.060041
-0.124608
-0.171620
-0.194494
-0.193857
-0.180994
-0.161235
-0.142729
-0.126418
-0.111674
-0.101319
-0.097547
-0.103493
-0.111947
-0.122282
-0.121645
-0.110349
-0.093098
-0.070203
-0.050130
-0.033506
-0.019075
-0.006526
0.007904
0.017633
0.019837
0.016399
0.006064
-0.009286
-0.030593
-0.056602
-0.084805
-0.117397
-0.149989
-0.179132
-0.203887
-0.223940
-0.239917
-0.250252
-0.254944
-0.249291
-0.231412
-0.204756
-0.178414
-0.156146
-0.137327
-0.118508
-0.094047
-0.056732
-0.004370
0.055828
0.110384
0.153341
0.184386
0.209161
0.234564
0.262160
0.282233
0.293842
0.291971
0.276934
0.258763
0.234635
0.206745
0.172899
0.135605
0.104580
0.079826
0.057892
0.035332
0.007128
-0.021075
-0.045203
-0.059299
-0.062424
-0.059592
-0.063030
-0.073679
-0.088402
-0.111903
-0.131329
-0.136648
-0.124412
-0.093054
-0.047589
-0.000556
0.041774
0.074386
0.102296
0.128952
0.151847
0.162829
0.162525
0.152504
0.127122
0.096411
0.056296
0.014926
-0.022054
-0.055273
-0.075639
-0.078450
-0.067155
-0.037991
0.000264
0.045729
0.089940
0.121298
0.134161
0.123200
0.095937
0.053627
0.000032
-0.055444
-0.103083
-0.142572
-0.164505
-0.171392
-0.165739
-0.145979
-0.115875
-0.072291
-0.014600
0.047793
0.104543
0.147500
0.162871
0.152850
0.121512
0.075440
0.033444
0.003360
-0.020141
-0.040194
-0.065889
-0.092838
-0.113205
-0.130122
-0.133247
-0.127908
-0.113477
-0.099987
-0.108441
-0.131629
-0.168296
-0.209038
-0.240690
-0.261369
-0.269823
-0.265738
-0.248486
-0.215247
-0.164453
-0.097985
-0.018664
0.064106
0.134963
0.190773
0.227774
0.240010
0.231869
0.204920
0.157281
0.096162
0.026893
-0.037674
-0.085313
-0.110382
-0.103161
-0.067101
-0.008156
0.062074
0.133871
0.203161
0.262419
0.300988
0.316672
0.310412
0.291614
0.263411
0.230192
0.195092
0.147766
0.087588
0.012990
-0.070386
-0.155643
-0.238392
-0.313304
-0.378812
-0.438363
-0.487256
-0.525177
-0.545230
-0.550235
-0.539880
-0.508522
-0.467759
-0.424488
-0.394697
-0.370236
-0.331354
-0.270528
-0.194656
-0.114708
-0.047612
-0.003088
0.028584
0.055554
0.084091
0.123286
0.169064
0.213902
0.247142
0.258437
0.253432
0.237141
0.217402
0.206753
0.211466
0.236868
0.278571
0.325290
0.378592
0.429073
0.468582
0.488968
0.485843
0.471120
0.444798
0.409384
0.363940
0.310031
0.256749
0.210051
0.176205
0.151450
0.125441
0.095984
0.068408
0.053685
0.053068
0.069379
0.097916
0.130215
0.166275
0.204530
0.249055
0.300162
0.349389
0.382628
0.393924
0.382649
0.361969
0.351634
0.368573
0.412784
0.465459
0.519388
0.565480
0.608750
0.657037
0.710025
0.763641
0.801269
0.817893
0.818530
0.810077
0.794413
0.767777
0.724213
0.662467
0.585675
0.498223
0.404189
0.303885
0.200446
0.104218
0.023350
-0.037456
-0.071301
-0.086338
-0.090090
-0.093528
-0.101042
-0.111376
-0.125159
-0.147093
-0.183133
-0.225443
-0.271201
-0.320094
-0.375257
-0.438256
-0.503137
-0.555792
-0.580546
-0.567683
-0.513128
-0.420954
-0.305269
-0.180493
-0.057598
0.056519
0.146185
0.207324
0.245579
0.276938
0.313939
0.358463
0.404242
0.440302
0.457867
0.446592
0.416822
0.382035
0.363863
0.375159
0.412473
0.452296
0.464532
0.427238
0.347310
0.249514
0.152345
0.065207
-0.013153
-0.085557
-0.156707
-0.228171
-0.305904
-0.390221
-0.476731
-0.554465
-0.615270
-0.648802
-0.650360
-0.617747
-0.556295
-0.486065
-0.419283
-0.369116
-0.336817
-0.304832
-0.257486
-0.181613
-0.088185
-0.005416
0.046632
0.052912
0.007781
-0.074341
-0.167435
-0.246422
-0.294688
-0.310352
-0.301565
-0.281805
-0.263927
-0.257020
-0.264220
-0.286467
-0.326269
-0.389895
-0.482989
-0.604923
-0.746293
-0.895814
-1.032795
-1.150341
-1.241240
-1.291074
-1.292317
-1.241523
-1.154365
-1.047458
-0.935535
-0.830195
-0.736454
-0.660581
-0.605084
-0.570278
-0.561804
-0.580289
-0.620091
-0.663028
-0.686529
-0.683384
-0.651398
-0.589319
-0.505923
-0.407479
-0.304020
-0.199934
-0.098983
-0.001793
0.084738
0.151206
0.198552
0.230537
0.262209
0.292313
0.323358
0.350014
0.375730
0.418687
0.483274
0.562282
0.640663
0.706817
0.752596
0.774550
0.782397
0.793692
0.812198
0.829136
0.826012
0.801257
0.763963
0.722280
0.676521
0.613208
0.518234
0.395046
0.260572
0.133936
0.033632
-0.045982
-0.111176
-0.171668
-0.230279
-0.279799
-0.303300
-0.285735
-0.229298
-0.141513
-0.046831
0.036565
0.101779
0.150693
0.198665
0.255729
0.324705
0.403399
0.489617
0.582104
0.678353
0.779618
0.894989
1.021646
1.148303
1.252702
1.310707
1.305074
1.227968
1.098197
0.933002
0.747118
0.546186
0.332088
0.106705
-0.115543
-0.331208
-0.548441
-0.766300
-0.976323
-1.151235
-1.278499
-1.338364
-1.324247
-1.245239
-1.116702
-0.965907
-0.803513
-0.648957
-0.507566
-0.384358
-0.281212
-0.200010
-0.146708
-0.126635
-0.145121
-0.194327
-0.260775
-0.320640
-0.352291
-0.340996
-0.295217
-0.236900
-0.191748
-0.177004
-0.208969
-0.286075
-0.409891
-0.573518
-0.755327
-0.937450
-1.087284
-1.195111
-1.265007
-1.299794
-1.303232
-1.273754
-1.204151
-1.090347
-0.924192
-0.714149
-0.493761
-0.297825
-0.142328
-0.018806
0.086220
0.174005
0.243608
0.286566
0.305385
0.309784
0.320139
0.354318
0.414203
0.495719
0.570651
0.624267
0.649669
0.659397
0.675395
0.706126
0.758174
0.830912
0.921832
1.020902
1.121540
1.221237
1.314978
1.388343
1.428479
1.426608
1.375834
1.281487
1.164255
1.050785
0.964587
0.911619
0.892820
0.888442
0.874659
0.835170
0.764020
0.683465
0.618898
0.589441
0.584436
0.581938
0.567215
0.535250
0.499523
0.474141
0.467882
0.489522
0.534360
0.592364
0.653190
0.712448
0.777035
0.846952
0.930348
1.026597
1.137266
1.268625
1.412210
1.559870
1.692796
1.792180
1.838899
1.818847
1.738292
1.609461
1.455865
1.303524
1.166229
1.050251
0.945558
0.842433
0.739621
0.635555
0.527728
0.412377
0.285740
0.134025
-0.042141
-0.241505
-0.464067
-0.708572
-0.974708
-1.237082
-1.465600
-1.643961
-1.764014
-1.824819
-1.835468
-1.806304
-1.743284
-1.641079
-1.492165
-1.289959
-1.036969
-0.750123
-0.463904
-0.219379
-0.062001
-0.011833
-0.066682
-0.212128
-0.423091
-0.674493
-0.925268
-1.133723
-1.268196
-1.303610
-1.243098
-1.108290
-0.933984
-0.775979
-0.659981
-0.606993
-0.620149
-0.679700
-0.782512
-0.917926
-1.076537
-1.244553
-1.397835
-1.509111
-1.568349
-1.574609
-1.540429
-1.481798
-1.402790
-1.298391
-1.157000
-0.983321
-0.793968
-0.607123
-0.438773
-0.304280
-0.193297
-0.088584
0.017697
0.114573
0.172890
0.177603
0.118051
0.001133
-0.144626
-0.296341
-0.426426
-0.522027
-0.579698
-0.600064
-0.600681
-0.594087
-0.582478
-0.554568
-0.487787
-0.368026
-0.203438
-0.020982
0.141725
0.252081
0.300994
0.306647
0.297566
0.307921
0.348370
0.420795
0.506386
0.581004
0.644338
0.697326
0.746553
0.793272
0.825884
0.825267
0.780450
0.686415
0.556331
0.412766
0.267635
0.137863
0.039127
-0.016349
-0.022922
0.008436
0.060171
0.120056
0.184016
0.258949
0.341718
0.421039
0.485940
0.539242
0.587842
0.632993
0.682533
0.727998
0.757476
0.755919
0.706712
0.623650
0.524913
0.436835
0.384494
0.370084
0.375737
0.375120
0.350051
0.299905
0.243175
0.199297
0.184260
0.209036
0.267040
0.345734
0.436027
0.519109
0.581189
0.601575
0.578075
0.524479
0.462734
0.412900
0.375606
0.346776
0.318259
0.275949
0.215458
0.143367
0.062185
-0.024012
-0.126197
-0.253460
-0.403294
-0.573191
-0.755940
-0.936809
-1.098242
-1.228954
-1.326436
-1.379718
-1.374065
-1.309164
-1.195360
-1.056478
-0.925432
-0.818525
-0.736696
-0.673049
-0.616612
-0.563310
-0.494961
-0.391502
-0.254814
-0.098376
0.059001
0.196630
0.296954
0.346495
0.349326
0.325512
0.293233
0.274121
0.278520
0.312073
0.382930
0.488897
0.617121
0.743464
0.842221
0.892075
0.880799
0.788019
0.593044
0.297754
-0.076846
-0.498782
-0.926361
-1.324472
-1.654872
-1.894048
-2.029775
-2.059546
-2.013454
-1.917205
-1.795878
-1.672669
-1.557611
-1.458541
-1.367935
-1.268237
-1.156314
-1.037808
-0.911151
-0.764745
-0.588872
-0.382904
-0.147469
0.126524
0.450360
0.825921
1.227502
1.607765
1.920316
2.139137
2.263912
2.320663
2.338855
2.349837
2.373045
2.397193
2.393441
2.337338
2.226689
2.050836
1.802569
1.481888
1.115751
0.729866
0.343980
-0.022783
-0.351615
-0.616497
-0.813040
-0.943438
-1.022425
-1.074767
-1.107045
-1.114245
-1.081633
-0.991340
-0.850890
-0.679405
-0.484723
-0.268097
-0.021063
0.265155
0.586484
0.932578
1.272089
1.573355
1.807849
1.958957
2.037965
2.074652
2.108519
2.157118
2.216690
2.264663
2.276899
2.247442
2.178800
2.094170
2.003897
1.886979
1.730248
1.521793
1.260046
0.963189
0.637492
0.297375
-0.045251
-0.393205
-0.732382
-1.029239
-1.239575
-1.327340
-1.297549
-1.183118
-1.016022
-0.825101
-0.623836
-0.410972
-0.182747
0.056763
0.299094
0.527006
0.716986
0.847718
0.896944
0.860277
0.731133
0.514527
0.232091
-0.082635
-0.390777
-0.663182
-0.882296
-1.047490
-1.163782
-1.237753
-1.278182
-1.292906
-1.280356
-1.239907
-1.167169
-1.072488
-0.973731
-0.894096
-0.861170
-0.870565
-0.905664
-0.933868
-0.932604
-0.883063
-0.769573
-0.592446
-0.372058
-0.151670
0.033921
0.168728
0.243974
0.251821
0.201361
0.101684
-0.017742
-0.147827
-0.288884
-0.435269
-0.596389
-0.759389
-0.892922
-0.978806
-1.019548
-1.019851
-0.987239
-0.914501
-0.805400
-0.697552
-0.637353
-0.648315
-0.732318
-0.854252
-0.986217
-1.110346
-1.215979
-1.301549
-1.355145
-1.382407
-1.387099
-1.362011
-1.306514
-1.226566
-1.130004
-1.024664
-0.916503
-0.810222
-0.718675
-0.650640
-0.600786
-0.566293
-0.535875
-0.507338
-0.483190
-0.467505
-0.454329
-0.429867
-0.392553
-0.337683
-0.274663
-0.217286
-0.166178
-0.112249
-0.055186
0.003759
0.060196
0.112244
0.150812
0.169632
0.167134
0.148335
0.125148
0.108543
0.107927
0.137717
0.206694
0.309839
0.447154
0.618012
0.800782
0.972266
1.097356
1.157868
1.155057
1.095505
1.010875
0.925619
0.861679
0.825638
0.820319
0.835063
0.852315
0.855146
0.836661
0.803129
0.759565
0.700641
0.619459
0.506302
0.355841
0.192214
0.044261
-0.053535
-0.075155
-0.028750
0.074709
0.222996
0.396675
0.577251
0.752497
0.913010
1.036218
1.102687
1.094233
1.013051
0.867919
0.665107
0.432514
0.196472
-0.029224
-0.242382
-0.438297
-0.612583
-0.767433
-0.915072
-1.081834
-1.267405
-1.448274
-1.593406
-1.678349
-1.709687
-1.709050
-1.705592
-1.720629
-1.760744
-1.804308
-1.817150
-1.778269
0.000000
0.000000
0.000000
0.000000
0.000000
0.000000
0.000000
0.000000
0.000000
0.000000
0.000000
0.000000
0.000000
0.000000
0.000000
0.000000
0.000000
0.000000
0.000000
0.000000
0.000000
0.000000
0.000000
0.000000
0.000000
0.000000
0.000000
0.000000
0.000000
0.000000
0.000000
0.000000
0.000000
0.000000
0.000000
0.000000
0.000000
0.000000
0.000000
0.000000
0.000000
0.000000
0.000000
0.000000
0.000000
0.000000
0.000000
0.000000
0.000000
0.000000
0.000000
0.000000
0.000000
0.000000
0.000000
0.000000
0.000000
0.000000
0.000000
0.000000
0.000000
0.000000
0.000000
0.000000
0.000000
0.000000
0.000000
0.000000
0.000000
0.000000
0.000000
0.000000
0.000000
0.000000
0.000000
0.000000
0.000000
0.000000
0.000000
0.000000
0.000000
0.000000
0.000000
0.000000
0.000000
0.000000
0.000000
0.000000
0.000000
0.000000
0.000000
0.000000
0.000000
0.000000
0.000000
0.000000
0.000000
0.000000
0.000000
0.000000
0.000000
0.000000
0.000000
0.000000
0.000000
0.000000
0.000000
0.000000
0.000000
0.000000
0.000000
0.000000
0.000000
0.000000
0.000000
0.000000
0.000000
0.000000
0.000000
0.000000
0.000000
0.000000
0.000000
0.000000
0.000000
0.000000
0.000000
0.000000
0.000000
0.000000
0.000000
0.000000
0.000000
0.000000
0.000000
0.000000
0.000000
0.000000
0.000000
0.000000
0.000000
0.000000
0.000000
0.000000
0.000000
0.000000
0.000000
0.000000
0.000000
0.000000
0.000000
0.000000
0.000000
0.000000
0.000000
0.000000
0.000000
0.000000
0.000000
0.000000
0.000000
0.000000
0.000000
0.000000
0.000000
0.000000
0.000000
0.000000
0.000000
0.000000
0.000000
0.000000
0.000000
0.000000
0.000000
0.000000
0.000000
0.000000
0.000000
0.000000
0.000000
0.000000
0.000000
0.000000
0.000000
0.000000
0.000000
0.000000
0.000000
0.000000
0.000000
0.000000
0.000000
0.000000
0.000000
0.000000
0.000000
0.000000
0.000000
0.000000
0.000000
0.000000
0.000000
0.000000
0.000000
0.000000
0.000000
0.000000
0.000000
0.000000
0.000000
0.000000
0.000000
0.000000
0.000000
0.000000
0.000000
0.000000
0.000000
0.000000
0.000000
0.000000
0.000000
0.000000
0.000000
0.000000
0.000000
0.000000
0.000000
0.000000
0.000000
0.000000
0.000000
0.000000
0.000000
0.000000
0.000000
0.000000
0.000000
0.000000
0.000000
0.000000
0.000000
0.000000
0.000000
0.000000
0.000000
0.000000
0.000000
0.000000
0.000000
0.000000
0.000000
0.000000
0.000000
0.000000
0.000000
0.000000
0.000000
0.000000
0.000000
0.000000
0.000000
0.000000
0.000000
0.000000
0.000000
0.000000
0.000000
0.000000
0.000000
0.000000
0.000000
0.000000
0.000000
0.000000
0.000000
0.000000
0.000000
0.000000
0.000000
0.000000
0.000000
0.000000
0.000000
0.000000
0.000000
0.000000
0.000000
0.000000
0.000000
0.000000
0.000000
0.000000
0.000000
0.000000
0.000000
0.000000
0.000000
0.000000
0.000000
0.000000
0.000000
0.000000
0.000000
0.000000
0.000000
0.000000
0.000000
0.000000
0.000000
0.000000
0.000000
0.000000
0.000000
0.000000
0.000000
0.000000
0.000000
0.000000
0.000000
0.000000
0.000000
0.000000
0.000000
0.000000
0.000000
0.000000
0.000000
0.000000
0.000000
0.000000
0.000000
0.000000
0.000000
0.000000
0.000000
0.000000
0.000000
0.000000
0.000000
0.000000
0.000000
0.000000
0.000000
0.000000
0.000000
0.000000
0.000000
0.000000
0.000000
0.000000
0.000000
0.000000
0.000000
0.000000
0.000000
0.000000
0.000000
0.000000
0.000000
0.000000
0.000000
0.000000
0.000000
0.000000
