EVENT_NAME: 202302060117
EVENT_ID: 13194
EVENT_DATE_YYYYMMDD: 2023/02/06
EVENT_TIME_HHMMSS: 01:17:32.00000
EVENT_LATITUDE_DEGREE: 37.288
EVENT_LONGITUDE_DEGREE: 37.043
EVENT_DEPTH_KM: 8.6
HYPOCENTER_REFERENCE: AFAD
MAGNITUDE_W: 7.7
MAGNITUDE_W_REFERENCE: AFAD
MAGNITUDE_L: 
MAGNITUDE_L_REFERENCE: 
FOCAL_MECHANISM: 
NETWORK: TK
STATION_CODE: 0506
STATION_NAME: 
STATION_LATITUDE_DEGREE: 40.64382
STATION_LONGITUDE_DEGREE: 35.80388
STATION_ELEVATION_M: 405.0
LOCATION: Kahramanmaras_Pazarck_Turkiye
SENSOR_DEPTH_M: 
VS30_M/S: 284
SITE_CLASSIFICATION_EC8: C
MORPHOLOGIC_CLASSIFICATION: 
EPICENTRAL_DISTANCE_KM: 388.21
EARTHQUAKE_BACKAZIMUTH_DEGREE: 
DATE_TIME_FIRST_SAMPLE_YYYYMMDD_HHMMSS: 2023/02/06 01:18:01.5015650
DATE_TIME_FIRST_SAMPLE_PRECISION: millisecond
SAMPLING_INTERVAL_S: 0.01
NDATA: 21001
DURATION_S: 
STREAM: HNE
UNITS: cm/s^2
INSTRUMENT: sensor = CMG-5T/GURALP | digitizer = 
INSTRUMENT_ANALOG/DIGITAL: 
INSTRUMENTAL_FREQUENCY_HZ: 
INSTRUMENTAL_DAMPING: 
FULL_SCALE_G: 
N_BIT_DIGITAL_CONVERTER: 
PGA_CM/S^2: 3.654
TIME_PGA_S: 
BASELINE_CORRECTION: BASELINE REMOVED
FILTER_TYPE: BUTTERWORTH
FILTER_ORDER: 
LOW_CUT_FREQUENCY_HZ: 
HIGH_CUT_FREQUENCY_HZ: 
LATE/NORMAL_TRIGGERED: 
DATABASE_VERSION: 
HEADER_FORMAT: DYNA 1.2
DATA_TYPE: Acceleration
PROCESSING: Automatic Paolucci et al., 2011
DATA_TIMESTAMP_YYYYMMDD_HHMMSS: 
DATA_LICENSE: U (unknown license)
DATA_CITATION: Turkish Accelerometric Archive v 1.0 - Disaster And Emergency Management Presidency, Earthquake Department
DATA_CREATOR: AFAD
ORIGINAL_DATA_MEDIATOR_CITATION: : AFAD - Disaster And Emergency Management Presidency
ORIGINAL_DATA_MEDIATOR: AFAD PROCESS SERVICE
ORIGINAL_DATA_CREATOR_CITATION: AFAD PROCESS SERVICE
ORIGINAL_DATA_CREATOR: network: TK
USER1: GuestUser
USER2: 
USER3: 
USER4: 
USER5: 
[...]
1.983348
2.082127
2.166389
2.237396
2.289469
2.318503
2.326393
2.312508
2.279372
2.224460
2.155347
2.072664
1.985247
1.892780
1.797789
1.700589
1.594552
1.476839
1.350289
1.208907
1.054901
0.890481
0.717224
0.542389
0.366923
0.195245
0.033665
-0.115292
-0.247207
-0.356715
-0.445394
-0.516401
-0.569734
-0.608236
-0.629695
-0.637269
-0.633797
-0.616439
-0.587720
-0.552689
-0.513241
-0.472529
-0.430871
-0.384164
-0.333670
-0.273392
-0.205541
-0.130746
-0.061632
0.008744
0.074387
0.136558
0.199991
0.257113
0.308554
0.356524
0.399760
0.441102
0.491912
0.546194
0.607734
0.668958
0.727973
0.786673
0.850737
0.912277
0.975711
1.031254
1.074490
1.106049
1.124670
1.128141
1.113625
1.077964
1.022421
0.952677
0.868100
0.775634
0.670228
0.561983
0.450581
0.337917
0.222413
0.112589
0.000556
-0.110214
-0.220038
-0.329231
-0.436530
-0.542567
-0.644816
-0.741385
-0.829434
-0.908330
-0.972709
-1.022256
-1.054445
-1.074011
-1.080638
-1.072432
-1.044975
-0.999215
-0.939253
-0.865721
-0.777987
-0.683942
-0.583269
-0.479440
-0.372140
-0.263894
-0.155331
-0.049294
0.051695
0.141637
0.222428
0.291542
0.346139
0.393793
0.420934
0.432611
0.429140
0.411783
0.387484
0.366024
0.345512
0.331626
0.321844
0.316164
0.317742
0.326894
0.340150
0.354351
0.369816
0.391276
0.416208
0.450292
0.488163
0.526034
0.558855
0.581262
0.597042
0.602092
0.602724
0.595781
0.588208
0.582212
0.582212
0.586947
0.600833
0.621978
0.646910
0.669001
0.686990
0.700561
0.710029
0.720128
0.728334
0.739064
0.751373
0.768099
0.792400
0.826484
0.872876
0.930628
0.996902
1.073906
1.152803
1.233278
1.308388
1.377502
1.434624
1.481647
1.519518
1.557389
1.595891
1.639442
1.686150
1.736644
1.796922
1.860671
1.931047
2.005841
2.080952
2.154484
2.222335
2.278826
2.321746
2.343522
2.352359
2.346679
2.332794
2.311019
2.281670
2.241906
2.189204
2.123562
2.048453
1.966085
1.882771
1.800719
1.722769
1.646082
1.571289
1.499966
1.428329
1.361109
1.293258
1.226670
1.155664
1.084657
1.010495
0.942959
0.880789
0.828402
0.782958
0.744457
0.714793
0.700907
0.704379
0.722053
0.758030
0.810418
0.874482
0.945490
1.026596
1.110227
1.198592
1.286326
1.378793
1.474101
1.567515
1.659351
1.749294
1.833556
1.915609
1.991982
2.067723
2.139362
2.206267
2.267175
2.317038
2.355225
2.379210
2.388994
2.384892
2.371637
2.351440
2.330928
2.307890
2.286746
2.260553
2.230573
2.197752
2.160829
2.116016
2.063629
1.997672
1.926350
1.855344
1.785915
1.719011
1.656841
1.597827
1.547964
1.505676
1.467175
1.434355
1.397431
1.361771
1.324847
1.296445
1.268358
1.246899
1.231751
1.224178
1.223231
1.231122
1.240274
1.250373
1.261104
1.268047
1.276253
1.280356
1.285090
1.283197
1.278779
1.277833
1.274993
1.268998
1.268683
1.267105
1.268999
1.274365
1.279415
1.284149
1.291723
1.299298
1.310975
1.326439
1.347584
1.373147
1.402182
1.434688
1.466878
1.495597
1.523053
1.548932
1.569761
1.584279
1.589013
1.586804
1.575759
1.559349
1.532525
1.497811
1.455838
1.408816
1.356745
1.302780
1.243766
1.180649
1.112798
1.041792
0.972047
0.903881
0.835084
0.767549
0.704116
0.643524
0.587981
0.538750
0.500565
0.469637
0.445022
0.423247
0.405575
0.387902
0.377173
0.366443
0.358239
0.352243
0.347510
0.347510
0.354138
0.368971
0.391063
0.418204
0.451025
0.489527
0.532763
0.580417
0.629334
0.686140
0.743577
0.801330
0.859714
0.917467
0.971117
1.016878
1.047174
1.067688
1.071791
1.058853
1.033606
0.994474
0.944612
0.889069
0.828477
0.769462
0.711395
0.653327
0.597469
0.538770
0.482281
0.421057
0.362359
0.304607
0.246224
0.187841
0.130089
0.075493
0.027840
-0.016973
-0.057368
-0.097447
-0.136264
-0.171293
-0.206007
-0.238197
-0.268808
-0.296895
-0.319617
-0.338236
-0.352437
-0.359064
-0.355592
-0.340443
-0.311409
-0.265332
-0.209158
-0.136888
-0.053257
0.038895
0.136728
0.236769
0.333024
0.428647
0.511331
0.584863
0.647666
0.695320
0.730035
0.754335
0.762541
0.754967
0.736980
0.705737
0.673548
0.637256
0.602226
0.564672
0.527117
0.485145
0.441910
0.393941
0.341870
0.280331
0.209324
0.123485
0.023760
-0.092060
-0.221134
-0.360623
-0.509264
-0.660114
-0.812227
-0.965917
-1.120870
-1.268248
-1.414364
-1.548488
-1.675354
-1.784231
-1.876382
-1.953069
-2.015554
-2.063523
-2.095081
-2.113700
-2.116540
-2.104863
-2.084034
-2.050581
-2.010817
-1.963163
-1.906672
-1.843239
-1.764973
-1.676923
-1.574673
-1.454434
-1.319678
-1.175138
-1.011664
-0.843456
-0.659784
-0.472640
-0.282025
-0.088570
0.105201
0.296131
0.479488
0.661897
0.835786
1.002101
1.163366
1.318004
1.465699
1.605505
1.733002
1.851979
1.956123
2.047328
2.122438
2.179245
2.214591
2.228477
2.215854
2.180193
2.116761
2.028081
1.909737
1.767723
1.606459
1.430362
1.241010
1.038404
0.825699
0.603526
0.376620
0.145926
-0.080980
-0.306940
-0.526272
-0.742449
-0.944739
-1.134091
-1.310504
-1.474924
-1.622934
-1.759582
-1.884554
-1.998165
-2.098837
-2.187200
-2.260416
-2.317221
-2.350989
-2.357931
-2.344045
-2.301440
-2.236429
-2.146486
-2.038239
-1.912319
-1.775039
-1.625134
-1.469865
-1.305760
-1.133133
-0.956720
-0.774626
-0.589060
-0.399707
-0.210039
-0.025736
0.149100
0.310680
0.455851
0.577983
0.677394
0.755660
0.807101
0.838660
0.849391
0.836136
0.801738
0.749982
0.680554
0.600079
0.503826
0.403470
0.287965
0.161416
0.026029
-0.110619
-0.249161
-0.388019
-0.517725
-0.643328
-0.763250
-0.879702
-0.988263
-1.094300
-1.198127
-1.305742
-1.408307
-1.509610
-1.606810
-1.698961
-1.785431
-1.869061
-1.949536
-2.025592
-2.094705
-2.158137
-2.216836
-2.275219
-2.335180
-2.399559
-2.462992
-2.530527
-2.602164
-2.669068
-2.741337
-2.812028
-2.882404
-2.950885
-3.014633
-3.069229
-3.114042
-3.140236
-3.150965
-3.138972
-3.108360
-3.057234
-2.986858
-2.901965
-2.801608
-2.688311
-2.563654
-2.431423
-2.298245
-2.161911
-2.028417
-1.900919
-1.775315
-1.655707
-1.533890
-1.415545
-1.291519
-1.161496
-1.020429
-0.873365
-0.723145
-0.572294
-0.423021
-0.278482
-0.138676
-0.014019
0.098646
0.191745
0.264961
0.324923
0.368159
0.397194
0.409818
0.409187
0.390883
0.363112
0.325558
0.282639
0.233092
0.187017
0.143782
0.103072
0.063308
0.027963
-0.016534
-0.073340
-0.140559
-0.224820
-0.328648
-0.455198
-0.602261
-0.771099
-0.950352
-1.139072
-1.330633
-1.513673
-1.687561
-1.850088
-1.997782
-2.135377
-2.254353
-2.360390
-2.451594
-2.530490
-2.598341
-2.655461
-2.697118
-2.722049
-2.733726
-2.734987
-2.730884
-2.726150
-2.722362
-2.716366
-2.706898
-2.692696
-2.672498
-2.639676
-2.598018
-2.544053
-2.471783
-2.375844
-2.263179
-2.130632
-1.983252
-1.820725
-1.650307
-1.473578
-1.298111
-1.123276
-0.951280
-0.786544
-0.627487
-0.479477
-0.340934
-0.222904
-0.124125
-0.043334
0.016313
0.049134
0.063020
0.053553
0.021364
-0.027867
-0.087197
-0.156941
-0.226685
-0.295483
-0.364596
-0.426766
-0.485780
-0.546688
-0.608858
-0.673869
-0.738248
-0.807361
-0.881208
-0.953477
-1.027323
-1.098961
-1.174386
-1.241605
-1.306300
-1.370995
-1.433481
-1.498176
-1.561924
-1.619991
-1.673640
-1.716244
-1.749696
-1.770524
-1.779991
-1.776835
-1.758215
-1.722869
-1.670481
-1.607994
-1.529097
-1.441048
-1.349211
-1.255166
-1.163645
-1.079068
-0.997961
-0.925376
-0.855946
-0.794406
-0.738547
-0.692786
-0.651760
-0.617360
-0.584539
-0.557398
-0.538778
-0.517317
-0.499644
-0.485758
-0.472503
-0.461456
-0.457669
-0.457353
-0.463980
-0.474709
-0.493644
-0.517944
-0.552027
-0.597155
-0.654591
-0.725913
-0.815540
-0.922839
-1.046548
-1.183197
-1.326788
-1.472905
-1.618705
-1.760403
-1.893896
-2.013818
-2.118908
-2.211059
-2.285222
-2.347076
-2.392205
-2.419345
-2.428812
-2.420606
-2.397252
-2.360959
-2.319932
-2.279852
-2.245769
-2.222415
-2.208844
-2.213262
-2.230618
-2.262492
-2.311408
-2.372000
-2.441113
-2.515591
-2.598590
-2.682535
-2.769321
-2.855476
-2.938159
-3.018633
-3.090587
-3.153388
-3.205775
-3.245223
-3.270154
-3.282777
-3.290666
-3.289719
-3.287194
-3.278041
-3.264155
-3.247113
-3.227861
-3.204507
-3.175789
-3.143598
-3.100362
-3.050184
-2.985803
-2.910693
-2.828325
-2.735226
-2.634553
-2.525675
-2.408908
-2.284566
-2.158015
-2.028309
-1.907438
-1.800454
-1.700728
-1.617728
-1.547667
-1.494648
-1.452990
-1.428059
-1.415435
-1.412909
-1.417958
-1.431528
-1.458668
-1.498116
-1.555237
-1.621825
-1.701668
-1.788454
-1.878711
-1.966759
-2.054492
-2.131495
-2.195558
-2.246367
-2.278241
-2.292442
-2.285183
-2.257095
-2.211650
-2.155160
-2.090780
-2.022613
-1.951605
-1.883438
-1.819058
-1.755624
-1.690613
-1.630020
-1.568795
-1.511674
-1.460548
-1.414472
-1.367133
-1.315377
-1.256361
-1.189772
-1.116556
-1.037343
-0.950871
-0.863453
-0.773195
-0.684830
-0.599937
-0.522933
-0.460131
-0.407112
-0.371135
-0.354724
-0.356617
-0.372396
-0.404269
-0.445611
-0.492948
-0.542810
-0.595829
-0.646006
-0.693975
-0.734054
-0.770662
-0.801589
-0.826835
-0.851766
-0.869754
-0.880799
-0.888373
-0.896893
-0.908254
-0.925611
-0.943283
-0.964427
-0.982730
-0.995353
-1.007345
-1.019968
-1.028488
-1.037640
-1.042689
-1.044898
-1.041741
-1.038900
-1.035113
-1.033535
-1.033218
-1.036374
-1.048050
-1.062882
-1.081501
-1.099174
-1.117793
-1.133887
-1.150928
-1.162289
-1.172703
-1.177752
-1.180276
-1.183432
-1.190058
-1.200788
-1.219723
-1.245600
-1.279367
-1.326705
-1.384457
-1.453570
-1.530257
-1.608207
-1.682053
-1.749589
-1.808287
-1.861305
-1.904225
-1.936414
-1.957873
-1.964816
-1.956295
-1.941461
-1.914005
-1.880237
-1.837948
-1.787769
-1.727491
-1.663111
-1.595575
-1.525514
-1.454191
-1.380974
-1.309020
-1.232648
-1.161009
-1.091895
-1.029408
-0.969446
-0.918321
-0.876978
-0.843526
-0.817963
-0.802498
-0.788297
-0.772201
-0.756737
-0.735908
-0.714763
-0.688253
-0.663952
-0.646279
-0.633024
-0.627343
-0.632076
-0.649433
-0.682569
-0.731800
-0.793970
-0.870026
-0.956181
-1.046123
-1.144270
-1.245888
-1.351294
-1.462380
-1.581356
-1.701278
-1.819307
-1.938599
-2.053156
-2.163611
-2.260180
-2.345704
-2.418919
-2.471937
-2.512648
-2.536947
-2.546730
-2.543258
-2.530634
-2.508858
-2.477299
-2.439428
-2.395877
-2.346329
-2.297728
-2.250705
-2.208101
-2.171492
-2.140880
-2.124153
-2.114369
-2.110582
-2.105216
-2.095433
-2.077444
-2.052827
-2.015272
-1.966987
-1.908918
-1.838227
-1.756805
-1.666231
-1.570292
-1.465517
-1.357270
-1.243658
-1.127206
-1.004442
-0.884203
-0.764595
-0.655086
-0.551889
-0.461630
-0.384942
-0.325612
-0.283638
-0.256182
-0.245451
-0.245451
-0.263439
-0.290579
-0.337601
-0.396299
-0.468884
-0.549358
-0.640562
-0.741549
-0.851689
-0.966246
-1.086484
-1.211141
-1.336428
-1.464871
-1.592368
-1.724283
-1.853042
-1.984641
-2.111506
-2.238056
-2.363028
-2.483582
-2.596561
-2.700705
-2.796011
-2.879957
-2.947492
-3.003035
-3.045007
-3.066782
-3.071516
-3.056998
-3.025124
-2.977469
-2.912458
-2.834508
-2.744249
-2.641368
-2.529649
-2.414775
-2.297692
-2.177769
-2.060685
-1.946127
-1.837880
-1.736576
-1.641584
-1.551326
-1.459805
-1.359132
-1.260669
-1.165677
-1.072263
-0.982635
-0.891115
-0.792336
-0.691347
-0.590990
-0.488424
-0.384280
-0.274140
-0.161475
-0.043760
0.073007
0.188197
0.298653
0.408162
0.518618
0.630652
0.743948
0.853773
0.957601
1.052593
1.137487
1.210388
1.274452
1.326525
1.361871
1.386171
1.399427
1.404792
1.401005
1.397534
1.389645
1.375760
1.356510
1.327160
1.291184
1.242900
1.186726
1.121400
1.051340
0.968972
0.879031
0.778674
0.673269
0.564076
0.447941
0.328334
0.212198
0.100166
-0.006502
-0.099284
-0.183545
-0.255499
-0.319878
-0.376052
-0.419603
-0.453685
-0.474829
-0.481456
-0.473882
-0.444847
-0.407923
-0.352064
-0.282003
-0.200897
-0.105273
0.000449
0.113429
0.232406
0.353276
0.476987
0.607009
0.735769
0.873997
1.016642
1.164022
1.313295
1.460043
1.601742
1.737129
1.863049
1.976030
2.074493
2.153390
2.216508
2.264162
2.298877
2.323494
2.331699
2.328228
2.311818
2.285310
2.254383
2.216513
2.173909
2.128465
2.079549
2.030634
1.986137
1.946689
1.911659
1.876945
1.848227
1.813829
1.778483
1.745663
1.717892
1.689174
1.656353
1.629844
1.605545
1.585663
1.570831
1.567045
1.567992
1.576513
1.598289
1.622590
1.650677
1.681290
1.717267
1.754823
1.799005
1.853602
1.915458
1.989305
2.065994
2.154043
2.246826
2.340556
2.437126
2.532433
2.625216
2.713266
2.800052
2.881790
2.955007
3.020649
3.076824
3.126687
3.168345
3.199904
3.226098
3.244719
3.255765
3.257343
3.246298
3.230204
3.207797
3.177186
3.148468
3.117541
3.088823
3.057896
3.028547
2.995411
2.958488
2.920302
2.882748
2.845825
2.810795
2.781130
2.753359
2.736002
2.728113
2.729691
2.735688
2.750521
2.772297
2.794073
2.813009
2.833207
2.853720
2.870763
2.888120
2.906425
2.921574
2.934513
2.942088
2.950609
2.952503
2.954397
2.954082
2.950927
2.951558
2.948087
2.947457
2.940514
2.936728
2.924736
2.908010
2.887497
2.860989
2.831324
2.797872
2.764105
2.730022
2.697833
2.666274
2.634401
2.608839
2.582014
2.557083
2.534677
2.508799
2.488602
2.468721
2.451680
2.435270
2.422647
2.410970
2.402766
2.398348
2.398664
2.405923
2.421703
2.447581
2.487346
2.537840
2.605376
2.687745
2.781159
2.887828
2.994812
3.104637
3.210044
3.309454
3.400659
3.479241
3.545199
3.594746
3.629777
3.651237
3.654078
3.648714
3.627885
3.597905
3.559404
3.507017
3.446740
3.377627
3.296522
3.208789
3.114745
3.013127
2.909930
2.807049
2.706062
2.606653
2.513871
2.423298
2.336512
2.250673
2.165465
2.078048
1.988421
1.895324
1.801279
1.705341
1.609088
1.510625
1.409954
1.317487
1.235751
1.162219
1.095947
1.038195
0.983914
0.934368
0.890502
0.850422
0.811290
0.768371
0.718824
0.669593
0.612472
0.550302
0.484976
0.413970
0.338861
0.258702
0.175072
0.094282
0.017279
-0.056567
-0.125049
-0.189113
-0.248443
-0.302723
-0.351007
-0.390140
-0.420120
-0.443157
-0.449784
-0.444103
-0.423590
-0.389190
-0.345007
-0.292304
-0.231395
-0.159441
-0.078966
0.008768
0.107231
0.208535
0.318044
0.425976
0.533907
0.641207
0.736199
0.823617
0.900621
0.967210
1.023069
1.071039
1.109857
1.140784
1.166032
1.184968
1.192858
1.192858
1.181498
1.165403
1.139210
1.107652
1.074831
1.036330
0.995935
0.954910
0.909781
0.861812
0.811950
0.761457
0.709701
0.659523
0.607767
0.555381
0.509621
0.461021
0.418102
0.376129
0.340468
0.311435
0.291553
0.283033
0.283033
0.289030
0.305125
0.327533
0.356252
0.389073
0.424419
0.461028
0.500477
0.545606
0.590104
0.640599
0.692040
0.748530
0.807861
0.870979
0.936937
1.004158
1.067907
1.127553
1.184675
1.242428
1.295447
1.346257
1.392648
1.433360
1.469021
1.496162
1.516360
1.531509
1.537506
1.535613
1.523936
1.499952
1.466185
1.419478
1.366460
1.301766
1.231075
1.151232
1.069811
0.987127
0.900657
0.813240
0.721720
0.627360
0.533632
0.439903
0.353748
0.272643
0.199111
0.133470
0.074771
0.024278
-0.022744
-0.063454
-0.105111
-0.140457
-0.174224
-0.208307
-0.238287
-0.264796
-0.289727
-0.307715
-0.325703
-0.336432
-0.343059
-0.344321
-0.344005
-0.339271
-0.332643
-0.326646
-0.316231
-0.306763
-0.296664
-0.284356
-0.275203
-0.274256
-0.275833
-0.287194
-0.303604
-0.327272
-0.351257
-0.378712
-0.408692
-0.438988
-0.467075
-0.494215
-0.516306
-0.533662
-0.542814
-0.543445
-0.537448
-0.524193
-0.502101
-0.470227
-0.435512
-0.389751
-0.342412
-0.287184
-0.226276
-0.164420
-0.101933
-0.041025
0.015781
0.068485
0.110774
0.146120
0.164425
0.169790
0.165688
0.151803
0.133499
0.103519
0.065965
0.018311
-0.035338
-0.094036
-0.157785
-0.219639
-0.278653
-0.337036
-0.390686
-0.442126
-0.487254
-0.528911
-0.562994
-0.593921
-0.620746
-0.645045
-0.668083
-0.686071
-0.701218
-0.718891
-0.732460
-0.748239
-0.762440
-0.772223
-0.779165
-0.779480
-0.782005
-0.778533
-0.772221
-0.764015
-0.758334
-0.752022
-0.749181
-0.754230
-0.764012
-0.778844
-0.807247
-0.843854
-0.892454
-0.949891
-1.014270
-1.081805
-1.149340
-1.214350
-1.276205
-1.334904
-1.385397
-1.429263
-1.463030
-1.487330
-1.499322
-1.501531
-1.493956
-1.481963
-1.459241
-1.431153
-1.399594
-1.364563
-1.330479
-1.301760
-1.271148
-1.244638
-1.225071
-1.211816
-1.205819
-1.201716
-1.196351
-1.190039
-1.182149
-1.167000
-1.150589
-1.123132
-1.087155
-1.040448
-0.987429
-0.926835
-0.859931
-0.790501
-0.718862
-0.646592
-0.574007
-0.497950
-0.429467
-0.365403
-0.308596
-0.261889
-0.224018
-0.194353
-0.171314
-0.156166
-0.147644
-0.144804
-0.142278
-0.142278
-0.138175
-0.133441
-0.128391
-0.124603
-0.119238
-0.121762
-0.124286
-0.125232
-0.126179
-0.128387
-0.131858
-0.138801
-0.145743
-0.155841
-0.169727
-0.186137
-0.206018
-0.225584
-0.248622
-0.269765
-0.294065
-0.318049
-0.346452
-0.374854
-0.403887
-0.435130
-0.468897
-0.498246
-0.527280
-0.553158
-0.576826
-0.594814
-0.604281
-0.609961
-0.608383
-0.596390
-0.576508
-0.549051
-0.514652
-0.477727
-0.433545
-0.387784
-0.336659
-0.281115
-0.216735
-0.152039
-0.078822
-0.001187
0.077710
0.159447
0.243078
0.326709
0.410340
0.492709
0.570028
0.644823
0.713937
0.776739
0.833545
0.880568
0.914652
0.938637
0.943056
0.932326
0.907080
0.865423
0.809880
0.741714
0.664395
0.580765
0.486721
0.391099
0.294845
0.200801
0.106756
0.016814
-0.069340
-0.151392
-0.222399
-0.283622
-0.334116
-0.370723
-0.392814
-0.399756
-0.389973
-0.364725
-0.319911
-0.268155
-0.203143
-0.128664
-0.049767
0.031655
0.118126
0.201757
0.285388
0.367125
0.446654
0.525235
0.598768
0.664095
0.719007
0.770448
0.814631
0.858182
0.897631
0.935502
0.968639
0.995149
1.011560
1.021344
1.018820
1.002725
0.974954
0.936768
0.886591
0.825998
0.758463
0.686826
0.616135
0.547337
0.481380
0.420157
0.367138
0.325797
0.297079
0.278144
0.273411
0.280039
0.298659
0.334952
0.387024
0.449195
0.526199
0.610146
0.704822
0.803601
0.903012
1.002422
1.098992
1.193037
1.289607
1.381444
1.464128
1.541132
1.607405
1.657269
1.695139
1.723227
1.735851
1.739323
1.728909
1.709974
1.681257
1.643702
1.597943
1.546818
1.481808
1.408276
1.325909
1.237229
1.142869
1.039042
0.928587
0.808980
0.685901
0.557774
0.433433
0.311932
0.189170
0.071141
-0.042470
-0.152609
-0.250756
-0.347957
-0.438214
-0.521213
-0.592219
-0.648709
-0.694153
-0.724449
-0.739281
-0.741174
-0.732337
-0.714348
-0.680896
-0.634819
-0.577698
-0.509530
-0.437261
-0.356154
-0.271577
-0.182896
-0.087904
0.011191
0.111232
0.217585
0.322361
0.426505
0.527809
0.625641
0.716846
0.802371
0.880637
0.945648
0.996143
1.028964
1.041904
1.035908
1.010661
0.964902
0.903678
0.821311
0.727898
0.626279
0.519296
0.411997
0.309431
0.208444
0.113137
0.021302
-0.063590
-0.139962
-0.208759
-0.266196
-0.311324
-0.349510
-0.378859
-0.398425
-0.410101
-0.407260
-0.398423
-0.382959
-0.370019
-0.358342
-0.351714
-0.346665
-0.347611
-0.352660
-0.358340
-0.365913
-0.372225
-0.375696
-0.377273
-0.377904
-0.380428
-0.382637
-0.389895
-0.403780
-0.423661
-0.448908
-0.475101
-0.505713
-0.534430
-0.564411
-0.593129
-0.621531
