EVENT_NAME: 202302060117
EVENT_ID: 13194
EVENT_DATE_YYYYMMDD: 2023/02/06
EVENT_TIME_HHMMSS: 01:17:32.00000
EVENT_LATITUDE_DEGREE: 37.288
EVENT_LONGITUDE_DEGREE: 37.043
EVENT_DEPTH_KM: 8.6
HYPOCENTER_REFERENCE: AFAD
MAGNITUDE_W: 7.7
MAGNITUDE_W_REFERENCE: AFAD
MAGNITUDE_L: 
MAGNITUDE_L_REFERENCE: 
FOCAL_MECHANISM: 
NETWORK: TK
STATION_CODE: 5506
STATION_NAME: 
STATION_LATITUDE_DEGREE: 41.078162
STATION_LONGITUDE_DEGREE: 36.047875
STATION_ELEVATION_M: 620.0
LOCATION: Kahramanmaras_Pazarck_Turkiye
SENSOR_DEPTH_M: 
VS30_M/S: 1510
SITE_CLASSIFICATION_EC8: A
MORPHOLOGIC_CLASSIFICATION: 
EPICENTRAL_DISTANCE_KM: 430.08
EARTHQUAKE_BACKAZIMUTH_DEGREE: 
DATE_TIME_FIRST_SAMPLE_YYYYMMDD_HHMMSS: 2023/02/06 01:18:06.6779550
DATE_TIME_FIRST_SAMPLE_PRECISION: millisecond
SAMPLING_INTERVAL_S: 0.01
NDATA: 21001
DURATION_S: 
STREAM: HNE
UNITS: cm/s^2
INSTRUMENT: sensor = ACEBOX/SARA | digitizer = 
INSTRUMENT_ANALOG/DIGITAL: 
INSTRUMENTAL_FREQUENCY_HZ: 
INSTRUMENTAL_DAMPING: 
FULL_SCALE_G: 
N_BIT_DIGITAL_CONVERTER: 
PGA_CM/S^2: 3.014
TIME_PGA_S: 
BASELINE_CORRECTION: BASELINE REMOVED
FILTER_TYPE: BUTTERWORTH
FILTER_ORDER: 
LOW_CUT_FREQUENCY_HZ: 
HIGH_CUT_FREQUENCY_HZ: 
LATE/NORMAL_TRIGGERED: 
DATABASE_VERSION: 
HEADER_FORMAT: DYNA 1.2
DATA_TYPE: Acceleration
PROCESSING: Automatic Paolucci et al., 2011
DATA_TIMESTAMP_YYYYMMDD_HHMMSS: 
DATA_LICENSE: U (unknown license)
DATA_CITATION: Turkish Accelerometric Archive v 1.0 - Disaster And Emergency Management Presidency, Earthquake Department
DATA_CREATOR: AFAD
ORIGINAL_DATA_MEDIATOR_CITATION: : AFAD - Disaster And Emergency Management Presidency
ORIGINAL_DATA_MEDIATOR: AFAD PROCESS SERVICE
ORIGINAL_DATA_CREATOR_CITATION: AFAD PROCESS SERVICE
ORIGINAL_DATA_CREATOR: network: TK
USER1: GuestUser
USER2: 
USER3: 
USER4: 
USER5: 
[...]
1.473777
1.471906
1.477985
1.476115
1.474011
1.483363
1.482194
1.481726
1.491312
1.493416
1.497858
1.506743
1.509548
1.511887
1.517030
1.519368
1.521005
1.520537
1.514926
1.516563
1.517966
1.510017
1.513524
1.515394
1.507913
1.514459
1.517732
1.516096
1.521239
1.521006
1.521240
1.519837
1.512122
1.505575
1.494119
1.482196
1.468636
1.446425
1.423980
1.399198
1.372311
1.342385
1.307082
1.273182
1.236008
1.196730
1.153945
1.105315
1.059491
1.010394
0.961764
0.921317
0.876428
0.827097
0.778701
0.737787
0.700847
0.654321
0.614576
0.587689
0.554724
0.524564
0.502353
0.475934
0.450684
0.431981
0.414680
0.397613
0.381948
0.370960
0.357867
0.344307
0.338696
0.330046
0.321161
0.316719
0.308770
0.300821
0.291937
0.286326
0.283053
0.272298
0.264817
0.258504
0.249152
0.245646
0.241203
0.235359
0.233956
0.231150
0.226007
0.218759
0.211044
0.201926
0.187664
0.173403
0.157739
0.141373
0.126644
0.109109
0.092042
0.081989
0.072169
0.063986
0.058141
0.052063
0.051361
0.049959
0.045283
0.042477
0.038737
0.038971
0.038737
0.035230
0.037568
0.038503
0.040374
0.049492
0.051362
0.049726
0.056740
0.063520
0.065858
0.068664
0.068664
0.071703
0.078483
0.074743
0.071236
0.075912
0.071703
0.065157
0.067963
0.069833
0.069366
0.072873
0.080588
0.087602
0.094616
0.107943
0.121035
0.130855
0.148624
0.164990
0.175043
0.197020
0.218529
0.236532
0.265055
0.293111
0.319998
0.351326
0.379850
0.411646
0.447651
0.480850
0.511946
0.546314
0.588631
0.630949
0.672097
0.718389
0.764915
0.810038
0.856096
0.904258
0.958031
1.010402
1.058331
1.116079
1.174528
1.225262
1.286049
1.345668
1.394765
1.451578
1.503481
1.548604
1.604949
1.654514
1.697533
1.747566
1.790117
1.835240
1.886208
1.925018
1.963127
2.004743
2.040281
2.075116
2.113225
2.145489
2.170740
2.201835
2.231761
2.251400
2.272442
2.288574
2.305875
2.325982
2.331125
2.344685
2.359649
2.357311
2.367130
2.370871
2.362454
2.371806
2.369936
2.354038
2.348193
2.337438
2.325281
2.313825
2.291147
2.268702
2.246959
2.217267
2.185704
2.153441
2.120241
2.087977
2.052440
2.016202
1.982301
1.946764
1.906084
1.864468
1.827528
1.792458
1.755051
1.716474
1.676027
1.638854
1.606824
1.573157
1.539724
1.512136
1.484314
1.452985
1.424930
1.405291
1.382613
1.359934
1.346140
1.329541
1.311772
1.298680
1.286756
1.278106
1.269455
1.261740
1.255895
1.252622
1.253791
1.250050
1.248414
1.255895
1.259169
1.267352
1.280678
1.289563
1.303590
1.319723
1.333049
1.351285
1.368820
1.381913
1.395473
1.411138
1.426802
1.440830
1.452754
1.462106
1.470289
1.481979
1.494136
1.504423
1.514944
1.522426
1.530141
1.537623
1.542065
1.550716
1.556093
1.556327
1.555859
1.552352
1.550248
1.542533
1.532480
1.530142
1.525232
1.521492
1.518686
1.513777
1.512608
1.506763
1.504892
1.511205
1.510504
1.510504
1.513777
1.516115
1.520557
1.521259
1.526870
1.535287
1.538092
1.544639
1.552588
1.556796
1.563109
1.571759
1.576435
1.578306
1.585320
1.589061
1.589295
1.598647
1.601452
1.599114
1.604726
1.605193
1.601920
1.601686
1.599816
1.597478
1.589997
1.580645
1.571994
1.561240
1.551654
1.544407
1.539263
1.527807
1.513078
1.507233
1.496478
1.483386
1.476372
1.460942
1.445745
1.435692
1.420729
1.403428
1.385893
1.369995
1.350590
1.324171
1.303363
1.286529
1.262682
1.237198
1.220131
1.201428
1.175242
1.151863
1.124508
1.092244
1.063721
1.032393
0.997323
0.961084
0.922742
0.884633
0.841147
0.791816
0.742718
0.695257
0.641718
0.585840
0.534873
0.478294
0.416104
0.353446
0.287282
0.221585
0.152147
0.082475
0.018415
-0.051490
-0.118824
-0.180312
-0.246477
-0.303290
-0.354024
-0.413408
-0.473260
-0.528670
-0.582677
-0.636684
-0.694432
-0.748673
-0.797069
-0.842893
-0.886379
-0.931502
-0.971481
-1.004213
-1.039750
-1.071312
-1.099602
-1.134204
-1.166702
-1.192419
-1.218371
-1.247128
-1.271442
-1.291081
-1.308148
-1.317500
-1.331528
-1.350699
-1.356310
-1.357246
-1.362857
-1.365662
-1.366130
-1.360051
-1.354206
-1.354440
-1.344620
-1.331761
-1.326384
-1.310485
-1.287807
-1.274013
-1.258582
-1.235670
-1.210420
-1.180260
-1.152438
-1.128357
-1.099132
-1.067803
-1.039046
-1.006782
-0.966803
-0.927057
-0.890351
-0.848969
-0.808989
-0.769711
-0.729498
-0.691155
-0.648370
-0.603715
-0.560930
-0.520717
-0.484010
-0.444499
-0.405454
-0.367579
-0.328769
-0.293465
-0.258162
-0.224261
-0.189659
-0.149913
-0.116247
-0.086320
-0.054056
-0.025533
-0.000517
0.022162
0.047178
0.072896
0.091600
0.111239
0.130176
0.143971
0.161739
0.177871
0.185353
0.197510
0.208031
0.209902
0.212707
0.219254
0.220657
0.215981
0.219020
0.223930
0.215747
0.205460
0.198914
0.189796
0.179275
0.164780
0.152389
0.139062
0.122463
0.110773
0.094875
0.081548
0.070794
0.046713
0.025905
0.010708
-0.011736
-0.033012
-0.054989
-0.072991
-0.090292
-0.118114
-0.139857
-0.152482
-0.171653
-0.192695
-0.208359
-0.228933
-0.251612
-0.267042
-0.283408
-0.301644
-0.316373
-0.333440
-0.351910
-0.367107
-0.381135
-0.398202
-0.412931
-0.420412
-0.433505
-0.449169
-0.457118
-0.470211
-0.486343
-0.497331
-0.504579
-0.510424
-0.519308
-0.528192
-0.534271
-0.535907
-0.534972
-0.543623
-0.550403
-0.551104
-0.556247
-0.555546
-0.561858
-0.570275
-0.568405
-0.576120
-0.581731
-0.585705
-0.600435
-0.604409
-0.609553
-0.617268
-0.620541
-0.631997
-0.637374
-0.641816
-0.650700
-0.651869
-0.659351
-0.667300
-0.671976
-0.681561
-0.688341
-0.699564
-0.715696
-0.724112
-0.732996
-0.743283
-0.747492
-0.754038
-0.762922
-0.759649
-0.753570
-0.754739
-0.748426
-0.742114
-0.741412
-0.729255
-0.714058
-0.707979
-0.696055
-0.680859
-0.672676
-0.657946
-0.643685
-0.639476
-0.626617
-0.616330
-0.612823
-0.598561
-0.595054
-0.597626
-0.589209
-0.584767
-0.582663
-0.581026
-0.580091
-0.578220
-0.580558
-0.578688
-0.578688
-0.580324
-0.573077
-0.573076
-0.572141
-0.561386
-0.553437
-0.542916
-0.535435
-0.525381
-0.507847
-0.497326
-0.478154
-0.450332
-0.432096
-0.411522
-0.384869
-0.359385
-0.336940
-0.312625
-0.287609
-0.268671
-0.247863
-0.227523
-0.213261
-0.193388
-0.176087
-0.167203
-0.154344
-0.139615
-0.125820
-0.116235
-0.112728
-0.102440
-0.090984
-0.088413
-0.084672
-0.081866
-0.084204
-0.082100
-0.074151
-0.069942
-0.072514
-0.074150
-0.072514
-0.072046
-0.074852
-0.081632
-0.089347
-0.095192
-0.099868
-0.108284
-0.122078
-0.135405
-0.146627
-0.160421
-0.180293
-0.196659
-0.207414
-0.229391
-0.255576
-0.267733
-0.285268
-0.317064
-0.339743
-0.357277
-0.385800
-0.411518
-0.431625
-0.454069
-0.473240
-0.493581
-0.513921
-0.528884
-0.549692
-0.568162
-0.581488
-0.603699
-0.618428
-0.625909
-0.642743
-0.654199
-0.661446
-0.672435
-0.682020
-0.693710
-0.703530
-0.713817
-0.729013
-0.739534
-0.749120
-0.762914
-0.779046
-0.795645
-0.808504
-0.822532
-0.838897
-0.851055
-0.863680
-0.882617
-0.895944
-0.900152
-0.913712
-0.927740
-0.932650
-0.940365
-0.949015
-0.952522
-0.954626
-0.956730
-0.954626
-0.949950
-0.952054
-0.948080
-0.934987
-0.923531
-0.910438
-0.896410
-0.877005
-0.855028
-0.839363
-0.815516
-0.786291
-0.763145
-0.736492
-0.705865
-0.677341
-0.650689
-0.620295
-0.588732
-0.561612
-0.527477
-0.487731
-0.450324
-0.404733
-0.359377
-0.318696
-0.272638
-0.231255
-0.192679
-0.153401
-0.120903
-0.080924
-0.040944
-0.010317
0.026156
0.060524
0.088346
0.117337
0.147029
0.177189
0.203375
0.224650
0.245458
0.267201
0.287074
0.301570
0.315598
0.329626
0.338510
0.342952
0.347161
0.351603
0.348330
0.346226
0.352304
0.352538
0.349265
0.346460
0.336874
0.324717
0.316066
0.306481
0.289647
0.278191
0.273983
0.261124
0.244992
0.232835
0.218573
0.204546
0.190050
0.174386
0.161293
0.148668
0.137446
0.125990
0.116171
0.110326
0.103546
0.093259
0.082972
0.071516
0.060060
0.050942
0.040421
0.028731
0.025224
0.027328
0.021717
0.018211
0.023120
0.027095
0.032706
0.035278
0.036915
0.049072
0.057021
0.062633
0.076427
0.090221
0.104716
0.118510
0.133240
0.155450
0.172985
0.185844
0.202678
0.222784
0.242190
0.255984
0.272583
0.293391
0.307653
0.324487
0.345762
0.359323
0.370545
0.384105
0.394626
0.402108
0.410758
0.419409
0.424085
0.427592
0.432736
0.442555
0.448868
0.450972
0.465234
0.478093
0.483470
0.492120
0.494459
0.494926
0.499368
0.504278
0.511292
0.511292
0.511994
0.519943
0.521346
0.522982
0.529529
0.535608
0.540050
0.543323
0.552909
0.564833
0.572080
0.582367
0.592888
0.601305
0.612761
0.625620
0.638713
0.657183
0.675185
0.692253
0.714230
0.732934
0.754209
0.783434
0.806112
0.834636
0.870641
0.899865
0.936338
0.979590
1.024246
1.073577
1.118934
1.170135
1.224376
1.269733
1.320935
1.370500
1.418896
1.472903
1.514753
1.555200
1.603362
1.645680
1.684724
1.717689
1.744810
1.773333
1.799519
1.821262
1.838329
1.850019
1.859605
1.867086
1.869424
1.870360
1.867087
1.854929
1.841135
1.818223
1.789466
1.768191
1.731017
1.685427
1.648721
1.598922
1.545616
1.497921
1.440641
1.381257
1.321639
1.257812
1.195154
1.134367
1.066566
0.994323
0.929093
0.865033
0.799102
0.736912
0.674488
0.613701
0.554083
0.493530
0.438120
0.382710
0.324962
0.278670
0.234950
0.182813
0.134184
0.090697
0.042535
-0.006095
-0.046541
-0.087456
-0.129072
-0.166479
-0.204354
-0.236384
-0.264206
-0.297172
-0.321720
-0.343697
-0.369882
-0.388820
-0.409394
-0.428098
-0.437683
-0.451711
-0.461530
-0.465972
-0.477428
-0.485144
-0.489586
-0.496366
-0.500340
-0.503613
-0.505484
-0.504782
-0.501977
-0.499639
-0.501275
-0.495430
-0.485844
-0.484675
-0.477895
-0.467374
-0.465270
-0.458256
-0.446098
-0.433707
-0.420147
-0.409626
-0.397001
-0.384609
-0.372919
-0.354683
-0.338785
-0.323354
-0.303715
-0.289921
-0.276361
-0.257657
-0.237784
-0.226796
-0.219080
-0.200844
-0.186816
-0.184946
-0.177464
-0.167411
-0.161566
-0.157825
-0.154785
-0.152915
-0.152447
-0.154785
-0.159227
-0.162734
-0.171852
-0.180503
-0.178398
-0.186347
-0.201310
-0.199440
-0.202479
-0.210662
-0.207623
-0.213000
-0.220247
-0.218377
-0.224456
-0.229833
-0.229833
-0.236847
-0.243159
-0.251810
-0.267006
-0.270747
-0.274955
-0.293191
-0.302076
-0.309090
-0.329664
-0.344393
-0.355147
-0.373383
-0.390451
-0.406816
-0.424351
-0.438846
-0.451939
-0.466201
-0.484437
-0.498932
-0.508518
-0.519974
-0.530261
-0.544288
-0.557615
-0.560420
-0.570941
-0.586372
-0.587541
-0.591983
-0.600633
-0.601568
-0.597827
-0.596658
-0.599931
-0.597827
-0.590346
-0.584033
-0.579591
-0.576551
-0.569771
-0.564394
-0.560653
-0.556211
-0.556444
-0.553639
-0.550132
-0.550833
-0.547092
-0.546157
-0.541715
-0.537273
-0.541247
-0.535402
-0.530258
-0.535168
-0.533298
-0.534700
-0.534700
-0.530024
-0.536103
-0.535402
-0.527452
-0.526751
-0.520672
-0.513190
-0.512021
-0.507813
-0.502202
-0.501734
-0.498461
-0.489343
-0.483030
-0.478354
-0.468301
-0.460819
-0.456143
-0.446090
-0.433699
-0.422476
-0.416164
-0.406344
-0.393018
-0.390212
-0.380626
-0.360753
-0.354441
-0.348829
-0.334568
-0.322644
-0.310954
-0.301135
-0.287574
-0.274482
-0.270039
-0.259518
-0.246659
-0.238710
-0.229125
-0.218837
-0.205745
-0.195925
-0.186807
-0.174649
-0.174416
-0.171142
-0.166934
-0.173948
-0.173948
-0.177221
-0.188677
-0.192885
-0.198964
-0.206445
-0.216732
-0.229591
-0.239410
-0.252269
-0.267232
-0.281494
-0.296924
-0.316329
-0.342515
-0.368232
-0.391612
-0.420369
-0.454503
-0.488404
-0.521135
-0.554101
-0.587534
-0.626578
-0.664920
-0.700925
-0.737865
-0.772467
-0.810576
-0.851490
-0.889833
-0.928877
-0.967921
-1.009537
-1.046477
-1.081312
-1.124565
-1.159167
-1.186053
-1.224162
-1.256894
-1.283313
-1.316044
-1.346204
-1.373091
-1.402549
-1.428033
-1.454920
-1.482040
-1.501445
-1.524591
-1.547269
-1.561765
-1.580702
-1.600341
-1.614369
-1.630033
-1.647802
-1.662297
-1.672116
-1.683105
-1.699003
-1.710225
-1.719109
-1.730098
-1.738982
-1.748334
-1.756049
-1.760491
-1.767037
-1.771947
-1.772648
-1.778026
-1.782702
-1.782468
-1.789014
-1.797431
-1.796028
-1.796729
-1.800236
-1.798366
-1.798833
-1.799768
-1.795560
-1.792988
-1.794858
-1.795560
-1.796495
-1.801404
-1.802807
-1.803976
-1.809353
-1.812393
-1.816835
-1.822679
-1.826420
-1.830395
-1.830395
-1.831096
-1.834369
-1.836473
-1.840214
-1.840447
-1.842084
-1.848630
-1.848864
-1.848396
-1.852605
-1.855644
-1.856813
-1.858917
-1.864996
-1.866398
-1.864995
-1.867333
-1.867801
-1.862891
-1.854942
-1.849097
-1.844888
-1.835536
-1.827120
-1.821742
-1.814962
-1.807481
-1.797427
-1.787140
-1.774983
-1.763059
-1.756279
-1.743887
-1.729626
-1.722144
-1.710220
-1.697595
-1.694088
-1.687776
-1.676319
-1.675150
-1.678891
-1.676085
-1.676319
-1.687307
-1.697127
-1.707180
-1.722844
-1.740847
-1.760486
-1.781294
-1.803270
-1.829689
-1.859382
-1.889074
-1.920169
-1.955005
-1.993113
-2.033093
-2.073306
-2.113753
-2.152329
-2.192308
-2.239302
-2.282788
-2.320663
-2.365552
-2.409038
-2.446212
-2.486659
-2.522196
-2.552122
-2.590932
-2.622728
-2.647978
-2.679307
-2.704090
-2.729573
-2.754590
-2.769553
-2.791296
-2.809298
-2.820520
-2.841094
-2.854421
-2.864941
-2.884347
-2.895335
-2.905622
-2.921053
-2.930638
-2.943965
-2.955187
-2.959161
-2.971786
-2.982541
-2.984411
-2.990490
-2.997036
-3.000543
-3.006855
-3.010830
-3.010362
-3.012934
-3.014103
-3.008024
-3.007089
-3.007322
-2.996568
-2.990489
-2.984644
-2.969213
-2.961030
-2.952146
-2.936949
-2.926194
-2.914271
-2.900476
-2.886215
-2.870784
-2.850677
-2.830337
-2.815841
-2.792929
-2.764874
-2.742195
-2.712035
-2.682577
-2.649845
-2.608229
-2.570354
-2.528738
-2.482446
-2.437791
-2.388459
-2.339128
-2.286056
-2.230178
-2.175703
-2.117488
-2.059038
-2.001524
-1.941205
-1.882755
-1.824773
-1.762349
-1.699925
-1.643113
-1.584196
-1.524577
-1.471505
-1.416095
-1.359984
-1.308782
-1.259217
-1.214094
-1.168036
-1.121978
-1.084336
-1.043422
-1.001104
-0.963931
-0.925120
-0.891453
-0.859891
-0.821080
-0.792323
-0.767774
-0.735043
-0.710026
-0.692491
-0.670047
-0.649473
-0.637315
-0.626560
-0.609025
-0.597569
-0.592659
-0.581203
-0.572319
-0.567175
-0.559694
-0.550576
-0.540522
-0.535846
-0.529534
-0.516909
-0.511297
-0.503816
-0.491424
-0.483709
-0.477396
-0.472720
-0.463135
-0.455419
-0.455887
-0.442794
-0.430870
-0.427597
-0.407724
-0.390189
-0.379201
-0.356289
-0.336416
-0.315842
-0.290591
-0.267212
-0.239623
-0.209230
-0.176966
-0.144234
-0.110567
-0.072458
-0.037622
-0.000682
0.038596
0.072730
0.111774
0.153157
0.187291
0.226102
0.269822
0.307697
0.343468
0.381811
0.417582
0.451483
0.483513
0.514140
0.546638
0.576331
0.601347
0.628234
0.653250
0.673357
0.696035
0.720818
0.739522
0.758693
0.781371
0.799140
0.817376
0.837951
0.855485
0.872553
0.888217
0.905986
0.924222
0.937782
0.956954
0.974255
0.987114
1.006987
1.022885
1.036913
1.055383
1.070346
1.085777
1.099337
1.111728
1.126458
1.136277
1.146798
1.158722
1.168308
1.177660
1.186310
1.197532
1.204546
1.204079
1.207820
1.209924
1.206183
1.206183
1.206183
1.199170
1.188883
1.179765
1.169478
1.154515
1.136746
1.118978
1.104248
1.083441
1.057021
1.036447
1.016107
0.992260
0.970517
0.949709
0.927498
0.905054
0.884947
0.866010
0.851514
0.834213
0.812938
0.803586
0.791429
0.776232
0.771790
0.758230
0.747241
0.746774
0.735084
0.725732
0.721992
0.714043
0.709834
0.704691
0.696742
0.694170
0.691598
0.681779
0.675934
0.674064
0.660737
0.653022
0.653490
0.641566
0.628240
0.622629
0.617018
0.609536
0.600418
0.594340
0.589664
0.583351
0.577273
0.570259
0.562777
0.558101
0.555530
0.549919
0.545009
0.547581
0.547815
0.545477
0.547815
0.551556
0.554829
0.556232
0.562544
0.566285
0.563246
0.570494
0.581015
0.582417
0.586626
0.591302
0.594575
0.601823
0.605797
0.611409
0.620293
0.624268
0.633152
0.645076
0.650453
0.661442
0.675470
0.683419
0.694641
0.709137
0.716618
0.723866
0.736257
0.746077
0.751922
0.761975
0.772262
0.779978
0.794006
0.804293
0.811541
0.829543
0.844272
0.856897
0.875835
0.890097
0.904592
0.925868
0.944572
0.961639
0.981512
1.003255
1.024063
1.041364
1.060769
1.081344
1.098177
1.115478
1.133013
1.149379
1.169018
1.186319
1.205958
1.226766
1.238690
1.259030
1.282644
1.291996
1.308128
1.324494
1.331742
1.347874
1.361668
1.368214
1.386217
1.402583
1.408895
1.421754
1.436016
1.443030
1.454953
1.468280
1.474359
1.485114
1.496803
1.500077
1.507792
1.516209
1.518313
1.523457
1.524626
1.522522
1.522288
1.516209
1.507793
1.495869
1.479270
1.467814
1.450980
1.427133
1.409131
1.390894
1.368450
1.348811
1.325198
1.298779
1.277036
1.251786
1.225600
1.202922
1.173230
1.147278
1.126704
1.099350
1.074801
1.053760
1.032718
1.012845
0.992271
0.979413
0.963748
0.943642
0.935459
0.927276
0.915352
0.911378
0.909274
0.902026
0.902961
0.909975
0.910677
0.917223
0.926809
0.934758
0.950423
0.962346
0.974270
0.992039
1.008639
1.026407
1.038565
1.055866
1.081817
1.097949
1.116186
1.135825
1.152658
1.172765
1.188196
1.204795
1.218356
1.230981
1.250152
1.257867
1.269324
1.288963
1.299250
1.313979
1.329877
1.344840
1.362142
1.377806
1.399315
1.418954
1.436489
1.463844
1.489094
1.509200
1.535386
1.567416
1.595939
1.624930
1.660234
1.692030
1.723593
1.758897
1.793966
1.828334
1.862235
1.901046
1.937518
1.967210
2.006488
2.044130
2.071250
2.104450
2.141623
2.169913
2.194462
2.224154
2.252444
2.277226
2.301541
2.323518
2.344794
2.367940
2.386877
2.401607
2.422882
2.444859
2.457718
2.475487
2.493022
2.504946
2.522714
2.533235
2.539782
2.554745
2.562694
2.569006
2.582567
2.591217
2.598699
2.608285
2.614363
2.618572
2.623014
2.626054
2.626755
2.625118
2.623014
2.619274
2.611558
2.603376
2.596596
2.587244
2.578593
2.569709
2.554980
2.541887
2.532536
2.516170
2.496297
2.482737
2.469177
2.446732
2.426860
2.411195
2.386179
2.363033
2.344096
2.317443
2.296635
2.271852
2.239589
2.218079
2.190024
2.157526
2.132042
2.096973
2.063072
2.032912
1.990829
1.950850
1.918586
1.879541
1.836055
1.796076
1.759837
1.722898
1.683152
1.650421
1.622365
1.586126
1.557603
1.536328
1.507337
1.486529
1.470397
1.453330
1.442809
1.429249
1.423638
1.420131
1.404233
1.404934
1.411715
1.402830
1.402363
1.409611
1.410780
1.413118
1.416859
1.422236
1.430653
1.438368
1.447486
1.454033
1.459878
1.473438
1.487700
1.497753
1.509443
1.521133
1.534226
1.548487
1.558073
1.568126
1.582388
1.591974
1.601326
1.615821
1.625641
1.634058
1.647150
1.658607
1.670063
1.677544
1.679882
1.686896
1.692040
1.695781
1.698353
1.697885
1.701626
1.702327
1.698820
1.700925
1.699990
1.694612
1.691339
1.685261
1.675675
1.667492
1.660011
1.650659
1.640372
1.630085
1.616057
1.600860
1.588469
1.572103
1.553400
1.536800
1.519265
1.496353
1.472506
1.451464
1.425747
1.398626
1.374312
1.344386
1.311186
1.278689
1.243152
1.206913
1.174649
1.137709
1.096093
1.059621
1.021278
0.980130
0.942723
0.900639
0.856452
0.817641
0.774155
0.724824
0.681104
0.638553
0.589455
0.548541
0.512069
0.462971
0.418550
0.382545
