EVENT_NAME: 202302060117
EVENT_ID: 13194
EVENT_DATE_YYYYMMDD: 2023/02/06
EVENT_TIME_HHMMSS: 01:17:32.00000
EVENT_LATITUDE_DEGREE: 37.288
EVENT_LONGITUDE_DEGREE: 37.043
EVENT_DEPTH_KM: 8.6
HYPOCENTER_REFERENCE: AFAD
MAGNITUDE_W: 7.7
MAGNITUDE_W_REFERENCE: AFAD
MAGNITUDE_L: 
MAGNITUDE_L_REFERENCE: 
FOCAL_MECHANISM: 
NETWORK: TK
STATION_CODE: 5603
STATION_NAME: 
STATION_LATITUDE_DEGREE: 37.74845
STATION_LONGITUDE_DEGREE: 42.176023
STATION_ELEVATION_M: 1170.0
LOCATION: Kahramanmaras_Pazarck_Turkiye
SENSOR_DEPTH_M: 
VS30_M/S: None
SITE_CLASSIFICATION_EC8: unknown
MORPHOLOGIC_CLASSIFICATION: 
EPICENTRAL_DISTANCE_KM: 455.54
EARTHQUAKE_BACKAZIMUTH_DEGREE: 
DATE_TIME_FIRST_SAMPLE_YYYYMMDD_HHMMSS: 2023/02/06 01:18:09.8255180
DATE_TIME_FIRST_SAMPLE_PRECISION: millisecond
SAMPLING_INTERVAL_S: 0.005
NDATA: 49001
DURATION_S: 
STREAM: HNE
UNITS: cm/s^2
INSTRUMENT: sensor = GEO-A200,/GEObit | digitizer = 
INSTRUMENT_ANALOG/DIGITAL: 
INSTRUMENTAL_FREQUENCY_HZ: 
INSTRUMENTAL_DAMPING: 
FULL_SCALE_G: 
N_BIT_DIGITAL_CONVERTER: 
PGA_CM/S^2: 14.625
TIME_PGA_S: 
BASELINE_CORRECTION: BASELINE REMOVED
FILTER_TYPE: BUTTERWORTH
FILTER_ORDER: 
LOW_CUT_FREQUENCY_HZ: 
HIGH_CUT_FREQUENCY_HZ: 
LATE/NORMAL_TRIGGERED: 
DATABASE_VERSION: 
HEADER_FORMAT: DYNA 1.2
DATA_TYPE: Acceleration
PROCESSING: Automatic Paolucci et al., 2011
DATA_TIMESTAMP_YYYYMMDD_HHMMSS: 
DATA_LICENSE: U (unknown license)
DATA_CITATION: Turkish Accelerometric Archive v 1.0 - Disaster And Emergency Management Presidency, Earthquake Department
DATA_CREATOR: AFAD
ORIGINAL_DATA_MEDIATOR_CITATION: : AFAD - Disaster And Emergency Management Presidency
ORIGINAL_DATA_MEDIATOR: AFAD PROCESS SERVICE
ORIGINAL_DATA_CREATOR_CITATION: AFAD PROCESS SERVICE
ORIGINAL_DATA_CREATOR: network: TK
USER1: GuestUser
USER2: 
USER3: 
USER4: 
USER5: 
[...]
3.838527
4.026153
4.211661
4.404937
4.607395
4.809853
4.977940
5.053979
5.016548
4.879300
4.669780
4.424476
4.140329
3.798505
3.413365
2.997620
2.561394
2.127522
1.723548
1.366893
1.055673
0.795068
0.583664
0.418402
0.301400
0.224654
0.174746
0.124603
0.056803
-0.032185
-0.134591
-0.223107
-0.290201
-0.324572
-0.296322
-0.194151
-0.015000
0.227008
0.505505
0.808485
1.119470
1.437517
1.754386
2.051011
2.318443
2.543736
2.746429
2.902981
3.000678
3.071303
3.080955
3.044701
2.975724
2.849541
2.703112
2.535260
2.342926
2.156005
1.975912
1.816300
1.638796
1.414915
1.173849
0.926427
0.694072
0.485258
0.301398
0.143198
-0.003231
-0.152249
-0.309272
-0.493838
-0.728783
-1.014107
-1.350517
-1.700580
-2.036519
-2.316900
-2.516297
-2.654722
-2.721815
-2.752184
-2.761365
-2.758776
-2.795972
-2.870363
-2.974417
-3.070702
-3.120140
-3.151921
-3.190058
-3.265391
-3.385218
-3.519170
-3.649591
-3.747288
-3.805436
-3.835334
-3.836511
-3.832038
-3.832274
-3.828507
-3.822151
-3.820739
-3.823328
-3.828507
-3.830155
-3.808026
-3.759060
-3.689848
-3.617810
-3.564136
-3.517288
-3.489744
-3.491863
-3.506459
-3.518701
-3.485742
-3.390870
-3.235260
-3.014204
-2.751009
-2.457681
-2.143872
-1.807933
-1.447747
-1.075790
-0.681468
-0.272550
0.150963
0.602255
1.057079
1.507430
1.931414
2.294661
2.596464
2.845298
3.069414
3.269282
3.426776
3.540952
3.602867
3.615579
3.595569
3.567790
3.541423
3.499990
3.425833
3.285996
3.059762
2.751602
2.381528
1.977554
1.545566
1.060138
0.494198
-0.157198
-0.874275
-1.608302
-2.308901
-2.941699
-3.507168
-4.036148
-4.536642
-4.997351
-5.402738
-5.711133
-5.897818
-5.956672
-5.896405
-5.747622
-5.493138
-5.121416
-4.661884
-4.140909
-3.613812
-3.113789
-2.651432
-2.233804
-1.839718
-1.469173
-1.114872
-0.776108
-0.460180
-0.158377
0.106701
0.322107
0.486898
0.599662
0.673112
0.723020
0.769868
0.833195
0.932540
1.082971
1.287547
1.530967
1.794398
2.051943
2.267819
2.430491
2.543256
2.620707
2.681445
2.737709
2.796798
2.842705
2.864127
2.859654
2.829521
2.773257
2.681444
2.555732
2.394943
2.199783
1.983200
1.744724
1.492593
1.242346
0.994453
0.751268
0.508554
0.267253
0.037016
-0.176036
-0.357071
-0.512210
-0.656049
-0.785057
-0.890994
-0.964915
-0.997402
-0.971271
-0.884403
-0.755866
-0.606848
-0.460890
-0.321759
-0.180039
-0.020427
0.175204
0.399320
0.643682
0.904287
1.175251
1.456808
1.728243
1.968838
2.161408
2.286649
2.349270
2.375636
2.399884
2.436844
2.470980
2.466507
2.392822
2.247570
2.049349
1.821467
1.590759
1.389243
1.231279
1.122046
1.056835
1.018462
0.996804
0.965023
0.907111
0.829188
0.753855
0.721603
0.743261
0.807765
0.889219
0.976087
1.074726
1.202792
1.390184
1.622774
1.915632
2.282881
2.684736
3.097891
3.487504
3.872880
4.286035
4.710019
5.169316
5.669104
6.193375
6.702109
7.143514
7.526300
7.864357
8.171104
8.458076
8.713973
8.919727
9.059093
9.137957
9.154437
9.110649
9.015776
8.856871
8.624750
8.317532
7.956875
7.578562
7.195775
6.800041
6.365463
5.886391
5.357647
4.771696
4.139134
3.457369
2.744058
2.007442
1.239279
0.458169
-0.331652
-1.126651
-1.923770
-2.739251
-3.567209
-4.385280
-5.162152
-5.876640
-6.516736
-7.040537
-7.422146
-7.671452
-7.813878
-7.892743
-7.941945
-7.987380
-8.037995
-8.073072
-8.075661
-8.023635
-7.925937
-7.828004
-7.721361
-7.565986
-7.345401
-7.067375
-6.739676
-6.376665
-6.024953
-5.704788
-5.404162
-5.116719
-4.830688
-4.542775
-4.268044
-4.034512
-3.848769
-3.692688
-3.549320
-3.414897
-3.298131
-3.189133
-3.071425
-2.961015
-2.862141
-2.740431
-2.566694
-2.325863
-2.011348
-1.634682
-1.213288
-0.758935
-0.274684
0.233344
0.766325
1.310136
1.827345
2.293939
2.679551
2.964639
3.172276
3.328357
3.440886
3.504919
3.527989
3.523987
3.463015
3.323413
3.133432
2.912847
2.649652
2.347849
2.036629
1.725880
1.385233
0.998444
0.585524
0.161069
-0.273038
-0.712559
-1.150669
-1.583128
-2.000756
-2.372007
-2.668867
-2.892747
-3.045061
-3.118040
-3.100384
-2.986678
-2.798346
-2.546686
-2.250062
-1.940961
-1.613497
-1.247661
-0.837096
-0.414053
-0.033150
0.288428
0.558450
0.789629
1.022455
1.286592
1.566501
1.828990
2.049104
2.237907
2.431419
2.646825
2.882476
3.100236
3.242898
3.302458
3.286685
3.204996
3.070808
2.885771
2.652710
2.345727
1.941047
1.469744
0.986435
0.539145
0.142233
-0.191351
-0.444894
-0.635817
-0.803198
-0.979995
-1.168563
-1.348892
-1.497910
-1.605260
-1.672354
-1.712375
-1.742037
-1.756398
-1.744862
-1.701781
-1.646929
-1.592548
-1.538403
-1.505915
-1.469426
-1.384676
-1.233068
-1.009894
-0.741049
-0.449369
-0.152745
0.132579
0.407781
0.676626
0.940762
1.199484
1.447613
1.669139
1.855824
2.003901
2.102304
2.156685
2.179285
2.180698
2.165160
2.144679
2.135733
2.147033
2.183052
2.228016
2.268507
2.311118
2.373267
2.484384
2.655060
2.853751
3.032667
3.182156
3.320110
3.468658
3.633213
3.802242
3.977156
4.138887
4.246001
4.264834
4.203390
4.108753
4.011997
3.942314
3.917124
3.921126
3.916889
3.845793
3.667583
3.383436
3.019247
2.598794
2.129610
1.620876
1.078007
0.494882
-0.141212
-0.819211
-1.500034
-2.154255
-2.757626
-3.312266
-3.826650
-4.312078
-4.790914
-5.272575
-5.737757
-6.126900
-6.418580
-6.617036
-6.744867
-6.847038
-6.911777
-6.927785
-6.866577
-6.697784
-6.445889
-6.112305
-5.698443
-5.230437
-4.727588
-4.215088
-3.686814
-3.115930
-2.507145
-1.880938
-1.272623
-0.718219
-0.235616
0.177303
0.558913
0.948055
1.349204
1.735992
2.058512
2.272976
2.368084
2.369732
2.321236
2.251082
2.150559
1.975174
1.715511
1.396522
1.033040
0.645309
0.248163
-0.132034
-0.473388
-0.778722
-1.035326
-1.232840
-1.360671
-1.415523
-1.429412
-1.418348
-1.378563
-1.300404
-1.182461
-1.047097
-0.894783
-0.711629
-0.492457
-0.233264
0.053708
0.367046
0.726291
1.135679
1.591209
2.085583
2.605381
3.135538
3.658397
4.148062
4.580992
4.937412
5.186011
5.295715
5.257106
5.103851
4.876909
4.613714
4.339925
4.054601
3.766217
3.473830
3.168731
2.862690
2.570774
2.312523
2.098765
1.920084
1.776951
1.654535
1.527645
1.395577
1.247029
1.079884
0.908737
0.745829
0.610464
0.472275
0.294771
0.091607
-0.127094
-0.364864
-0.661724
-1.052514
-1.528290
-2.072807
-2.639689
-3.183265
-3.690822
-4.162360
-4.608709
-5.041639
-5.471979
-5.888901
-6.273571
-6.625282
-6.948509
-7.243485
-7.505032
-7.736681
-7.949262
-8.140655
-8.307565
-8.435396
-8.501548
-8.512848
-8.495192
-8.464588
-8.433042
-8.414209
-8.408324
-8.414209
-8.432572
-8.459409
-8.502020
-8.536626
-8.513555
-8.412797
-8.239531
-8.014709
-7.776939
-7.543877
-7.319290
-7.108358
-6.898602
-6.665540
-6.385631
-6.055578
-5.674910
-5.242686
-4.774209
-4.288075
-3.801234
-3.332992
-2.901475
-2.497030
-2.099648
-1.712153
-1.312653
-0.851002
-0.296126
0.346559
1.044097
1.776711
2.537340
3.302207
4.080021
4.898091
5.754064
6.616628
7.433757
8.179790
8.858494
9.476226
10.019566
10.456027
10.759949
10.919090
10.929448
10.795025
10.551605
10.233087
9.841120
9.375938
8.819179
8.165664
7.444820
6.680660
5.901904
5.140333
4.410543
3.701706
2.986747
2.251543
1.509041
0.796202
0.139862
-0.450562
-0.979306
-1.469442
-1.945924
-2.405927
-2.831324
-3.213168
-3.563232
-3.909529
-4.249941
-4.572461
-4.861081
-5.083313
-5.230213
-5.287655
-5.255638
-5.140755
-4.939945
-4.651561
-4.267597
-3.818895
-3.339117
-2.837681
-2.337893
-1.879067
-1.483804
-1.137978
-0.813104
-0.489642
-0.188310
0.074414
0.292174
0.441192
0.528767
0.571142
0.585031
0.590446
0.567375
0.520292
0.490629
0.497456
0.537948
0.586208
0.625993
0.661541
0.682022
0.688378
0.701797
0.734990
0.798788
0.887775
0.989004
1.102710
1.236191
1.395803
1.590492
1.829439
2.116175
2.446228
2.803590
3.156714
3.491240
3.803872
4.080251
4.331675
4.552966
4.725996
4.850767
4.910327
4.892671
4.795208
4.631594
4.415482
4.144048
3.808109
3.386950
2.893047
2.361242
1.810604
1.241133
0.631170
-0.037176
-0.768614
-1.542897
-2.332482
-3.112180
-3.865511
-4.597890
-5.309317
-5.988728
-6.619878
-7.187466
-7.680898
-8.098526
-8.445529
-8.710843
-8.876812
-8.922718
-8.832789
-8.617383
-8.311578
-7.938679
-7.494920
-6.999370
-6.491813
-5.994614
-5.510364
-5.013401
-4.467706
-3.848092
-3.160206
-2.460785
-1.805623
-1.212610
-0.674685
-0.166186
0.320183
0.778067
1.199462
1.567652
1.868278
2.091688
2.245415
2.346408
2.396081
2.399612
2.365947
2.291556
2.186560
2.065792
1.935842
1.800713
1.678532
1.580835
1.473720
1.355542
1.223238
1.059153
0.877412
0.656591
0.402107
0.144326
-0.136290
-0.451747
-0.773326
-1.058179
-1.292183
-1.491109
-1.696157
-1.914623
-2.116610
-2.327542
-2.561546
-2.795314
-3.010249
-3.201171
-3.396096
-3.623272
-3.873755
-4.110113
-4.317750
-4.496666
-4.639799
-4.739615
-4.796821
-4.842021
-4.905348
-4.975267
-5.017406
-5.026588
-5.027765
-5.044715
-5.085442
-5.138175
-5.202444
-5.286723
-5.376181
-5.452691
-5.520726
-5.589939
-5.666449
-5.730718
-5.746020
-5.712591
-5.624310
-5.486121
-5.316150
-5.103099
-4.851910
-4.560936
-4.234885
-3.899182
-3.561596
-3.241901
-2.951868
-2.677138
-2.387576
-2.057052
-1.681564
-1.271705
-0.866789
-0.480472
-0.108044
0.237311
0.585256
0.957684
1.323521
1.673349
2.024118
2.371592
2.720479
3.073603
3.417781
3.755838
4.068941
4.356855
4.636058
4.867943
5.034147
5.150207
5.241077
5.319235
5.367260
5.395039
5.412695
5.436943
5.503801
5.608561
5.732625
5.870579
5.987345
6.072801
6.163907
6.259015
6.364010
6.444523
6.445700
6.389200
6.272669
6.112350
5.919780
5.679185
5.412223
5.114186
4.795198
4.490334
4.210895
3.949583
3.689449
3.412364
3.122331
2.846895
2.587702
2.319327
2.019407
1.706539
1.380724
1.042431
0.736625
0.465191
0.239191
0.044502
-0.123820
-0.233524
-0.299676
-0.324395
-0.343699
-0.353116
-0.334753
-0.294968
-0.205981
-0.106400
-0.029654
0.005422
-0.004465
-0.036953
-0.080505
-0.101457
-0.093453
-0.065203
-0.034363
0.006599
0.059097
0.128780
0.245311
0.365137
0.467308
0.545230
0.596551
0.653286
0.709786
0.779940
0.877167
1.006410
1.174262
1.360475
1.557048
1.762566
1.968319
2.181371
2.395364
2.599705
2.799808
2.972368
3.101141
3.191070
3.236269
3.247334
3.224969
3.151284
3.042757
2.911630
2.746133
2.570513
2.385476
2.160182
1.902637
1.606955
1.267014
0.898588
0.501441
0.090405
-0.301328
-0.680583
-1.064075
-1.430618
-1.764438
-2.068596
-2.358157
-2.655723
-2.968120
-3.298644
-3.654829
-4.008188
-4.334710
-4.658407
-4.986813
-5.324399
-5.671167
-6.008754
-6.339513
-6.658031
-6.958422
-7.235036
-7.492816
-7.738591
-7.976125
-8.206833
-8.405760
-8.575730
-8.730634
-8.851638
-8.930267
-8.973113
-8.976644
-8.931209
-8.820328
-8.637410
-8.393519
-8.118082
-7.853945
-7.608407
-7.385232
-7.178066
-6.969959
-6.765618
-6.548093
-6.312677
-6.062901
-5.795469
-5.519797
-5.220112
-4.893355
-4.557887
-4.225480
-3.896368
-3.581617
-3.313478
-3.105135
-2.964827
-2.882432
-2.821695
-2.784734
-2.783087
-2.807570
-2.872074
-2.973774
-3.110786
-3.292292
-3.492160
-3.701680
-3.908611
-4.091765
-4.271152
-4.449832
-4.618390
-4.778238
-4.917133
-5.030604
-5.108762
-5.152785
-5.177268
-5.183624
-5.178445
-5.151843
-5.102877
-5.059796
-5.025190
-4.974340
-4.896417
-4.787420
-4.642875
-4.491973
-4.359434
-4.240313
-4.143322
-4.080701
-4.034795
-3.964406
-3.884600
-3.793730
-3.643534
-3.455202
-3.246152
-3.040634
-2.771083
-2.347334
-1.894865
-1.444514
-0.934368
-0.391969
0.159846
0.687648
1.243701
1.875322
2.500351
3.094070
3.680727
4.261498
4.856865
5.435046
5.983801
6.536558
7.079427
7.623473
8.156690
8.652005
9.138846
9.618152
10.080509
10.515087
10.904230
11.225808
11.469463
11.637786
11.704173
11.664859
11.520548
11.291253
10.992510
10.617257
10.210223
9.777293
9.322940
8.859170
8.397520
8.020619
7.685151
7.371341
7.107440
6.836240
6.623660
6.471110
6.354579
6.316913
6.297608
6.278775
6.269123
6.251938
6.265592
6.359993
6.536555
6.769146
6.994204
7.163232
7.323080
7.470450
7.562498
7.610287
7.606756
7.546960
7.431842
7.269169
7.034930
6.742543
6.446625
6.112806
5.753796
5.409853
5.092983
4.796124
4.492672
4.204288
3.940151
3.712033
3.511929
3.357967
3.260740
3.177874
3.161395
3.221896
3.342900
3.509575
3.654826
3.822913
4.017131
4.191810
4.391207
4.595784
4.781998
4.963032
5.105459
5.237057
5.375246
5.493424
5.591357
5.629495
5.642443
5.640088
5.565697
5.479770
5.379012
5.280137
5.238233
5.191856
5.156543
5.149246
5.117229
5.082858
5.064260
5.054137
5.118406
5.233524
5.352645
5.541448
5.759914
5.981676
6.241104
6.484995
6.709346
6.915806
7.087424
7.266105
7.465267
7.674552
7.876774
8.069580
8.255794
8.446480
8.667536
8.897066
9.171797
9.483252
9.760572
10.027534
10.252591
10.442337
10.588059
10.638438
10.624548
10.504251
10.309326
10.038833
9.672526
9.270671
8.793012
8.295342
7.759300
7.142510
6.483110
5.729779
4.924891
4.065388
3.164215
2.281641
1.378114
0.481885
-0.430587
-1.406151
-2.385246
-3.365283
-4.339434
-5.270505
-6.162967
-6.977271
-7.714593
-8.401773
-9.012677
-9.574380
-10.099358
-10.584785
-11.029722
-11.424985
-11.798590
-12.149596
-12.500366
-12.859610
-13.199080
-13.537609
-13.845062
-14.092484
-14.312127
-14.487512
-14.589447
-14.624995
-14.599570
-14.529652
-14.428423
-14.295649
-14.145218
-13.964654
-13.761490
-13.530312
-13.227567
-12.891863
-12.530029
-12.094274
-11.574476
-10.984288
-10.376679
-9.756123
-9.105669
-8.451919
-7.802877
-7.161133
-6.504087
-5.846099
-5.244612
-4.691384
-4.184534
-3.730652
-3.316320
-2.950248
-2.630318
-2.353468
-2.130059
-1.955615
-1.804714
-1.674764
-1.562000
-1.455357
-1.361426
-1.274793
-1.199224
-1.126245
-1.059387
-1.028548
-1.037965
-1.098937
-1.204639
-1.362368
-1.586484
-1.844736
-2.135474
-2.447165
-2.777218
-3.140701
-3.503712
-3.854011
-4.163113
-4.401589
-4.590628
-4.729759
-4.834519
-4.915031
-4.960938
-4.978123
-4.950344
-4.879955
-4.772841
-4.647599
-4.538837
-4.428898
-4.319194
-4.209020
-4.073891
-3.904862
-3.684984
-3.416610
-3.110333
-2.772041
-2.415856
-2.052845
-1.691952
-1.336004
-0.997946
-0.682724
-0.375507
-0.041922
0.332860
0.719648
1.132803
1.562908
1.973945
2.372033
2.740694
3.106295
3.481077
3.833966
4.168021
4.466529
4.730901
4.970083
5.184312
5.395009
5.576985
5.695164
5.747426
5.737304
5.699401
5.648552
5.582635
5.522368
5.459042
5.386533
5.306256
5.216798
5.111567
4.966551
4.777512
4.547746
4.275605
3.976156
3.659286
3.316755
2.951861
2.576843
2.214773
1.880482
1.573500
1.280407
0.959535
0.607352
0.221270
-0.208599
-0.655419
-1.121072
-1.614975
-2.126534
-2.660457
-3.205210
-3.753023
-4.310723
-4.859949
-5.378100
-5.848932
-6.271268
-6.644167
-6.968099
-7.230117
-7.401500
-7.463415
-7.396792
-7.211284
-6.934906
-6.597320
-6.223950
-5.806322
-5.339257
-4.813102
-4.214675
-3.555039
-2.865271
-2.179975
-1.485262
-0.765596
-0.023329
0.766256
1.591860
2.449951
3.326169
4.189204
5.050591
5.901620
6.756886
7.591436
8.374429
9.131762
9.836833
10.491760
11.073238
11.557488
11.967818
12.271269
12.469490
12.571660
12.563891
12.468077
12.279744
12.009722
11.671900
11.253095
10.766019
10.211850
9.617895
8.992160
8.336055
7.675713
6.992771
6.290996
5.573919
4.847661
4.146357
3.489075
2.889471
2.342835
1.839515
1.385868
0.983542
0.612056
0.261051
-0.049698
-0.317131
-0.574441
-0.817390
-0.993246
-1.111660
-1.207710
-1.273862
-1.317179
-1.341662
-1.378151
-1.462666
-1.560363
-1.650292
-1.741399
-1.837448
-1.929025
-1.993529
-2.047675
-2.114062
-2.206345
-2.339591
-2.491670
-2.657167
-2.843146
-3.043014
-3.276311
-3.542332
-3.846489
-4.181721
-4.512952
-4.822053
-5.089486
-5.329845
-5.569734
-5.813390
-6.035858
-6.227722
-6.423118
-6.624163
-6.818852
-7.003418
-7.165149
-7.298159
-7.391148
-7.424342
-7.397505
-7.311813
-7.190103
-7.055916
-6.916550
-6.808023
-6.735751
-6.683959
-6.641114
-6.568841
-6.470673
-6.361204
-6.229371
-6.064109
-5.855531
-5.613523
-5.357862
-5.106673
-4.865136
-4.627366
-4.387948
-4.150649
-3.910995
-3.678640
-3.484893
-3.325752
-3.190623
-3.067030
-2.945555
-2.849270
-2.773466
-2.693425
-2.618092
-2.571950
-2.532636
-2.457773
-2.330649
-2.147731
-1.926204
-1.663480
-1.342137
-0.986424
-0.629769
-0.271937
0.096019
0.474567
0.862533
1.252146
1.631637
1.985231
2.304220
2.591663
2.834141
3.029537
3.182086
3.282138
3.331575
3.329927
3.285433
3.223048
3.136415
3.007172
2.833905
2.606729
2.330115
2.017953
1.657296
1.257795
0.842757
0.414770
-0.016983
-0.444734
-0.853180
-1.237144
-1.619695
-2.029083
-2.473078
-2.925548
-3.383903
-3.830016
-4.238698
-4.624545
-4.970371
-5.271233
-5.527365
-5.711696
-5.834113
-5.901206
-5.904267
-5.856006
-5.760898
-5.618236
-5.439320
-5.218971
-4.968724
-4.704116
-4.396899
-4.051073
-3.674407
-3.247363
-2.783122
-2.282863
-1.761417
-1.239971
-0.700397
-0.157999
0.385576
0.948927
1.547825
2.202281
2.885694
3.585115
4.294423
4.986546
5.670194
6.345838
6.998175
7.639919
8.269657
8.874205
9.443912
9.965123
10.459261
10.940922
11.395039
11.825850
12.225116
12.571177
12.861680
13.104865
13.291785
13.424795
13.517078
13.549801
13.526730
13.426914
13.258591
13.093565
12.867565
12.574708
12.333406
12.100109
11.857395
11.602910
11.268149
10.920204
10.547305
10.147333
9.757484
9.321023
8.878205
8.418909
7.928772
7.414624
6.838090
6.241546
5.651593
5.063524
4.475690
3.883855
3.295785
2.717604
2.145543
1.593728
1.073694
0.567785
0.078119
-0.398127
-0.875315
-1.348502
-1.791790
-2.226603
-2.702614
-3.210407
-3.743389
-4.284139
-4.823242
-5.393655
-5.975132
-6.548135
-7.113133
-7.654119
-8.170387
-8.642867
-9.072030
-9.485420
-9.885863
-10.251935
-10.546205
-10.762788
-10.902860
-10.960773
-10.943117
-10.840240
-10.666032
-10.454393
-10.213327
-9.950132
-9.658923
-9.314038
-8.923248
-8.487258
-7.988882
-7.433536
-6.809684
-6.110498
-5.342571
-4.510140
-3.630391
-2.728983
-1.823809
-0.915810
-0.024054
0.849104
1.714964
2.542686
3.313438
4.019686
4.635299
5.149447
5.547771
5.818735
5.978818
6.030374
5.977876
5.835920
5.594854
5.264094
4.862239
4.372809
3.784976
3.123692
2.401436
1.622680
0.802019
-0.068549
-0.975371
-1.908089
-2.843868
-3.730916
-4.562405
-5.326094
-6.021278
-6.658784
-7.225901
-7.738167
-8.180749
-8.531990
-8.804366
-9.000467
-9.131830
-9.209988
-9.221759
-9.151605
-8.998820
-8.769525
-8.470076
-8.102827
-7.672016
-7.177407
-6.621354
-6.013275
-5.351521
-4.641506
-3.896179
-3.128958
-2.355852
-1.583688
-0.821411
-0.083853
0.608270
1.233299
1.794531
2.308679
2.777392
3.195020
3.558738
3.879139
4.157636
4.380575
4.541599
4.645182
4.718868
4.773013
4.793494
4.778898
4.726636
4.649890
4.559020
4.438722
4.306418
4.190358
4.084186
3.969067
3.839353
3.718584
3.622770
3.541787
3.462687
3.385941
3.323791
3.284006
3.270587
3.286360
3.318847
3.350629
3.368285
3.374405
3.392532
3.420311
3.443618
