EVENT_NAME: 202302060117
EVENT_ID: 13194
EVENT_DATE_YYYYMMDD: 2023/02/06
EVENT_TIME_HHMMSS: 01:17:32.00000
EVENT_LATITUDE_DEGREE: 37.288
EVENT_LONGITUDE_DEGREE: 37.043
EVENT_DEPTH_KM: 8.6
HYPOCENTER_REFERENCE: AFAD
MAGNITUDE_W: 7.7
MAGNITUDE_W_REFERENCE: AFAD
MAGNITUDE_L: 
MAGNITUDE_L_REFERENCE: 
FOCAL_MECHANISM: 
NETWORK: TK
STATION_CODE: 6607
STATION_NAME: 
STATION_LATITUDE_DEGREE: 39.49301
STATION_LONGITUDE_DEGREE: 34.75947
STATION_ELEVATION_M: 903.0
LOCATION: Kahramanmaras_Pazarck_Turkiye
SENSOR_DEPTH_M: 
VS30_M/S: None
SITE_CLASSIFICATION_EC8: unknown
MORPHOLOGIC_CLASSIFICATION: 
EPICENTRAL_DISTANCE_KM: 315.77
EARTHQUAKE_BACKAZIMUTH_DEGREE: 
DATE_TIME_FIRST_SAMPLE_YYYYMMDD_HHMMSS: 2023/02/06 01:18:03.9204260
DATE_TIME_FIRST_SAMPLE_PRECISION: millisecond
SAMPLING_INTERVAL_S: 0.01
NDATA: 18251
DURATION_S: 
STREAM: HNN
UNITS: cm/s^2
INSTRUMENT: sensor = ACEBOX/SARA | digitizer = 
INSTRUMENT_ANALOG/DIGITAL: 
INSTRUMENTAL_FREQUENCY_HZ: 
INSTRUMENTAL_DAMPING: 
FULL_SCALE_G: 
N_BIT_DIGITAL_CONVERTER: 
PGA_CM/S^2: 3.822
TIME_PGA_S: 
BASELINE_CORRECTION: BASELINE REMOVED
FILTER_TYPE: BUTTERWORTH
FILTER_ORDER: 
LOW_CUT_FREQUENCY_HZ: 
HIGH_CUT_FREQUENCY_HZ: 
LATE/NORMAL_TRIGGERED: 
DATABASE_VERSION: 
HEADER_FORMAT: DYNA 1.2
DATA_TYPE: Acceleration
PROCESSING: Automatic Paolucci et al., 2011
DATA_TIMESTAMP_YYYYMMDD_HHMMSS: 
DATA_LICENSE: U (unknown license)
DATA_CITATION: Turkish Accelerometric Archive v 1.0 - Disaster And Emergency Management Presidency, Earthquake Department
DATA_CREATOR: AFAD
ORIGINAL_DATA_MEDIATOR_CITATION: : AFAD - Disaster And Emergency Management Presidency
ORIGINAL_DATA_MEDIATOR: AFAD PROCESS SERVICE
ORIGINAL_DATA_CREATOR_CITATION: AFAD PROCESS SERVICE
ORIGINAL_DATA_CREATOR: network: TK
USER1: GuestUser
USER2: 
USER3: 
USER4: 
USER5: 
[...]
-1.032655
-0.877180
-0.722641
-0.580258
-0.444656
-0.312327
-0.201507
-0.130667
-0.104716
-0.115938
-0.154982
-0.216939
-0.295495
-0.385507
-0.483001
-0.581897
-0.674247
-0.750699
-0.802135
-0.826216
-0.827853
-0.812422
-0.778990
-0.722411
-0.627957
-0.501707
-0.379431
-0.263000
-0.155921
-0.102849
-0.094900
-0.100512
-0.129035
-0.179769
-0.244531
-0.318411
-0.398370
-0.488149
-0.570679
-0.631233
-0.673317
-0.695294
-0.705347
-0.706516
-0.688047
-0.653211
-0.617206
-0.574188
-0.517843
-0.465005
-0.412167
-0.354653
-0.302750
-0.252718
-0.207829
-0.168317
-0.143301
-0.155693
-0.192165
-0.235418
-0.282645
-0.321222
-0.356058
-0.395336
-0.438822
-0.481608
-0.517846
-0.558527
-0.598273
-0.624458
-0.645033
-0.645267
-0.616276
-0.581207
-0.533512
-0.457061
-0.349982
-0.201521
-0.023835
0.161332
0.342525
0.490518
0.588012
0.638278
0.642252
0.609521
0.550603
0.472983
0.381100
0.272852
0.143328
-0.010277
-0.176273
-0.341568
-0.503824
-0.642699
-0.732010
-0.757728
-0.712605
-0.599214
-0.421528
-0.209708
0.003047
0.227960
0.458718
0.658380
0.829052
0.963252
1.043678
1.089034
1.096516
1.067291
1.025207
0.960211
0.879785
0.813620
0.756106
0.709346
0.679420
0.658612
0.657442
0.687836
0.748623
0.834426
0.928413
1.023802
1.114047
1.192603
1.272561
1.358131
1.438791
1.527634
1.620685
1.688252
1.721919
1.725893
1.701812
1.660897
1.617411
1.566676
1.499109
1.410733
1.291263
1.136255
0.959738
0.776440
0.591039
0.418730
0.277984
0.163891
0.072242
0.004908
-0.042085
-0.067335
-0.084169
-0.093521
-0.074116
-0.029929
0.046991
0.164824
0.289906
0.411947
0.522300
0.594309
0.637795
0.668890
0.688529
0.702556
0.723364
0.746510
0.754225
0.764979
0.796074
0.840496
0.926767
1.061200
1.210362
1.357654
1.485541
1.580463
1.643354
1.670708
1.649432
1.570409
1.453978
1.320012
1.176460
1.048806
0.943831
0.858963
0.801682
0.765677
0.748376
0.755623
0.796304
0.884445
1.013735
1.193759
1.434336
1.693851
1.954768
2.222700
2.474499
2.684917
2.815141
2.863070
2.868213
2.833143
2.760432
2.663406
2.546975
2.426101
2.294707
2.148584
1.990770
1.821735
1.675378
1.572039
1.504004
1.464492
1.424980
1.373544
1.327018
1.279090
1.225550
1.171075
1.114964
1.066334
1.032900
1.015833
1.013962
1.020275
1.021210
1.005078
0.978424
0.948031
0.916935
0.906414
0.916467
0.939379
0.982164
1.029625
1.064694
1.081060
1.074981
1.046691
0.992684
0.923012
0.853340
0.793956
0.754444
0.731064
0.717270
0.706982
0.690850
0.678692
0.686408
0.708384
0.729426
0.738544
0.717736
0.654376
0.562494
0.469209
0.385509
0.320981
0.282638
0.252945
0.230968
0.229098
0.243359
0.279130
0.330097
0.369141
0.385273
0.380363
0.367270
0.356282
0.345761
0.340617
0.341552
0.350202
0.364698
0.367503
0.348799
0.309755
0.249435
0.187011
0.139783
0.102843
0.075489
0.051408
0.016338
-0.028785
-0.079286
-0.141944
-0.213486
-0.279651
-0.337866
-0.383223
-0.395615
-0.381587
-0.360312
-0.331555
-0.310981
-0.302564
-0.287601
-0.264689
-0.234296
-0.195018
-0.164157
-0.149194
-0.145921
-0.155507
-0.171873
-0.175848
-0.160651
-0.133063
-0.092617
-0.036506
0.032932
0.116398
0.219736
0.343882
0.484394
0.634492
0.796747
0.973030
1.147208
1.299410
1.414906
1.486681
1.518478
1.518010
1.502579
1.482005
1.449740
1.390823
1.285381
1.136218
0.962974
0.785989
0.631215
0.515252
0.455399
0.467323
0.544709
0.674467
0.848178
1.053685
1.282339
1.527592
1.771676
2.003135
2.209111
2.362481
2.452961
2.468391
2.386094
2.208876
1.943516
1.615966
1.277895
0.955254
0.668151
0.427106
0.223468
0.049757
-0.108524
-0.252544
-0.370845
-0.453376
-0.483068
-0.457585
-0.382770
-0.264001
-0.108760
0.073836
0.276772
0.506360
0.760264
1.021649
1.286775
1.552369
1.807441
2.038199
2.228977
2.364112
2.436589
2.457630
2.438459
2.381178
2.286724
2.158837
1.998218
1.810946
1.607542
1.390812
1.165899
0.951974
0.761429
0.585614
0.421020
0.274897
0.143970
0.027305
-0.061304
-0.126300
-0.185685
-0.234081
-0.266112
-0.287855
-0.297207
-0.285985
-0.250448
-0.185452
-0.085855
0.057462
0.242396
0.445332
0.655282
0.886273
1.126850
1.359478
1.583222
1.780313
1.939295
2.065078
2.141763
2.153686
2.107394
2.006861
1.855127
1.671362
1.463984
1.240941
1.016495
0.783867
0.538847
0.280735
0.008361
-0.250921
-0.480276
-0.671522
-0.793331
-0.843831
-0.837285
-0.773459
-0.669887
-0.550884
-0.416451
-0.268925
-0.124906
0.025192
0.196565
0.380797
0.576719
0.777784
0.976044
1.172434
1.353626
1.524532
1.701049
1.871019
2.025091
2.145731
2.208856
2.226624
2.205816
2.140586
2.055250
1.963835
1.863770
1.773524
1.686551
1.586018
1.472392
1.340998
1.197213
1.046881
0.900524
0.774740
0.657608
0.547255
0.447657
0.348527
0.266932
0.221575
0.229290
0.305040
0.435966
0.609678
0.804431
0.993806
1.176168
1.336319
1.454386
1.539488
1.603081
1.653815
1.691923
1.697534
1.664335
1.588351
1.448306
1.255657
1.039160
0.803493
0.564318
0.345016
0.152834
-0.014097
-0.139880
-0.216800
-0.258884
-0.245323
-0.172847
-0.061092
0.123608
0.373070
0.638663
0.899581
1.126831
1.325325
1.491788
1.589983
1.651705
1.686541
1.674150
1.629260
1.531533
1.373720
1.174290
0.931141
0.673730
0.418891
0.172234
-0.047535
-0.250004
-0.422079
-0.545056
-0.628756
-0.668034
-0.661955
-0.612157
-0.514897
-0.361760
-0.155318
0.086195
0.367920
0.690327
1.030268
1.393588
1.754337
2.069730
2.347481
2.591097
2.781642
2.912100
2.981304
3.003047
2.987850
2.927530
2.826062
2.682043
2.484952
2.256064
2.004030
1.730721
1.474011
1.243253
1.033537
0.869411
0.741524
0.630704
0.545134
0.478501
0.435482
0.431274
0.464239
0.536015
0.648003
0.796231
0.961759
1.127521
1.293984
1.448057
1.593011
1.738199
1.857903
1.959137
2.067619
2.168619
2.243434
2.290894
2.312871
2.309598
2.284581
2.242731
2.191997
2.136119
2.059200
1.954926
1.827273
1.668992
1.484525
1.284161
1.069535
0.853506
0.659922
0.502342
0.373520
0.255452
0.147905
0.059763
-0.022534
-0.091036
-0.126106
-0.158838
-0.189699
-0.188998
-0.164216
-0.120496
-0.064151
0.004118
0.094129
0.196766
0.309924
0.427524
0.539045
0.649163
0.745254
0.824978
0.899326
0.964789
1.037032
1.127511
1.228044
1.322030
1.391935
1.426070
1.412275
1.355462
1.257034
1.106702
0.930652
0.738938
0.518000
0.271343
0.002009
-0.286497
-0.583888
-0.878940
-1.147106
-1.369213
-1.552043
-1.679696
-1.708921
-1.663331
-1.578463
-1.410129
-1.151549
-0.841534
-0.480785
-0.085902
0.315294
0.704566
1.060172
1.377902
1.667577
1.913297
2.082800
2.167435
2.171877
2.091216
1.940183
1.738650
1.485915
1.201617
0.914046
0.639802
0.391977
0.176649
0.006912
-0.093153
-0.134068
-0.139212
-0.101103
-0.038679
0.011821
0.048527
0.075647
0.103936
0.143682
0.210080
0.315756
0.408339
0.460242
0.495779
0.501624
0.488531
0.472165
0.430081
0.384958
0.354331
0.318560
0.268059
0.199556
0.122871
0.045016
-0.029799
-0.089418
-0.139918
-0.161428
-0.132671
-0.072819
0.027246
0.177811
0.356900
0.560070
0.790126
1.041458
1.293491
1.524015
1.745888
1.943213
2.063151
2.112949
2.107338
2.010312
1.828651
1.603271
1.329961
1.020881
0.723725
0.439895
0.156766
-0.100645
-0.329533
-0.549302
-0.735405
-0.864461
-0.947226
-0.982296
-0.965229
-0.919872
-0.850201
-0.743823
-0.616638
-0.492258
-0.346134
-0.164474
0.014614
0.190897
0.375831
0.523590
0.618044
0.665973
0.643762
0.556321
0.436383
0.305924
0.168451
0.032381
-0.081946
-0.183414
-0.266413
-0.313406
-0.367647
-0.438254
-0.482208
-0.511199
-0.530838
-0.517045
-0.473792
-0.419318
-0.353387
-0.266181
-0.161908
-0.048984
0.070253
0.178267
0.271084
0.361096
0.436379
0.491087
0.536443
0.559355
0.554445
0.525454
0.452509
0.354314
0.268744
0.176394
0.061132
-0.065352
-0.207501
-0.368120
-0.541832
-0.716245
-0.864706
-0.978332
-1.065539
-1.127027
-1.156720
-1.160928
-1.152746
-1.125859
-1.070683
-0.984880
-0.865410
-0.716948
-0.553291
-0.372332
-0.167525
0.038917
0.219409
0.369272
0.467935
0.503004
0.497627
0.451101
0.346359
0.204912
0.043825
-0.133861
-0.312716
-0.487596
-0.658035
-0.823797
-0.988624
-1.155322
-1.318045
-1.445231
-1.517475
-1.541790
-1.502278
-1.390290
-1.226632
-1.041932
-0.867753
-0.712044
-0.571299
-0.450659
-0.342645
-0.237203
-0.135501
-0.041281
0.038210
0.088710
0.103439
0.078422
0.007815
-0.094354
-0.199096
-0.300798
-0.397590
-0.474743
-0.548623
-0.646585
-0.776576
-0.951223
-1.161407
-1.379774
-1.587152
-1.757590
-1.874489
-1.940888
-1.963332
-1.936446
-1.859994
-1.763670
-1.661501
-1.556526
-1.455994
-1.333718
-1.183854
-1.021365
-0.846017
-0.686568
-0.550030
-0.418169
-0.314597
-0.240717
-0.175955
-0.143692
-0.143224
-0.144393
-0.154681
-0.157253
-0.132704
-0.104181
-0.070281
-0.035913
-0.010195
0.017393
0.035629
0.051761
0.071633
0.081219
0.080050
0.046149
-0.022588
-0.101378
-0.202378
-0.316939
-0.413731
-0.489949
-0.569908
-0.664363
-0.758115
-0.862155
-0.986068
-1.100161
-1.199993
-1.284862
-1.323906
-1.329050
-1.320166
-1.277849
-1.205839
-1.111151
-0.978589
-0.812593
-0.634439
-0.461663
-0.286783
-0.095537
0.121894
0.372291
0.621285
0.880332
1.166266
1.435132
1.720365
2.011910
2.226535
2.364943
2.425964
2.422457
2.363774
2.234250
2.080879
1.887294
1.642976
1.401931
1.174913
0.983200
0.812527
0.676925
0.619410
0.593459
0.606317
0.646530
0.698433
0.804109
0.903707
0.991614
1.046323
1.005408
0.931762
0.787041
0.570077
0.370180
0.149943
-0.045044
-0.196779
-0.352254
-0.460269
-0.555424
-0.680039
-0.789690
-0.867778
-0.937684
-1.017409
-1.061129
-1.081703
-1.103447
-1.094329
-1.119345
-1.163066
-1.164235
-1.196499
-1.228062
-1.192291
-1.140154
-1.068846
-0.955689
-0.818918
-0.663676
-0.512410
-0.388030
-0.268793
-0.148622
-0.051596
0.025089
0.064367
0.059925
0.026491
-0.063754
-0.164755
-0.261080
-0.393877
-0.478512
-0.518725
-0.557769
-0.527376
-0.478278
-0.423570
-0.306204
-0.193982
-0.105373
-0.006477
0.086575
0.152038
0.189211
0.217968
0.246959
0.305642
0.388406
0.460649
0.527515
0.543880
0.511616
0.469299
0.361985
0.211887
0.067634
-0.081061
-0.191180
-0.258280
-0.301065
-0.294752
-0.237472
-0.152136
-0.056981
0.049396
0.144084
0.221705
0.312885
0.389805
0.460879
0.536629
0.555800
0.547851
0.556033
0.555332
0.534056
0.487296
0.425340
0.352629
0.290672
0.255603
0.202297
0.163486
0.168396
0.166291
0.173071
0.184060
0.155068
0.091008
0.012686
-0.069377
-0.185107
-0.332166
-0.460053
-0.579290
-0.685200
-0.738039
-0.756977
-0.772641
-0.777317
-0.767498
-0.777318
-0.808880
-0.837170
-0.862420
-0.856108
-0.811219
-0.749497
-0.645691
-0.532066
-0.446730
-0.327727
-0.209660
-0.150509
-0.068447
0.020864
0.072065
0.154361
0.231047
0.262843
0.270324
0.234319
0.194574
0.142437
0.075804
0.072531
0.086792
0.083753
0.091468
0.107600
0.137292
0.141734
0.145942
0.169321
0.157865
0.146175
0.143837
0.147344
0.177270
0.198779
0.233848
0.285283
0.338355
0.450110
0.591323
0.706118
0.826055
0.971243
1.081829
1.156644
1.251800
1.265827
1.160151
1.036472
0.835873
0.546900
0.253250
-0.059571
-0.341297
-0.588654
-0.892591
-1.184838
-1.404607
-1.609414
-1.776813
-1.875008
-1.938601
-1.949356
-1.872203
-1.727950
-1.554473
-1.343120
-1.084541
-0.856355
-0.656692
-0.406062
-0.168524
0.030905
0.266806
0.500837
0.667301
0.776250
0.873977
0.990174
1.093512
1.140739
1.129751
1.153598
1.261378
1.353728
1.390200
1.359105
1.236127
1.112916
0.974274
0.758011
0.576584
0.427422
0.220745
-0.027548
-0.346682
-0.696910
-0.985650
-1.272052
-1.544894
-1.733334
-1.883432
-1.997759
-2.044285
-1.994954
-1.832699
-1.645661
-1.447635
-1.173391
-0.871559
-0.556167
-0.209680
0.115532
0.415728
0.685530
0.877243
0.990635
1.028042
0.991102
0.907168
0.796582
0.668461
0.521169
0.364057
0.207646
0.037909
-0.145856
-0.330088
-0.498890
-0.635428
-0.748352
-0.832753
-0.880682
-0.922298
-0.980981
-1.040833
-1.066318
-1.059070
-1.041302
-0.997582
-0.914818
-0.789970
-0.620935
-0.455173
-0.321675
-0.187475
-0.062160
0.031125
0.117162
0.203667
0.290405
0.381586
0.441204
0.451024
0.451959
0.445412
0.409641
0.371765
0.322200
0.219329
0.099157
0.012185
-0.049772
-0.107286
-0.148435
-0.148903
-0.132303
-0.120847
-0.080167
-0.000442
0.107338
0.249954
0.407300
0.547110
0.658865
0.744669
0.815275
0.890324
0.988752
1.083206
1.142357
1.173452
1.172750
1.146565
1.071749
0.922119
0.750745
0.566747
0.352822
0.127441
-0.118981
-0.357455
-0.560157
-0.743454
-0.901501
-1.013490
-1.028454
-0.940546
-0.797696
-0.575823
-0.282641
0.024334
0.336220
0.655587
0.975655
1.271876
1.534898
1.777813
1.964149
2.083385
2.162175
2.172228
2.109336
2.009972
1.872266
1.677746
1.426180
1.136037
0.823216
0.508759
0.220487
-0.053056
-0.313039
-0.544966
-0.762632
-0.939616
-1.069140
-1.188844
-1.268803
-1.286338
-1.278389
-1.259218
-1.213160
-1.149100
-1.094158
-1.017005
-0.911095
-0.836981
-0.786014
-0.740891
-0.725227
-0.715875
-0.706524
-0.740191
-0.808927
-0.850777
-0.876027
-0.938919
-1.019813
-1.096265
-1.164066
-1.195162
-1.215035
-1.265301
-1.311126
-1.336843
-1.385240
-1.443222
-1.484136
-1.529961
-1.572278
-1.616700
-1.681930
-1.743652
-1.820104
-1.938873
-2.084763
-2.263618
-2.480348
-2.721627
-2.969686
-3.206289
-3.422084
-3.605382
-3.747764
-3.821878
-3.821879
-3.787043
-3.711760
-3.593927
-3.459026
-3.284613
-3.067650
-2.832917
-2.572935
-2.306406
-2.067700
-1.854009
-1.672583
-1.549605
-1.488584
-1.482740
-1.503782
-1.526460
-1.566907
-1.616239
-1.670012
-1.745997
-1.829229
-1.939815
-2.079626
-2.203772
-2.323009
-2.429855
-2.503969
-2.566860
-2.627180
-2.691942
-2.743612
-2.787098
-2.844612
-2.862147
-2.835728
-2.807205
-2.740106
-2.602166
-2.428688
-2.257783
-2.063497
-1.827128
-1.594734
-1.370523
-1.147247
-0.967457
-0.849623
-0.787667
-0.775977
-0.818996
-0.916256
-1.039000
-1.180681
-1.339663
-1.484852
-1.621389
-1.767747
-1.906856
-2.034042
-2.175022
-2.326289
-2.463528
-2.586740
-2.698495
-2.794586
-2.884130
-2.959179
-3.001965
-3.040074
-3.097588
-3.135463
-3.150660
-3.170300
-3.152297
-3.083094
-2.996355
-2.893952
-2.780794
-2.657116
-2.514032
-2.369312
-2.232774
-2.108628
-2.013005
-1.962038
-1.958998
-1.995705
-2.067481
-2.171988
-2.302214
-2.433374
-2.545363
-2.658989
-2.778225
-2.896527
-3.037273
-3.162121
-3.227818
-3.298192
-3.393581
-3.460915
-3.504401
-3.525443
-3.489906
-3.411818
-3.319001
-3.199764
-3.043120
-2.871747
-2.694997
-2.507725
-2.326533
-2.160771
-2.003425
-1.852860
-1.706269
-1.569732
-1.461718
-1.385500
-1.332194
-1.312088
-1.329623
-1.362822
-1.404438
-1.453302
-1.515726
-1.603167
-1.706038
-1.838367
-2.012079
-2.205429
-2.417951
-2.640526
-2.846736
-3.034475
-3.185274
-3.286976
-3.358051
-3.405044
-3.408785
-3.366234
-3.304278
-3.197199
-3.030035
-2.866610
-2.696874
-2.497913
-2.330748
-2.213382
-2.141606
-2.124305
-2.152127
-2.239100
-2.395511
-2.588861
-2.785251
-2.981407
-3.175693
-3.329766
-3.431701
-3.489917
-3.486644
-3.425389
-3.330000
-3.208192
-3.064407
-2.908698
-2.758367
-2.635623
-2.557535
-2.522933
-2.530883
-2.583253
-2.639833
-2.683787
-2.727741
-2.734287
-2.699218
-2.656901
-2.583722
-2.469630
-2.370500
-2.309011
-2.248692
-2.190944
-2.173877
-2.186502
-2.219000
-2.283762
-2.370034
-2.479451
-2.596350
-2.694311
-2.791103
-2.884622
-2.974634
-3.070492
-3.130578
-3.165881
-3.221058
-3.269454
-3.291898
-3.314811
-3.348478
-3.377936
-3.388458
-3.393601
-3.410902
-3.430542
-3.438725
-3.439426
-3.430776
-3.390797
-3.316216
-3.217320
-3.096447
-2.970898
-2.849557
-2.724008
-2.595186
-2.474547
-2.375183
-2.295459
-2.227891
-2.169676
-2.123852
-2.114033
-2.136010
-2.178327
-2.253610
-2.335439
-2.422880
-2.545156
-2.658782
-2.738039
-2.788072
-2.792514
-2.762121
-2.689878
-2.571109
-2.433168
-2.266004
-2.078966
-1.893097
-1.693201
-1.507800
-1.366119
-1.252494
-1.168327
-1.121568
-1.119931
-1.161781
-1.234960
-1.341338
-1.466186
-1.580747
-1.670291
-1.718687
-1.715648
-1.656731
-1.544509
-1.391839
-1.204334
-0.989475
-0.759886
-0.521881
-0.281303
-0.043532
0.190499
0.417048
0.626531
0.815906
0.986344
1.128493
1.246093
1.347093
1.428220
1.489475
1.533663
1.557743
1.555873
1.525479
1.452768
1.323010
1.140648
0.916670
0.673053
0.439022
0.222292
0.031747
-0.134951
-0.296505
-0.450811
-0.592726
-0.725523
-0.837746
-0.921680
-0.963296
-0.943657
-0.882169
-0.809458
-0.716641
-0.600210
-0.484714
-0.372024
-0.247176
-0.105495
0.051616
0.236783
0.452344
0.672581
0.883232
1.072374
1.226446
1.360646
1.471465
1.550489
1.607301
1.627641
1.607769
1.546981
1.425640
1.267125
1.099492
0.915494
0.724715
0.545626
0.391086
0.276759
0.200775
0.151911
0.139052
0.152612
0.170380
0.215035
0.308320
0.425920
0.554041
0.700398
0.877382
1.070031
1.241404
1.402256
1.559134
1.680007
1.782878
1.886684
1.965473
2.025325
2.085177
2.135443
2.169110
2.176825
2.143392
2.081435
2.004282
1.914737
1.838519
1.779602
1.728167
1.699877
1.675796
1.629036
1.576899
1.528035
1.492965
1.488055
1.499511
1.520319
1.563805
1.629970
1.712266
1.806019
1.916137
2.038646
2.152038
2.259818
2.374613
2.482393
2.589706
2.703331
2.809241
2.906033
2.978977
3.017554
3.030412
3.005162
2.942037
2.864650
2.767624
2.648621
2.528916
2.416459
2.314991
2.225447
2.128888
2.026719
1.930628
1.822847
1.709689
1.607519
1.511896
1.428664
1.354784
1.293295
1.258225
1.235547
1.219181
1.212868
1.215673
1.225960
1.243495
1.287215
1.350574
1.419310
1.515167
1.617570
1.699399
1.765797
1.798528
1.798996
1.780759
1.744053
1.695189
1.627855
1.548832
1.474016
1.402474
1.344960
1.308487
1.282068
1.261961
1.265702
1.294225
1.335139
1.390783
1.450868
1.506278
1.560519
1.601901
1.629489
1.645387
1.646322
1.640477
1.622708
1.583196
1.532929
1.477987
1.403639
1.317835
1.248164
1.189246
1.137577
1.102274
1.073984
1.052474
1.041486
1.038914
1.048032
1.063930
1.088712
1.117703
1.136874
1.148330
1.153239
1.151369
1.142718
1.119572
1.097595
1.101335
1.112557
1.104374
1.104374
1.147159
1.218934
1.314323
1.446886
1.602595
1.760408
1.906064
2.038860
2.163474
2.245770
2.260266
2.224261
2.135184
1.992100
1.809971
1.589033
1.346117
1.105773
0.881562
0.688913
0.533437
0.430566
0.391989
0.409524
0.500237
0.674650
0.902836
1.160246
1.432152
1.708968
1.980640
2.231505
2.457353
2.642520
2.754976
2.797995
2.800800
2.767601
2.697695
2.606748
2.501071
2.381601
2.255350
2.124423
1.978767
1.810667
1.646541
1.510471
1.396144
1.313847
1.263113
1.231316
1.231550
1.261709
1.315950
1.398013
1.502286
1.634849
1.785648
1.928966
2.072283
2.207652
2.307951
2.371543
2.385571
2.338577
2.258852
2.170243
2.071113
1.939485
1.776762
1.620819
1.462538
1.289528
1.136858
1.006399
0.902826
0.840402
0.791538
0.756235
0.729816
0.695447
0.666222
0.636530
0.601928
0.575976
0.560545
0.555401
0.557272
0.577846
0.605434
0.624137
0.655700
0.689834
0.739399
0.846945
0.970156
1.083080
1.221254
1.363636
1.479600
