EVENT_NAME: 202302060117
EVENT_ID: 13194
EVENT_DATE_YYYYMMDD: 2023/02/06
EVENT_TIME_HHMMSS: 01:17:32.00000
EVENT_LATITUDE_DEGREE: 37.288
EVENT_LONGITUDE_DEGREE: 37.043
EVENT_DEPTH_KM: 8.6
HYPOCENTER_REFERENCE: AFAD
MAGNITUDE_W: 7.7
MAGNITUDE_W_REFERENCE: AFAD
MAGNITUDE_L: 
MAGNITUDE_L_REFERENCE: 
FOCAL_MECHANISM: 
NETWORK: TK
STATION_CODE: 2104
STATION_NAME: 
STATION_LATITUDE_DEGREE: 38.2644
STATION_LONGITUDE_DEGREE: 39.759
STATION_ELEVATION_M: 919.0
LOCATION: Kahramanmaras_Pazarck_Turkiye
SENSOR_DEPTH_M: 
VS30_M/S: None
SITE_CLASSIFICATION_EC8: unknown
MORPHOLOGIC_CLASSIFICATION: 
EPICENTRAL_DISTANCE_KM: 262.22
EARTHQUAKE_BACKAZIMUTH_DEGREE: 
DATE_TIME_FIRST_SAMPLE_YYYYMMDD_HHMMSS: 2023/02/06 01:17:54.7016190
DATE_TIME_FIRST_SAMPLE_PRECISION: millisecond
SAMPLING_INTERVAL_S: 0.01
NDATA: 18251
DURATION_S: 
STREAM: HNN
UNITS: cm/s^2
INSTRUMENT: sensor = GMS+/GEOSIG | digitizer = 
INSTRUMENT_ANALOG/DIGITAL: 
INSTRUMENTAL_FREQUENCY_HZ: 
INSTRUMENTAL_DAMPING: 
FULL_SCALE_G: 
N_BIT_DIGITAL_CONVERTER: 
PGA_CM/S^2: 72.837
TIME_PGA_S: 
BASELINE_CORRECTION: BASELINE REMOVED
FILTER_TYPE: BUTTERWORTH
FILTER_ORDER: 
LOW_CUT_FREQUENCY_HZ: 
HIGH_CUT_FREQUENCY_HZ: 
LATE/NORMAL_TRIGGERED: 
DATABASE_VERSION: 
HEADER_FORMAT: DYNA 1.2
DATA_TYPE: Acceleration
PROCESSING: Automatic Paolucci et al., 2011
DATA_TIMESTAMP_YYYYMMDD_HHMMSS: 
DATA_LICENSE: U (unknown license)
DATA_CITATION: Turkish Accelerometric Archive v 1.0 - Disaster And Emergency Management Presidency, Earthquake Department
DATA_CREATOR: AFAD
ORIGINAL_DATA_MEDIATOR_CITATION: : AFAD - Disaster And Emergency Management Presidency
ORIGINAL_DATA_MEDIATOR: AFAD PROCESS SERVICE
ORIGINAL_DATA_CREATOR_CITATION: AFAD PROCESS SERVICE
ORIGINAL_DATA_CREATOR: network: TK
USER1: GuestUser
USER2: 
USER3: 
USER4: 
USER5: 
[...]
-4.884886
-5.827843
-6.941987
-8.173287
-9.441473
-10.753041
-11.697037
-11.840948
-11.237246
-10.164924
-8.626578
-6.733648
-5.239722
-4.525360
-4.113367
-3.662670
-3.182878
-2.769586
-2.468515
-2.208746
-1.918325
-1.497241
-0.804179
0.397248
1.843896
3.034413
4.131413
5.158796
6.026422
6.797933
7.282141
7.329159
6.811962
5.906931
5.183478
4.916697
4.860847
4.798763
4.981121
5.274659
5.284012
5.523778
6.395300
7.307346
7.717520
7.421645
6.386470
4.984243
3.518114
2.148878
0.995768
0.057747
-0.496857
-0.850141
-1.389678
-1.969480
-2.167422
-2.043512
-1.683214
-0.765453
0.162179
0.536765
0.818613
1.104099
1.026169
0.775494
0.931095
1.556617
2.326310
3.133150
3.906739
4.498491
4.876454
5.099335
5.270003
5.569516
6.151917
6.894594
7.514920
7.875998
8.079137
8.269807
8.450087
8.720246
9.192505
9.797505
10.465369
11.147000
11.475347
10.979451
9.799586
8.158372
5.941514
3.391632
1.208024
-0.282264
-1.400045
-2.245849
-2.683817
-3.040997
-3.425453
-3.257643
-2.603547
-2.102454
-1.896977
-1.986336
-2.392353
-3.220752
-4.369186
-5.324092
-5.834536
-6.023906
-6.051700
-5.892982
-5.499952
-4.904564
-4.210983
-3.878219
-3.936926
-3.713785
-3.193469
-2.408190
-1.012197
0.587454
1.987344
3.336580
4.385783
4.576713
4.152772
3.653499
3.061488
2.392326
1.745245
1.170639
0.664352
0.233657
0.045846
-0.048709
-0.051047
0.360167
1.022056
1.623679
1.982159
2.239590
2.876022
3.808849
4.742975
5.758149
6.652011
6.990748
6.726305
6.115591
5.273424
4.544776
4.592054
5.269270
6.080006
6.909446
7.423267
7.337544
6.713323
5.892976
5.205631
4.533612
3.802625
3.108786
2.266619
0.967000
-0.647717
-2.435958
-4.702953
-7.204517
-9.263697
-10.686185
-11.597451
-12.218036
-12.612882
-12.572098
-12.189979
-11.917222
-12.006322
-12.337785
-12.758349
-13.316330
-14.127065
-15.165617
-16.123121
-16.790724
-17.190766
-17.093872
-16.426008
-15.556824
-14.368125
-12.823545
-11.502105
-10.479138
-9.566313
-8.946766
-8.626731
-8.285396
-7.916265
-7.588177
-7.165015
-6.700289
-6.363630
-6.226991
-6.111394
-5.936050
-5.829285
-5.545098
-4.895158
-4.226775
-3.702563
-3.143022
-2.406579
-1.357376
-0.118802
1.030152
2.449784
4.465064
6.464239
7.915303
8.697205
8.620574
7.895563
6.997805
6.182134
5.910678
6.229933
6.592569
6.946634
7.257317
7.460716
7.735031
8.084419
8.646038
9.441448
10.450387
11.845861
13.478503
14.974507
15.843431
16.225291
16.665598
16.909261
16.909781
17.080709
17.160718
16.559616
15.468591
14.454977
13.551765
12.691673
12.025629
11.810802
11.976534
12.045113
11.836520
11.539606
11.255940
10.791476
10.184658
9.544331
8.347061
6.319573
3.954906
1.599851
-1.218371
-4.625486
-7.621129
-9.886045
-12.104203
-14.312230
-15.746408
-16.575067
-17.688692
-18.538132
-18.506700
-18.380971
-18.320445
-17.805844
-17.319558
-17.229938
-16.996925
-16.535317
-16.178915
-15.921484
-15.526377
-15.042688
-14.667583
-14.233510
-13.752679
-13.424332
-12.938046
-11.971189
-11.117851
-10.873149
-10.810284
-10.840936
-11.071870
-11.080182
-10.496223
-9.517936
-8.353916
-6.540215
-4.150610
-2.223910
-1.184578
-0.803498
-1.325112
-2.898525
-4.550909
-5.199549
-4.994851
-4.596886
-4.285683
-4.278929
-4.606755
-5.147072
-5.751292
-5.825325
-5.046540
-3.685875
-2.085444
-0.566321
0.798760
1.857834
2.670129
3.667379
4.569294
4.885691
4.676319
4.074957
3.241622
2.508817
2.137869
2.060719
2.266715
2.552720
2.516094
2.508301
2.692737
2.627276
2.415825
2.594806
3.079793
3.512827
4.030026
4.454227
4.499947
4.352919
4.219918
3.816759
2.684691
1.202456
-0.040014
-1.247934
-2.734845
-4.218119
-5.500853
-6.719683
-7.701346
-8.081645
-7.895911
-7.642377
-7.656663
-7.759531
-7.488333
-6.747993
-5.843221
-4.532692
-2.491954
-0.184955
1.679920
2.799260
3.301652
3.305289
2.827317
2.101006
1.394958
0.583963
-0.543689
-1.794991
-2.907316
-3.868717
-4.638928
-5.214054
-5.793855
-6.584588
-7.608593
-8.540899
-9.035757
-9.009519
-8.699096
-8.469980
-8.381139
-8.676235
-9.851165
-11.661487
-13.408685
-14.712460
-15.467085
-15.679055
-15.241346
-14.521788
-14.085637
-13.773915
-13.413616
-13.164498
-12.892521
-12.115554
-10.788399
-9.234727
-7.642089
-6.129720
-4.867507
-3.726086
-2.457639
-1.361158
-0.320527
0.926879
2.250397
3.721983
5.195128
6.566183
7.687342
8.183240
8.357025
8.653421
8.704076
8.268965
7.816191
7.317956
6.354218
5.468410
5.114087
4.955629
5.371778
6.716597
8.241435
9.640805
11.273447
12.665025
13.399909
13.927758
14.107518
13.636040
12.727372
11.936639
11.810392
12.046782
12.646586
13.615521
14.042580
13.638642
12.741923
11.309304
9.311429
7.364210
6.031601
5.355945
5.326072
5.567917
5.697022
5.728195
5.499340
4.992013
4.361297
3.547965
2.814640
2.647610
2.833605
3.005312
3.029211
2.721127
2.033262
0.684288
-1.026284
-2.602295
-4.369755
-5.787568
-6.284244
-6.360355
-5.959273
-5.498184
-5.304137
-4.960464
-4.625103
-3.916715
-3.252488
-2.950118
-2.417852
-2.273421
-2.478117
-2.473701
-2.249261
-1.835710
-1.278507
-0.652466
-0.247227
0.120865
0.957318
2.163681
3.437064
4.816692
5.978374
6.423098
6.184891
5.589763
4.522118
2.792324
1.252420
0.253093
-0.642067
-1.142639
-1.335906
-1.591257
-1.888950
-2.520965
-3.553542
-4.786140
-6.116411
-7.631897
-9.174918
-10.246979
-10.984460
-11.762204
-12.938953
-14.419369
-15.525201
-16.388929
-17.299155
-17.780504
-17.752449
-17.533983
-17.370589
-17.329805
-17.269798
-17.390849
-17.490080
-17.754523
-18.346014
-18.637733
-18.711766
-18.497717
-18.471739
-18.953089
-18.608376
-17.227969
-17.133413
-16.852343
-13.492764
-13.022064
-13.664470
-7.590835
-4.496739
-6.643461
-1.908930
3.902339
3.065108
5.772150
11.647581
12.979412
13.931722
15.812702
17.290262
15.185103
13.316074
17.068682
15.544884
10.451095
11.147014
11.695385
9.724266
5.922563
2.802231
5.280678
-1.992824
-6.195868
15.138353
15.226414
-11.603195
-9.513622
8.072927
0.193387
-15.640766
-9.595186
1.993061
-4.292283
-12.000116
-8.170097
-6.476150
-11.636439
-16.482409
-15.025890
-15.538671
-22.720994
-24.217776
-23.937486
-27.802053
-28.716955
-26.204739
-27.047166
-29.600424
-26.619587
-24.806406
-25.758195
-24.943303
-23.384435
-22.370300
-21.390455
-16.846074
-18.128548
-22.554214
-18.280511
-16.233539
-18.207256
-16.505515
-12.932667
-10.395513
-10.179385
-8.474788
-4.731272
-3.380738
-0.558878
3.704434
3.082030
3.883155
8.977205
9.335425
8.554823
11.962200
14.426878
14.838351
14.129185
14.853159
17.228218
19.205572
19.611849
15.875608
13.204155
14.464030
14.609760
10.382038
7.783840
13.436910
14.913951
7.726173
7.259890
14.044769
13.684991
7.637075
9.624040
15.717417
16.873645
17.347462
18.965817
18.243403
17.660744
20.561833
23.751264
25.636400
28.273305
32.028251
33.608160
32.514018
32.829377
33.279035
32.230353
31.188944
30.451204
29.975569
29.706450
30.581089
31.492356
31.931104
33.095644
34.192125
34.584635
33.940411
33.088113
32.191915
30.607850
29.365381
28.063165
25.910988
23.403709
20.273766
16.965882
14.438860
11.596220
7.834002
4.801991
3.150387
1.512811
-0.305045
-0.934981
-1.198645
-2.389161
-3.490317
-4.256891
-5.435458
-7.416447
-9.796441
-12.140066
-14.740602
-16.749127
-17.774690
-18.777914
-20.177283
-21.305195
-21.598992
-22.205289
-23.754545
-25.596039
-27.499098
-29.154339
-30.242506
-30.794253
-30.794772
-30.035469
-28.242031
-25.687732
-23.172919
-20.859685
-18.265122
-15.761738
-14.026748
-12.366830
-10.317261
-8.493170
-6.713239
-4.816673
-3.400937
-2.468630
-1.947535
-2.077678
-2.855422
-4.050354
-4.925772
-5.395431
-6.157070
-6.922606
-7.168865
-7.041059
-7.285240
-7.622938
-6.730115
-5.249957
-4.217898
-3.570556
-3.454699
-4.083856
-5.114875
-5.503487
-5.460365
-5.911581
-6.453716
-7.375892
-9.368311
-11.780256
-13.804887
-14.930460
-15.421941
-15.630014
-15.008909
-14.005425
-13.547453
-13.265345
-12.979859
-13.230535
-13.418086
-12.692294
-11.454500
-9.866278
-7.997767
-6.131074
-4.117352
-2.397169
-1.162491
0.016077
0.744986
0.510416
-0.211478
-0.992860
-2.151164
-3.335446
-4.226709
-4.734814
-4.403090
-3.645866
-2.396382
-0.476956
1.250501
2.767806
4.122756
4.360964
3.924295
3.415410
2.526744
2.522329
2.217362
1.650289
3.508409
4.213680
4.475786
7.646774
9.543600
11.116495
15.073800
18.392336
19.503104
19.683384
19.706244
18.563266
15.877266
13.479349
12.920589
12.061796
9.114990
5.344459
3.811829
2.284394
-1.867996
-2.936421
-2.114774
-2.339473
-2.743671
-0.761901
2.155293
2.191921
5.072488
5.728922
3.674938
6.515241
8.881987
5.662943
3.366595
9.001482
13.489233
13.566904
12.748636
16.895831
21.129270
17.235609
17.786317
18.093104
17.592532
18.773697
15.325538
17.152227
20.052796
20.473361
20.406601
20.171252
23.765661
21.794283
18.376777
21.037061
21.868838
23.024546
23.610323
22.839592
25.393631
24.808634
22.116400
22.215113
21.069277
17.984533
14.464938
11.491116
10.009920
7.929958
6.493182
9.787560
10.867675
5.873638
5.108362
6.152630
0.541643
-2.111366
2.595629
5.007835
0.638798
-2.469844
3.225309
4.955883
0.493850
4.389590
8.805126
7.568891
9.933299
14.258436
15.719891
16.132922
18.271073
20.264792
19.274557
19.966060
23.974539
24.224437
20.645615
21.249056
24.530445
24.111959
23.353697
24.299513
24.030134
23.387729
22.258778
20.407412
18.988041
16.494010
12.891809
9.086469
4.295829
-0.301023
-4.673436
-8.890508
-9.830868
-10.299488
-12.921845
-13.084979
-11.395448
-12.070844
-13.104979
-11.479870
-10.122582
-11.229713
-11.299070
-8.117172
-6.561681
-8.948688
-8.739575
-6.288144
-7.219931
-9.163254
-8.900109
-9.403539
-12.556082
-14.080139
-14.107155
-16.665089
-19.144833
-18.367866
-17.380488
-18.491255
-18.654389
-18.160829
-19.562796
-20.531730
-19.712162
-18.866876
-19.305624
-19.533699
-18.438517
-18.208882
-18.434879
-17.533224
-16.441939
-15.915648
-15.527295
-13.757755
-11.467900
-10.596638
-9.716024
-8.762416
-8.899832
-9.459891
-10.354791
-11.446855
-12.743876
-13.789961
-14.098045
-14.276505
-13.353029
-10.857958
-6.693358
-0.835071
4.854626
10.136748
15.625645
20.072093
22.286615
23.752486
25.152116
24.761685
23.653776
23.190870
22.475470
21.224688
20.424863
20.933489
21.428607
21.121822
20.971676
20.276538
18.480503
16.878775
16.081288
15.055205
13.745196
14.015615
14.871291
14.566584
14.018734
13.509849
13.184101
13.247225
13.694286
14.620619
15.636312
16.039472
15.316019
14.402156
13.849111
12.468185
9.945839
7.348680
5.273395
2.876777
-0.348501
-2.702518
-3.982394
-5.357864
-5.604384
-4.226574
-2.163756
0.753438
4.227835
6.894093
8.876642
11.139741
12.905125
13.568313
13.751450
13.400504
12.168945
9.933123
7.044764
4.200565
1.371693
-0.954009
-2.194660
-2.742510
-2.652370
-2.278823
-2.167122
-1.851503
-1.204421
-0.760477
-0.080664
1.478724
3.937947
7.111532
9.885075
11.543174
12.658618
13.481304
13.910181
13.827835
13.596902
13.814848
14.148131
14.612597
15.694531
17.037272
18.069590
18.850193
19.992133
21.166025
21.543988
21.916756
23.120781
24.220898
24.209469
23.830988
23.818519
23.062855
21.216945
19.520401
18.612772
17.531359
15.238908
13.142841
12.169751
12.037010
12.294441
12.804885
14.610792
15.787282
16.575418
17.460448
17.345372
18.939048
19.170762
18.257418
19.370525
18.637460
16.803499
14.391035
11.719063
10.569071
9.117228
9.123463
11.057696
11.800373
12.544349
14.655483
17.102498
19.944099
23.286274
26.765347
29.580452
31.623787
33.109660
33.104206
31.902260
30.270658
28.118741
25.542623
22.640757
19.924104
18.174568
16.818580
15.586761
14.398843
12.762825
10.315032
7.658386
5.939503
3.496386
0.886758
-0.693150
-0.338826
1.610473
1.403958
-0.226605
-1.275287
-1.115270
-2.074592
-2.424239
0.512438
0.224616
0.106681
5.079679
6.984558
3.303907
1.482415
8.329898
11.727922
3.072716
3.373008
12.356563
8.905027
0.877419
4.616259
8.816188
3.686551
3.262091
8.016364
7.150818
4.918373
6.006801
6.674145
5.954069
5.213991
6.389441
5.464928
-1.686482
-3.248726
-0.906398
-5.984341
-8.154701
-7.931820
-13.921288
-18.433197
-17.874955
-16.355832
-19.138725
-20.357036
-13.642034
-11.015780
-15.115177
-14.610967
-10.728215
-11.969386
-16.520260
-15.839407
-11.908858
-13.076774
-14.598494
-14.250145
-14.612001
-15.057762
-19.877236
-21.684960
-19.094814
-21.520007
-22.018241
-18.584888
-17.924297
-18.405907
-13.192624
-4.850176
-12.018471
-29.335899
-27.306332
-11.856894
-8.414709
-21.120477
-26.370126
-11.079666
-8.424058
-16.770920
-6.628541
1.933930
-2.971787
-3.951371
-1.822832
-4.866273
-6.451376
-4.987323
-6.181736
-6.057047
-2.829430
-1.223803
-4.019945
-4.897440
-1.167952
-5.493607
-9.161789
-2.018170
-3.553398
-6.239398
-2.695643
-4.954325
-0.975459
0.571979
0.482619
15.267571
0.334553
-34.670473
-1.498628
37.384734
-4.499986
-3.937328
53.161481
21.794245
-29.729683
15.267317
51.552740
13.951334
3.046017
33.669539
29.616900
-10.704277
-3.024497
31.636337
7.953037
2.570386
10.635921
2.301268
20.669718
-3.349463
-3.140609
35.420381
11.224299
9.522819
34.994364
35.130223
28.792665
14.929891
17.104149
41.352706
54.968182
25.746889
-27.451763
-41.670679
11.682016
41.254257
-0.643191
12.024132
72.836843
52.647421
-12.396648
-0.624225
39.976463
20.320604
18.513659
34.435874
16.772176
13.224006
11.819961
7.428845
19.447788
15.941441
15.233833
32.135634
29.273512
16.526700
14.588053
13.814984
13.487417
15.668169
7.574061
-16.450315
-16.788532
3.552596
0.947124
-1.653152
-8.643247
-25.571283
-11.226118
-0.160004
-22.361329
-17.706807
6.578897
-27.746316
-51.571970
-13.887437
-19.835862
-38.663321
-17.847337
-22.625248
-36.885208
-30.175661
-25.346056
-35.044231
-44.078439
-30.612329
-20.793880
-31.572950
-36.140968
-32.121578
-32.809443
-26.831923
-17.311428
-20.304473
-18.630009
-10.163652
0.397733
10.825597
-10.089097
-22.312476
3.677825
2.982427
-9.349276
-1.402974
-9.027162
-18.561424
-6.537545
-2.542834
-18.930552
-17.890181
1.823087
2.811245
-6.075675
-0.161798
12.480588
6.681270
-2.015760
11.132394
12.595927
-7.865991
-7.330090
7.615139
-8.275384
-23.309712
-3.001315
7.621635
-4.901516
-12.564409
-13.908448
-10.750708
0.401129
-8.408640
-22.982139
1.433448
15.467411
-1.328403
-3.261855
-1.787152
-5.455074
-10.847856
-23.871840
-23.858851
-16.463517
-19.691653
-20.329902
-12.633757
-12.395549
-19.053401
-9.433155
-3.660591
-17.396859
-18.623223
-24.026914
-38.556773
-23.148898
-13.714906
-30.669957
-24.054447
-11.579871
-24.141468
-25.224440
-4.046600
3.886194
-6.928984
-9.089992
-0.934838
1.310077
-10.495075
-19.078067
-9.800715
-8.754629
-10.909403
-5.295038
-11.283987
-11.665326
-1.759595
-2.212370
0.086317
12.768447
12.159292
-1.042113
-2.802560
-0.837935
-6.210974
-4.513909
-0.490104
-7.441752
-9.159337
-6.027315
-7.190815
-1.941684
3.359920
6.826524
12.353866
13.795059
7.596737
-0.345666
0.736787
-2.081694
-9.480923
-6.406569
-4.378561
-9.967207
-6.990786
6.750418
7.267617
5.908512
21.025447
19.961178
3.437861
4.284705
15.795022
10.865407
0.791347
16.737202
27.649793
11.864476
7.372310
16.217928
12.081125
5.538870
14.060038
18.578442
7.425826
1.127234
5.472632
4.349916
2.356717
5.595504
4.553835
10.805670
15.110025
0.423007
-14.049183
-21.308137
-19.390010
-9.839902
-8.164658
-8.306490
-1.380817
-3.309334
-17.544096
-22.309538
-14.542476
-11.568912
-11.341095
-4.714415
-5.914542
-16.125240
-17.957382
-14.138274
-12.024282
-6.951533
1.501316
-1.855405
-14.389726
-18.353784
-22.681257
-23.222613
-12.559399
-10.397610
-14.221653
-22.516302
-37.268781
-40.001280
-39.215221
-47.371154
-46.258308
-30.895113
-22.827240
-29.917345
-41.062687
-46.474432
-43.686342
-42.151893
-43.098746
-38.370710
-34.039858
-36.268147
-39.716565
-41.955245
-43.302661
-38.950508
-30.951734
-26.698033
-23.065438
-18.088804
-17.704087
-25.361785
-31.392557
-26.143426
-17.988011
-16.034556
-17.876050
-15.853237
-18.825241
-29.252325
-24.524288
-10.233675
-5.982832
-8.037076
-10.473179
-11.813581
-14.328653
-17.540683
-16.297953
-17.204802
-20.962085
-20.500996
-21.331214
-26.421626
-28.091154
-21.240813
-15.139124
-16.416402
-16.166505
-11.169349
-9.701400
-11.906049
-8.518415
-3.404104
-1.650410
2.521204
5.896369
4.508949
4.881197
7.726695
4.480636
-4.928677
-11.721348
-13.449843
-14.296686
-15.915819
-16.463150
-14.491251
-9.648916
-8.387223
-13.696099
-19.544774
-24.029406
-25.463844
-27.857086
-35.953532
-38.751751
-33.028024
-30.272925
-28.671196
-23.842369
-21.707855
-18.635060
-10.984634
-6.565202
-7.719091
-8.422282
-7.633366
-7.483739
-7.070448
-7.662459
-9.121834
-9.810219
-8.299148
-2.856750
2.513953
3.501591
4.361423
8.052466
5.706763
-2.926364
-8.766986
-11.529097
-10.448722
-6.786253
-1.538681
3.643690
3.035833
1.423454
2.091838
-0.159311
-5.202444
-6.960034
-7.216944
-8.766459
-5.111783
-0.329195
-0.921466
-0.297762
1.863507
0.537912
0.713256
5.486492
7.732966
6.595962
8.016634
11.342183
13.870765
15.015303
18.045236
23.903523
24.131860
19.921282
21.507166
26.504322
28.330491
28.999654
34.158905
41.548004
42.126768
40.340604
41.635028
39.216849
34.120982
31.099362
29.807017
27.836418
29.278391
38.562237
44.507286
43.677848
42.351733
40.372302
37.279246
31.460445
28.866663
31.023517
28.591050
27.656146
30.002111
25.871282
21.779678
22.715363
19.971435
13.145254
11.412342
14.192379
14.814524
17.492212
21.964378
19.829086
13.680639
8.067055
6.086065
2.850916
-5.019791
-1.603323
1.588186
-7.825803
-9.066714
-9.221535
-14.888371
-15.856526
-18.724363
-19.594585
-17.335123
-21.244370
-25.257264
-24.632522
-21.792739
-17.619307
-15.042928
-12.917766
-9.497661
-12.284191
-18.085847
-14.982918
-14.807575
-20.870557
-14.818224
-8.409229
-14.341289
-16.370336
-11.556316
-11.045352
-15.291518
-11.703343
-2.004907
-3.857571
-6.568249
1.848752
5.430173
2.508044
4.887519
12.419750
16.546164
13.362709
10.786331
11.047658
6.282996
-2.253238
-4.904428
-2.039707
-1.987753
-0.141062
4.440985
3.096426
2.425966
4.652697
2.705737
-2.172184
-9.700518
-17.794886
-20.326584
-17.461343
-16.372395
-18.710306
-17.855929
-14.849114
-13.587161
-14.804433
-17.309634
-14.926263
-8.922246
-5.759052
-3.509721
1.964889
4.862081
2.471177
3.509730
9.304634
15.756750
19.841861
19.401295
17.341076
15.189679
12.970742
15.076161
21.599194
24.420015
23.363539
23.869308
22.291478
16.968054
16.956106
21.365407
20.913931
22.002099
23.870091
16.962603
12.700851
14.686258
11.380192
6.964657
7.263651
8.464298
6.855816
2.083620
3.674439
11.538394
9.432197
2.101806
1.832168
-1.241406
-11.731354
-18.267114
-16.862808
-16.381717
-16.884108
-10.557200
-6.329996
-8.903256
-8.647125
-7.741313
-9.814001
-12.550655
-11.682770
-5.294817
-4.113132
-5.876696
-1.592343
-2.428016
-9.580985
-10.044410
-6.111523
-6.452858
-7.557390
