EVENT_NAME: 202302060117
EVENT_ID: 13194
EVENT_DATE_YYYYMMDD: 2023/02/06
EVENT_TIME_HHMMSS: 01:17:32.00000
EVENT_LATITUDE_DEGREE: 37.288
EVENT_LONGITUDE_DEGREE: 37.043
EVENT_DEPTH_KM: 8.6
HYPOCENTER_REFERENCE: AFAD
MAGNITUDE_W: 7.7
MAGNITUDE_W_REFERENCE: AFAD
MAGNITUDE_L: 
MAGNITUDE_L_REFERENCE: 
FOCAL_MECHANISM: 
NETWORK: TK
STATION_CODE: 7201
STATION_NAME: 
STATION_LATITUDE_DEGREE: 37.873
STATION_LONGITUDE_DEGREE: 41.15112
STATION_ELEVATION_M: 597.0
LOCATION: Kahramanmaras_Pazarck_Turkiye
SENSOR_DEPTH_M: 
VS30_M/S: 450
SITE_CLASSIFICATION_EC8: B
MORPHOLOGIC_CLASSIFICATION: 
EPICENTRAL_DISTANCE_KM: 367.78
EARTHQUAKE_BACKAZIMUTH_DEGREE: 
DATE_TIME_FIRST_SAMPLE_YYYYMMDD_HHMMSS: 2023/02/06 01:17:58.9751340
DATE_TIME_FIRST_SAMPLE_PRECISION: millisecond
SAMPLING_INTERVAL_S: 0.01
NDATA: 21001
DURATION_S: 
STREAM: HNE
UNITS: cm/s^2
INSTRUMENT: sensor = CMG-5T/GURALP | digitizer = 
INSTRUMENT_ANALOG/DIGITAL: 
INSTRUMENTAL_FREQUENCY_HZ: 
INSTRUMENTAL_DAMPING: 
FULL_SCALE_G: 
N_BIT_DIGITAL_CONVERTER: 
PGA_CM/S^2: 36.866
TIME_PGA_S: 
BASELINE_CORRECTION: BASELINE REMOVED
FILTER_TYPE: BUTTERWORTH
FILTER_ORDER: 
LOW_CUT_FREQUENCY_HZ: 
HIGH_CUT_FREQUENCY_HZ: 
LATE/NORMAL_TRIGGERED: 
DATABASE_VERSION: 
HEADER_FORMAT: DYNA 1.2
DATA_TYPE: Acceleration
PROCESSING: Automatic Paolucci et al., 2011
DATA_TIMESTAMP_YYYYMMDD_HHMMSS: 
DATA_LICENSE: U (unknown license)
DATA_CITATION: Turkish Accelerometric Archive v 1.0 - Disaster And Emergency Management Presidency, Earthquake Department
DATA_CREATOR: AFAD
ORIGINAL_DATA_MEDIATOR_CITATION: : AFAD - Disaster And Emergency Management Presidency
ORIGINAL_DATA_MEDIATOR: AFAD PROCESS SERVICE
ORIGINAL_DATA_CREATOR_CITATION: AFAD PROCESS SERVICE
ORIGINAL_DATA_CREATOR: network: TK
USER1: GuestUser
USER2: 
USER3: 
USER4: 
USER5: 
[...]
1.637084
1.381356
1.320707
1.459514
1.828727
2.247648
2.610297
2.849457
2.927927
2.914798
2.923865
3.006087
3.252125
3.673235
4.228461
4.849964
5.406754
5.815671
5.962919
5.969485
5.973863
6.109856
6.380592
6.742615
7.098698
7.388504
7.526999
7.495425
7.355681
7.196242
6.956458
6.539102
5.913849
5.158230
4.435438
3.774232
3.207128
2.603759
1.951307
1.273220
0.638588
0.125255
-0.172365
-0.232701
-0.096707
0.211231
0.636092
1.099093
1.525205
1.885039
2.192665
2.402752
2.384933
2.180163
1.804073
1.327631
0.861817
0.446650
0.062432
-0.318034
-0.693811
-1.074903
-1.468499
-1.883980
-2.280702
-2.618964
-2.960977
-3.308930
-3.564033
-3.646253
-3.588728
-3.465865
-3.317366
-3.200756
-3.018493
-2.771830
-2.589567
-2.569246
-2.789647
-3.080702
-3.355187
-3.706892
-4.131439
-4.467199
-4.553171
-4.410299
-4.045463
-3.554325
-2.971274
-2.309130
-1.689815
-1.117394
-0.620941
-0.232658
0.002126
0.106857
0.155628
0.110298
-0.060708
-0.403347
-0.872599
-1.408441
-2.024002
-2.643628
-3.171029
-3.520858
-3.651848
-3.505850
-3.082865
-2.483558
-1.822351
-1.199910
-0.749726
-0.539952
-0.511190
-0.622172
-0.829130
-1.110181
-1.394983
-1.623825
-1.792643
-1.918005
-2.135280
-2.471041
-2.865888
-3.270739
-3.636824
-3.941009
-4.184858
-4.335856
-4.255510
-3.917559
-3.389531
-2.770529
-2.092127
-1.404034
-0.783469
-0.250126
0.170358
0.512373
0.759661
0.869394
0.942550
0.987882
0.924732
0.697453
0.332931
-0.085988
-0.481148
-0.717493
-0.797212
-0.765636
-0.799086
-0.953523
-1.263648
-1.628796
-1.868267
-2.016139
-2.113365
-2.177140
-2.303128
-2.516651
-2.722984
-2.905870
-3.042487
-3.311971
-3.844686
-4.542469
-5.173662
-5.647291
-5.965545
-6.212832
-6.476063
-6.793378
-7.131015
-7.517421
-7.937903
-8.329624
-8.753545
-9.209355
-9.652659
-9.962471
-10.036563
-9.860240
-9.561368
-9.155577
-8.736656
-8.305230
-7.897251
-7.406738
-6.746782
-5.923009
-4.939171
-3.914691
-2.790484
-1.617506
-0.385130
0.843183
1.963951
2.966234
3.901615
4.718510
5.471630
6.231627
7.013820
7.833529
8.589150
9.242854
9.764004
10.157602
10.445532
10.721583
11.016391
11.210221
11.074541
10.519317
9.701798
8.851766
8.035498
7.186404
6.309486
5.488841
4.679138
3.793466
2.845582
1.918956
1.146769
0.621869
0.413347
0.461805
0.782874
1.387183
2.122795
2.716475
3.005343
3.026915
2.933753
2.828711
2.729922
2.627069
2.507646
2.420111
2.335078
2.278806
2.290374
2.444500
2.660526
2.764319
2.693041
2.469201
2.165953
1.869897
1.705768
1.684198
1.726716
1.669194
1.413153
1.057384
0.756325
0.574065
0.408061
0.210794
0.042914
-0.070256
-0.107145
-0.119649
-0.177797
-0.230005
-0.242509
-0.167791
0.012283
0.258009
0.536248
0.771344
0.927346
0.990185
0.962362
0.806675
0.510618
0.042929
-0.565130
-1.216018
-1.821889
-2.333346
-2.753515
-3.102719
-3.351569
-3.452234
-3.506943
-3.528513
-3.411590
-3.052068
-2.459639
-1.673069
-0.875244
-0.233420
0.202383
0.513135
0.826076
1.157461
1.416317
1.366298
0.991459
0.480940
-0.008320
-0.327512
-0.409106
-0.410669
-0.455373
-0.620752
-0.941819
-1.464218
-2.041952
-2.464310
-2.721289
-2.903549
-3.088624
-3.210547
-3.196791
-2.906047
-2.287983
-1.439512
-0.535394
0.338400
1.190934
2.105369
3.070137
3.921109
4.521666
4.938711
5.257279
5.498315
5.661820
5.711216
5.653381
5.463930
5.181628
4.843367
4.581074
4.436328
4.321908
4.139022
3.879230
3.592551
3.374026
3.191453
2.991372
2.811300
2.698130
2.630291
2.468351
2.187300
1.859980
1.621134
1.403859
1.122183
0.848636
0.772043
0.895219
1.107181
1.262870
1.305701
1.223793
1.062166
0.893348
0.771737
0.753918
0.713278
0.597919
0.465054
0.471620
0.658571
0.910862
1.136892
1.410442
1.673675
1.828426
1.831866
1.726824
1.534247
1.294775
0.989339
0.558540
0.055212
-0.613497
-1.520114
-2.564287
-3.458087
-4.059581
-4.488504
-4.953067
-5.498600
-6.015684
-6.399589
-6.627806
-6.714090
-6.810066
-7.025465
-7.382797
-7.847672
-8.298480
-8.619234
-8.824629
-8.972813
-9.096300
-9.176645
-9.108804
-8.884337
-8.630170
-8.505744
-8.486360
-8.531377
-8.558575
-8.576706
-8.512930
-8.321288
-8.068685
-7.836090
-7.612248
-7.309937
-6.884450
-6.299524
-5.596113
-4.774841
-3.932310
-3.069146
-2.280700
-1.530081
-0.741948
0.119966
1.098802
2.117029
3.097428
3.882122
4.461109
4.812502
4.901602
4.616487
3.970288
3.128071
2.335563
1.647784
1.008463
0.502008
0.146239
-0.077288
-0.262362
-0.515589
-0.867294
-1.272145
-1.699193
-2.091226
-2.551412
-2.918435
-3.072247
-3.000655
-2.812765
-2.662390
-2.474813
-2.214082
-1.743890
-1.035476
-0.132921
0.758692
1.512749
2.168016
2.855171
3.660499
4.431126
4.892252
5.012614
4.927580
4.783460
4.578065
4.309832
4.070048
3.921863
3.830890
3.638625
3.322248
2.962727
2.677925
2.480346
2.430326
2.476283
2.612589
2.805481
3.037764
3.323506
3.735236
4.218871
4.614658
4.969178
5.370279
5.900495
6.484796
7.067846
7.575866
7.948831
8.141410
8.188618
8.083889
7.853171
7.481458
6.912790
6.164675
5.286506
4.363945
3.460767
2.577596
1.698177
0.925051
0.372640
0.090027
-0.020955
-0.047528
-0.072224
-0.143815
-0.237602
-0.292311
-0.267925
-0.202585
-0.174761
-0.251041
-0.476131
-0.705911
-0.868477
-0.946007
-0.918495
-0.876290
-0.815639
-0.820953
-0.908800
-1.042604
-1.197041
-1.439638
-1.875752
-2.549462
-3.348224
-4.169806
-4.840390
-5.314957
-5.647592
-5.672288
-5.345592
-4.690325
-3.844981
-2.930233
-2.099895
-1.478392
-1.130750
-1.059783
-1.174828
-1.368344
-1.402106
-1.165760
-0.817492
-0.422018
-0.059057
0.126644
0.107262
-0.105324
-0.483914
-1.032261
-1.611871
-1.936376
-1.743485
-1.086342
-0.220052
0.760348
1.774198
2.694260
3.567741
4.393077
5.022708
5.345966
5.388171
5.214039
4.941429
4.595664
4.090147
3.437383
2.685516
1.989609
1.449703
1.160837
1.186786
1.468776
1.803913
2.101222
2.417602
2.760554
2.975955
2.989086
2.854032
2.724293
2.797136
3.044425
3.381125
3.757216
4.145187
4.455939
4.531283
4.257735
3.783481
3.249202
2.654587
1.906784
1.127406
0.408364
-0.230019
-0.762109
-1.185405
-1.519603
-1.679042
-1.758448
-1.870055
-2.017614
-2.262400
-2.510625
-2.733215
-2.786673
-2.712580
-2.421210
-2.105769
-1.856917
-1.838784
-1.966022
-2.079192
-2.145781
-2.003847
-1.761873
-1.374215
-0.985619
-0.607652
-0.308467
-0.088689
0.129838
0.393071
0.645362
0.863889
0.988315
1.142441
1.275934
1.182772
1.008952
0.684759
0.221134
-0.445073
-1.364196
-2.402117
-3.495060
-4.450447
-5.149793
-5.510876
-5.520254
-5.518690
-5.692510
-5.907284
-6.006073
-5.890400
-5.747216
-5.710638
-5.671871
-5.503677
-5.218873
-4.896241
-4.460438
-3.920530
-3.284334
-2.584986
-1.848436
-1.136583
-0.385965
0.422489
1.315040
2.306694
3.376504
4.476952
5.566458
6.541230
7.391576
8.192215
8.997856
9.899473
10.768889
11.655501
12.403930
12.967910
13.274598
13.300547
13.115160
12.827857
12.480842
12.106316
11.606426
10.849244
9.798818
8.466090
7.029570
5.391093
3.569416
1.616749
-0.322788
-2.129459
-3.619126
-4.732702
-5.444553
-5.921934
-6.348043
-6.788847
-7.337819
-8.029974
-8.993177
-10.158962
-11.350070
-12.428320
-13.208011
-13.579723
-13.520636
-13.086396
-12.438007
-11.624238
-10.674789
-9.570277
-8.275062
-6.873555
-5.513314
-4.260304
-3.243640
-2.333269
-1.468855
-0.659775
0.073961
0.691401
1.070931
1.170972
1.047798
0.675773
0.261855
0.061775
0.218402
0.544473
0.878359
1.192863
1.557074
1.871891
2.018826
1.966618
1.861264
1.840631
1.761225
1.593658
1.466420
1.615856
1.901911
2.031339
2.077921
2.202973
2.539673
3.103341
3.853334
4.634589
5.367388
5.974823
6.397808
6.742012
7.195322
7.899671
8.660919
9.219897
9.494697
9.504702
9.349014
9.177383
8.943851
8.669053
8.329541
7.813082
7.167196
6.473790
5.628760
4.508618
3.093669
1.380161
-0.641597
-2.799660
-4.946781
-6.999802
-8.779274
-10.211105
-11.231518
-11.886159
-12.318521
-12.667412
-12.971284
-13.263277
-13.498372
-13.847575
-14.361220
-14.862048
-15.255645
-15.508246
-15.581713
-15.448220
-15.238447
-14.944576
-14.460004
-13.660615
-12.632697
-11.576330
-10.741302
-10.181386
-9.707755
-9.238501
-8.772374
-8.361893
-8.155871
-8.170251
-8.085841
-7.590326
-6.698713
-5.638282
-4.772304
-3.991048
-3.186033
-2.610173
-2.153737
-1.845173
-1.562870
-1.368103
-1.269937
-1.217727
-1.222103
-1.172082
-0.901033
-0.344869
0.216923
0.729006
1.146677
1.478375
1.672830
1.723476
1.627501
1.397096
1.039764
0.758400
0.735579
0.937850
1.307063
1.744117
2.066123
2.227440
2.299032
2.346552
2.384694
2.401264
2.402515
2.120214
1.557486
0.873147
0.278218
-0.224172
-0.531484
-0.586818
-0.389862
-0.084737
0.078455
0.079394
-0.114122
-0.516159
-1.117965
-1.641927
-1.937671
-1.865766
-1.407454
-0.704043
0.059081
0.883166
1.888576
3.059365
4.296743
5.531933
6.618313
7.501173
8.353395
9.117143
9.736458
10.274178
10.723736
10.700290
10.008760
8.826718
7.394575
6.306634
5.993070
6.349465
6.704298
6.618326
6.279127
5.774235
5.082705
4.215478
3.226640
2.311269
1.605983
0.968851
0.333906
-0.310105
-0.709954
-0.772166
-0.580212
-0.170670
0.323907
0.644351
0.671550
0.772842
0.974800
1.437801
2.122143
2.706444
3.005003
2.892458
2.511054
2.006163
1.424990
1.099546
1.310883
1.746060
2.159354
2.348494
2.358499
2.392577
2.559208
2.952806
3.374853
3.330774
2.810876
2.108404
1.380609
0.751292
0.188564
-0.228167
-0.738999
-1.203249
-1.412395
-1.461477
-1.277339
-0.735555
0.120106
0.980456
1.794225
2.361644
2.929063
3.612466
4.266483
4.919874
5.371308
5.460408
5.241570
5.116207
5.144970
5.138093
4.730116
3.800676
2.710547
1.830190
1.247454
0.793208
0.309575
-0.267221
-0.873716
-1.653720
-2.708210
-4.068762
-5.657219
-7.085298
-8.049126
-8.564022
-8.895406
-9.310261
-9.664779
-9.678846
-9.404984
-9.104236
-8.962303
-8.917909
-8.792857
-8.557448
-8.342360
-8.231689
-8.181981
-7.914058
-7.202831
-6.040170
-4.962857
-4.183164
-3.495384
-2.986426
-2.799474
-2.862312
-2.645660
-2.032910
-1.279166
-0.632027
0.050439
0.912352
1.923389
3.052598
4.058008
4.891785
5.605200
6.318303
6.994517
7.673856
8.371015
9.002522
9.473965
9.435200
8.900296
7.865814
6.591860
5.307902
4.097723
3.132019
2.256352
1.437583
0.775752
0.199269
-0.450994
-1.226308
-2.206393
-3.240875
-4.280046
-5.152275
-5.730321
-6.016687
-6.196759
-6.257408
-6.112973
-6.021060
-6.068891
-6.265845
-6.526263
-6.787931
-6.963626
-7.047409
-7.186840
-7.396299
-7.652965
-7.592002
-6.925168
-6.030428
-5.331081
-5.165388
-5.377973
-5.860981
-6.217688
-6.273022
-6.039801
-5.528030
-4.948106
-4.156533
-3.038578
-1.627379
-0.263074
0.931787
1.786510
2.402699
2.756906
2.665933
2.323607
2.096328
2.266085
2.962307
4.009295
4.880900
5.440816
5.588377
5.382669
5.263247
5.586816
6.279286
7.022089
7.662350
8.227580
8.795624
9.424318
9.943280
10.035193
9.500914
8.384524
6.920180
5.302961
3.791098
2.448991
1.353235
0.323442
-0.979274
-2.550224
-4.224653
-5.673991
-6.594051
-6.975455
-6.961074
-6.708158
-6.674080
-6.816012
-6.890104
-6.874472
-6.267974
-5.465773
-4.837704
-3.974540
-3.145452
-2.105029
-0.860460
0.463516
1.915982
3.100839
4.185343
5.375515
6.598826
7.666760
8.495535
9.145488
9.535022
9.538774
9.139238
8.484598
7.728354
7.075590
6.628221
6.009221
5.015380
3.948698
3.244350
2.891708
2.946731
3.174012
3.439433
4.092824
4.992878
5.791954
6.224318
6.314668
6.369066
6.602286
6.946177
7.177834
7.011830
6.500686
5.834791
5.149201
4.320428
3.323774
2.062325
0.642374
-0.506530
-1.354373
-2.031522
-2.685850
-3.359560
-3.851947
-4.143940
-4.212404
-4.063280
-3.656864
-2.973148
-2.378843
-1.827681
-1.306531
-0.738799
-0.081031
0.588304
1.097887
1.362370
1.081945
0.414174
-0.211079
-0.757237
-1.238057
-1.756079
-2.465116
-3.573378
-4.652253
-5.606702
-6.378265
-6.886595
-7.117938
-6.896910
-6.075638
-4.651934
-3.002513
-1.394046
0.114692
1.509010
2.929275
4.256378
5.298364
5.862970
6.063364
6.000215
5.680711
5.110167
4.413010
3.615812
2.530372
1.187327
-0.527431
-2.339729
-4.206111
-5.662015
-6.627093
-6.943471
-6.827798
-6.629279
-6.265693
-5.928055
-5.503194
-4.966412
-4.513102
-4.382736
-4.290823
-4.200785
-3.965064
-3.627738
-3.327928
-3.261025
-3.497058
-3.868145
-4.376788
-5.120840
-6.088107
-7.141972
-7.852885
-8.076725
-7.971681
-7.869451
-7.791294
-7.483980
-7.287024
-7.371745
-7.904461
-8.524399
-9.020850
-9.365052
-9.629533
-9.804291
-9.844306
-9.765836
-9.576383
-9.316277
-8.699150
-8.031691
-7.455206
-6.821197
-6.062138
-5.299327
-4.829135
-4.519946
-4.332369
-4.453042
-4.846639
-5.438441
-6.304729
-7.226978
-7.910067
-8.305852
-8.495616
-8.597219
-8.508119
-8.384943
-8.181110
-7.819712
-7.302001
-6.634854
-6.211869
-6.145278
-6.175602
-6.047737
-5.774188
-5.425920
-5.145806
-4.900080
-4.679990
-4.415506
-4.038477
-3.536710
-2.830797
-2.057982
-1.466179
-1.278289
-1.380517
-1.565279
-1.726594
-1.862273
-1.883531
-1.814126
-1.667191
-1.418339
-1.255147
-1.272340
-1.166359
-0.914381
-0.763068
-0.802771
-0.809023
-0.389476
0.456493
1.614464
2.946882
4.468125
6.245723
8.069590
9.714634
11.519431
13.636542
15.971241
18.407544
21.076442
23.872891
26.573364
29.078133
31.119901
32.673970
33.689384
34.499714
35.114965
35.611105
36.102555
36.437067
36.685919
36.865680
36.836294
36.369543
35.386019
34.154895
32.905951
31.632622
30.298956
28.906516
27.465307
25.899046
24.246813
22.596456
21.026132
19.457370
17.705097
15.597054
13.260793
10.769469
8.084942
5.316631
2.568640
-0.026788
-2.455899
-4.870629
-7.260662
-9.444673
-11.207576
-12.584072
-13.851148
-15.257344
-16.884879
-18.626211
-20.436007
-22.192345
-23.869588
-25.477115
-26.972722
-28.405803
-29.855766
-31.219757
-32.309261
-32.984848
-33.306227
-33.373129
-33.465978
-33.628856
-33.691380
-33.417831
-32.496518
-30.958392
-29.021042
-26.899554
-24.595180
-22.157001
-19.448400
-16.560663
-13.533182
-10.206205
-6.613807
-3.073305
0.138000
2.783763
4.876802
6.760381
8.525161
10.148946
11.774295
13.532198
15.353876
17.303106
19.213883
21.048692
22.781897
24.309706
25.553650
26.452766
27.065516
27.475683
27.730788
27.777683
27.589170
27.060831
26.003527
24.648603
23.052017
21.085594
18.966297
16.705379
14.461969
12.279208
10.286837
8.576768
7.234661
6.267394
5.377346
4.475730
3.608504
3.144879
2.840694
2.373942
1.880305
1.233168
0.555394
-0.102373
-0.636964
-0.961783
-1.013678
-0.815471
-0.565056
-0.516286
-0.788583
-1.005232
-1.197810
-1.411021
-1.735839
-2.313886
-3.085448
-4.234977
-5.655240
-7.241822
-8.930632
-10.541598
-12.129430
-13.671618
-14.989652
-15.785600
-16.151060
-16.180133
-15.864067
-15.512048
-15.283204
-15.406065
-15.849995
-16.471809
-17.344038
-18.198134
-18.871531
-19.517731
-20.222078
-20.891412
-21.280319
-21.331589
-21.002079
-20.271469
-19.335775
-18.448227
-17.584437
-16.939174
-16.624983
-16.499306
-16.563707
-16.591530
-16.758159
-17.092982
-17.501584
-18.049618
-18.508241
-18.944980
-19.181638
-19.056899
-18.654235
-17.938318
-17.125800
-16.272014
-15.646447
-15.308809
-15.151244
-15.325689
-15.874036
-16.747515
-17.714469
-18.671420
-19.472682
-20.016339
-20.347410
-20.252058
-19.757169
-19.017180
-18.037406
-17.143604
-16.548362
-16.205096
-15.727714
-14.948334
-14.058909
-12.988161
-11.656994
-10.231102
-8.845851
-7.423710
-5.979685
-4.483451
-2.905621
-1.498174
-0.271425
0.941882
2.179260
3.170289
4.148812
5.361806
6.828653
8.549665
10.331327
12.281495
14.102861
15.970808
17.612101
18.895123
20.065600
21.105710
21.925419
22.502842
23.005860
23.446040
23.997827
24.322960
24.339530
24.226985
24.290450
24.639967
25.234585
25.903295
26.565752
27.097844
27.294175
27.162873
26.710502
25.981144
24.856001
23.315063
21.452432
19.320004
16.934661
14.643731
12.667304
11.205774
10.289152
9.769254
9.503522
9.422865
9.410049
9.375660
9.261865
9.059596
9.108680
9.497588
10.144727
10.845325
11.475582
12.129599
13.144387
14.326743
15.232112
15.835170
15.997424
15.854555
15.351226
14.632810
14.016623
13.225990
12.232150
11.209860
10.402658
9.598895
8.585047
7.564633
6.723980
5.949916
4.967956
3.676807
2.146811
0.912874
-0.083155
-0.864722
-1.278014
-1.445268
-1.417756
-1.334597
-1.095749
-0.498318
0.489584
1.845761
3.430468
5.004234
6.489525
7.899161
8.952715
9.414154
9.483870
9.497314
9.601420
9.834328
10.380488
11.129856
11.864843
12.321904
12.648600
12.831488
12.708314
12.430389
12.055863
11.686026
11.296181
10.880701
10.657173
10.818802
11.173010
11.640701
11.859853
11.615379
11.174264
10.690318
10.364874
10.223880
10.082261
9.844353
9.395109
8.818625
8.033307
7.196093
6.244144
4.863897
2.855895
0.216386
-2.720119
-5.886404
-8.940144
-11.962308
-14.865362
-17.707766
-20.281310
-22.523158
-24.683409
-26.678594
-28.405232
-29.657928
-30.661772
-31.547756
-32.314004
-32.912059
-33.437584
-33.860880
-34.136929
-34.110980
-33.909022
-33.773028
-33.773027
-33.869003
-33.820545
-33.682988
-33.754579
-33.964038
-34.119725
-34.372640
-34.762172
-35.098558
-35.370543
-35.486214
-35.250180
-34.782489
-34.218821
-33.344090
-31.930702
-30.022739
-27.692729
-25.096674
-22.138596
-19.015451
-16.000788
-13.243730
-10.716452
-8.444591
-6.320602
-4.276021
-2.484980
-0.887142
0.361491
1.475382
2.859695
4.541004
6.302033
8.131527
9.946953
11.662338
13.297065
14.978687
16.676878
18.458853
20.353686
21.950273
22.975065
23.442443
23.563743
23.420874
23.056351
22.330120
21.362853
20.202069
18.989077
18.166244
17.720751
17.707622
17.891448
17.913020
17.591953
17.072993
16.318937
15.422636
14.719227
14.160876
13.881388
13.676305
13.650046
13.513741
13.280835
13.170791
13.394633
13.964865
14.441622
14.873361
14.785514
14.618572
14.321265
13.661622
12.881932
11.862768
10.725432
9.427406
8.169708
7.175555
6.588755
6.131695
5.633994
5.286354
5.158803
5.055949
4.814290
4.748014
5.052826
5.562721
6.187351
6.652541
6.746330
6.547812
6.313030
6.334290
6.517178
6.845437
7.146185
7.297810
6.937039
5.921940
4.600467
3.048900
1.554856
0.198994
-0.963665
-1.630498
-1.758361
-1.426976
-0.864246
-0.409061
-0.143327
-0.072047
-0.047974
0.105527
0.353128
0.511318
0.748291
1.309770
2.134793
2.838517
3.292453
3.388743
2.920428
2.317997
1.480470
0.222147
-1.416017
-3.056996
-4.401916
-5.450779
-6.130429
-6.755057
-7.312158
-7.710131
-8.089659
-8.386967
-8.580482
-8.713347
-8.927183
-9.403626
-9.873191
-10.229272
-10.634749
-11.212482
-11.802096
-12.633996
-13.533110
-14.353443
-15.235050
-15.940335
-16.343936
-16.168864
-16.019427
-15.744627
-15.486397
-15.143757
-14.707954
-14.290596
-13.710359
-13.367406
-12.724957
-12.099077
-11.505710
-11.017073
-10.721015
-10.566889
-10.436210
-10.013850
-9.147872
-7.844216
-6.662486
-6.023475
-5.875289
-5.792442
-5.549530
-4.818920
-3.520892
-1.810821
0.007106
1.682788
2.903284
4.020614
5.592816
7.452948
9.025150
10.189686
10.954998
11.165084
10.971256
