EVENT_NAME: 202302060117
EVENT_ID: 13194
EVENT_DATE_YYYYMMDD: 2023/02/06
EVENT_TIME_HHMMSS: 01:17:32.00000
EVENT_LATITUDE_DEGREE: 37.288
EVENT_LONGITUDE_DEGREE: 37.043
EVENT_DEPTH_KM: 8.6
HYPOCENTER_REFERENCE: AFAD
MAGNITUDE_W: 7.7
MAGNITUDE_W_REFERENCE: AFAD
MAGNITUDE_L: 
MAGNITUDE_L_REFERENCE: 
FOCAL_MECHANISM: 
NETWORK: TK
STATION_CODE: 2707
STATION_NAME: 
STATION_LATITUDE_DEGREE: 36.930889
STATION_LONGITUDE_DEGREE: 36.573771
STATION_ELEVATION_M: 487.0
LOCATION: Kahramanmaras_Pazarck_Turkiye
SENSOR_DEPTH_M: 
VS30_M/S: 558
SITE_CLASSIFICATION_EC8: B
MORPHOLOGIC_CLASSIFICATION: 
EPICENTRAL_DISTANCE_KM: 57.52
EARTHQUAKE_BACKAZIMUTH_DEGREE: 
DATE_TIME_FIRST_SAMPLE_YYYYMMDD_HHMMSS: 2023/02/06 01:17:17.0201970
DATE_TIME_FIRST_SAMPLE_PRECISION: millisecond
SAMPLING_INTERVAL_S: 0.01
NDATA: 4652
DURATION_S: 
STREAM: HNN
UNITS: cm/s^2
INSTRUMENT: sensor = ACEBOX/SARA | digitizer = 
INSTRUMENT_ANALOG/DIGITAL: 
INSTRUMENTAL_FREQUENCY_HZ: 
INSTRUMENTAL_DAMPING: 
FULL_SCALE_G: 
N_BIT_DIGITAL_CONVERTER: 
PGA_CM/S^2: 98.649
TIME_PGA_S: 
BASELINE_CORRECTION: BASELINE REMOVED
FILTER_TYPE: BUTTERWORTH
FILTER_ORDER: 
LOW_CUT_FREQUENCY_HZ: 
HIGH_CUT_FREQUENCY_HZ: 
LATE/NORMAL_TRIGGERED: 
DATABASE_VERSION: 
HEADER_FORMAT: DYNA 1.2
DATA_TYPE: Acceleration
PROCESSING: Automatic Paolucci et al., 2011
DATA_TIMESTAMP_YYYYMMDD_HHMMSS: 
DATA_LICENSE: U (unknown license)
DATA_CITATION: Turkish Accelerometric Archive v 1.0 - Disaster And Emergency Management Presidency, Earthquake Department
DATA_CREATOR: AFAD
ORIGINAL_DATA_MEDIATOR_CITATION: : AFAD - Disaster And Emergency Management Presidency
ORIGINAL_DATA_MEDIATOR: AFAD PROCESS SERVICE
ORIGINAL_DATA_CREATOR_CITATION: AFAD PROCESS SERVICE
ORIGINAL_DATA_CREATOR: network: TK
USER1: GuestUser
USER2: 
USER3: 
USER4: 
USER5: 
[...]
-0.007888
-0.005551
-0.014904
-0.012100
-0.009296
-0.013974
-0.008598
-0.009768
-0.013744
-0.009537
-0.013747
-0.014683
-0.010710
-0.015855
-0.014454
-0.013053
-0.016093
-0.010484
-0.009550
-0.012591
-0.014229
-0.022179
-0.020310
-0.012129
-0.012130
-0.013301
-0.018212
-0.020785
-0.014941
-0.013540
-0.017984
-0.021960
-0.015415
-0.009571
-0.017054
-0.016354
-0.012849
-0.017058
-0.013787
-0.014957
-0.019634
-0.006777
0.001405
-0.008416
-0.010054
-0.004678
-0.003043
-0.000005
-0.004449
-0.007490
0.003731
0.008172
0.008404
0.016118
0.013545
0.007932
0.011672
0.010735
0.008396
0.018448
0.032474
0.035044
0.028263
0.012597
0.003010
0.017036
0.027556
0.029191
0.033865
0.020538
0.006742
0.011183
0.013286
0.012817
0.006970
-0.000980
-0.000982
-0.010569
-0.021792
-0.023898
-0.024367
-0.022031
-0.032787
-0.053596
-0.061313
-0.065756
-0.073005
-0.076981
-0.075580
-0.072776
-0.080960
-0.091950
-0.094290
-0.088446
-0.078160
-0.075824
-0.077696
-0.090322
-0.118613
-0.118614
-0.076532
-0.026735
0.006463
-0.007333
-0.048248
-0.051757
-0.022534
-0.004766
0.008091
0.028430
0.036144
0.028895
0.031465
0.051336
0.064194
0.046190
0.031226
0.047590
0.060915
0.056939
0.047819
0.049688
0.072599
0.071429
0.031916
0.014146
0.035186
0.044536
0.017414
0.007594
0.043129
0.052714
0.011330
-0.013688
0.019043
0.077023
0.122144
0.139210
0.105308
0.035869
0.010150
0.052232
0.105302
0.137565
0.127978
0.037731
-0.056725
-0.019085
0.076537
0.080510
0.029073
0.008731
0.014575
-0.025873
-0.108172
-0.106536
-0.047387
-0.058377
-0.126180
-0.172707
-0.099062
0.034435
-0.012794
-0.219004
-0.329124
-0.223215
-0.042024
0.005435
-0.042962
-0.078968
-0.111935
-0.115677
-0.063074
0.040263
0.109933
0.068783
0.018515
-0.000657
0.021318
0.103847
0.081167
-0.019601
-0.045554
-0.054673
-0.008850
0.077419
0.050298
0.017331
0.105237
0.180051
0.076243
-0.154282
-0.240789
-0.070586
0.155261
0.237790
0.128839
-0.065214
-0.128574
-0.049786
-0.021264
-0.038099
-0.001628
0.010762
-0.048157
-0.074811
-0.010518
0.066867
0.117132
0.150564
0.106842
0.064056
0.131388
0.162014
0.123203
0.142840
0.179077
0.194974
0.157097
0.011674
-0.068987
0.003255
0.086017
0.137919
0.100978
-0.095881
-0.291805
-0.297417
-0.131423
-0.009382
-0.072742
-0.226115
-0.391878
-0.515792
-0.571437
-0.607911
-0.529824
-0.377624
-0.386276
-0.502474
-0.547131
-0.489151
-0.445198
-0.474191
-0.427666
-0.367816
-0.368285
-0.242036
-0.071599
0.006722
0.099070
0.233035
0.286339
0.076154
-0.228251
-0.219836
0.076617
0.405101
0.450456
0.002032
-0.415298
-0.222417
0.205665
0.387090
0.454189
0.388724
0.045976
-0.245103
-0.293501
-0.270590
-0.115584
0.192559
0.366971
0.271112
-0.036099
-0.475405
-0.748949
-0.598151
-0.214258
0.095288
0.111185
-0.206547
-0.522174
-0.590912
-0.526386
-0.474250
-0.405281
-0.171719
0.130111
0.308030
0.457892
0.572452
0.395232
-0.104628
-0.540194
-0.637221
-0.540430
-0.308739
-0.064188
-0.079387
-0.136668
-0.045489
-0.002705
0.044520
0.200228
0.271535
0.173338
0.121434
0.041006
-0.398066
-0.879456
-0.953338
-0.750871
-0.399475
0.046609
0.404785
0.391925
-0.108637
-0.485052
-0.249853
0.145029
0.250470
-0.026815
-0.476642
-0.472435
-0.056979
0.058282
0.037706
0.445213
1.146136
1.714730
1.658383
0.909295
0.148050
-0.277930
-0.556384
-0.729395
-0.702978
-0.400679
-0.012110
0.175394
0.320347
0.528893
0.423215
0.085143
0.021782
0.000272
-0.204770
-0.178820
-0.011189
-0.046026
-0.251068
-0.516195
-0.578854
-0.416600
-0.225355
0.115519
0.410570
0.214179
-0.316075
-0.781099
-0.880932
-0.324495
0.449372
0.526290
0.131639
0.138417
0.444457
0.540780
0.541246
0.728282
0.833723
0.444450
-0.092584
-0.113394
0.313986
0.538898
0.164353
-0.400268
-0.382034
0.279377
0.980768
1.312057
1.137877
0.443264
-0.320787
-0.420854
0.075262
0.353480
0.111031
-0.321262
-0.494273
-0.214887
0.140951
0.232832
0.089045
-0.095189
0.007915
0.178585
0.003236
-0.150838
-0.094027
-0.192924
-0.301174
-0.173990
-0.179836
-0.433975
-0.476060
-0.235250
0.035252
0.459592
1.052968
1.339836
1.002232
0.347598
0.009993
0.143958
0.177623
-0.202299
-0.522135
-0.452932
-0.289743
-0.185471
0.027750
0.398318
0.899578
1.261494
1.034008
0.440162
0.100453
-0.077468
-0.538518
-1.023882
-0.920312
-0.287658
0.340788
0.726786
0.905172
0.886466
0.763254
0.725144
0.606607
0.066066
-0.638366
-0.935057
-0.640473
-0.149968
-0.032603
-0.194392
-0.236477
-0.201877
-0.136181
0.137360
0.583444
0.761830
0.384713
-0.137591
-0.288859
-0.046647
0.203749
0.128932
0.019981
0.290483
0.511654
0.081232
-0.339838
0.208181
0.948849
0.699152
-0.191383
-1.053395
-1.676466
-1.676234
-0.996353
-0.074725
0.762969
1.086543
0.622454
-0.072627
-0.386384
-0.310168
-0.068423
-0.125471
-0.592599
-0.711136
-0.208005
0.302373
0.493384
0.394486
0.139178
-0.090179
-0.219236
-0.123614
-0.025421
-0.302706
-0.486238
-0.062131
0.380445
0.005433
-0.910118
-1.276714
-0.940047
-0.592158
-0.226735
0.395632
0.738144
-0.010243
-1.498597
-2.157673
-1.601003
-0.760270
-0.207808
-0.308576
-0.524840
-0.174613
-0.277486
-1.105129
-1.461438
-1.374467
-1.607798
-2.037051
-2.078902
-1.687994
-1.196788
-0.839547
-1.082931
-1.843241
-2.429606
-2.942091
-3.446861
-3.458085
-3.156955
-3.067880
-3.176130
-3.100381
-2.793640
-2.578314
-2.482459
-2.536234
-3.022533
-3.732577
-4.041425
-3.916812
-3.861404
-3.870056
-3.681616
-3.252600
-2.498839
-1.960873
-2.015349
-1.809843
-1.378254
-1.577451
-1.802599
-1.122718
0.425252
2.405747
4.058459
5.006973
5.887452
6.898858
7.320860
7.210506
6.898386
6.147194
5.737813
6.447620
7.636478
8.624738
9.197072
10.336598
12.572634
12.887324
9.117108
4.453318
2.787044
2.817670
0.622312
-2.558267
-2.544942
-0.743068
-0.643472
-2.353233
-4.693779
-5.063647
-2.901725
-2.402102
-5.123738
-9.412984
-13.466328
-14.799442
-14.911899
-15.843583
-14.627137
-10.337193
-6.124401
-4.340763
-3.299899
-0.055496
2.538483
1.654027
-0.088232
-1.539413
-2.631949
-2.327313
-1.407789
-1.516740
-3.518280
-4.968526
-2.283366
3.138625
8.691776
13.429443
14.375619
10.776075
7.149644
5.942080
4.545607
1.716191
1.258882
4.175268
3.746249
-2.289463
-7.245733
-7.306989
-3.573716
1.521894
5.190873
8.055590
11.877472
16.021761
19.506508
20.437020
14.814896
1.988075
-9.566187
-11.044957
-3.612777
5.588313
8.638431
4.946069
2.870416
5.370408
9.615464
14.554196
17.046941
13.166840
4.588817
-3.777152
-12.133769
-22.627994
-31.450569
-35.418344
-34.280922
-26.965407
-15.140410
-2.996748
3.866369
2.390873
-2.980620
-7.911172
-10.333781
-7.065063
-0.517805
1.963483
-1.059984
-4.259969
-5.289847
-6.788021
-9.706280
-13.767106
-18.693684
-21.561442
-19.569024
-13.139834
-6.216163
-2.475642
0.471605
5.850811
11.259475
14.162301
15.415453
15.906425
16.935366
19.469259
18.574749
10.624472
2.571558
0.700243
4.838219
12.627407
17.700105
17.640953
15.531867
10.968143
6.728929
8.115579
11.719563
9.005175
-1.057227
-7.864002
-4.933355
2.116333
5.706756
0.027118
-10.809621
-14.956484
-12.239995
-9.663317
-9.090281
-10.003495
-12.062081
-16.055807
-21.939317
-27.500888
-30.641488
-29.304637
-21.726100
-8.331622
6.683071
18.112716
23.533772
21.436609
12.055960
-0.107578
-10.460356
-17.377016
-18.948602
-12.669511
-0.989234
10.582092
19.275374
22.318478
19.626535
17.612838
18.508046
17.462270
12.210948
4.045343
-4.750111
-9.250009
-6.410075
-1.918129
-1.717299
-3.089223
-2.531384
0.460284
4.681493
6.741245
6.852064
7.359870
7.233852
4.586096
-0.901361
-6.072256
-7.448155
-5.495481
-1.073675
4.662539
8.381551
7.967729
4.679369
1.897180
2.148277
3.228419
0.532267
-5.533838
-12.071045
-16.252744
-14.131269
-10.717831
-13.740363
-17.490706
-16.138424
-11.558571
-3.562472
5.909589
12.734831
17.254364
17.905956
10.429585
-2.284311
-11.701900
-13.198672
-8.498881
-2.972616
-1.199031
-2.589425
-3.433201
-0.856757
6.581736
14.663872
15.925441
12.776891
12.360497
13.418195
12.728491
8.647325
0.513283
-6.064839
-6.994184
-4.068914
0.611238
2.847507
1.877014
0.792660
-2.011505
-4.515943
-1.189711
6.211140
11.539612
9.131031
1.162284
-4.504729
-6.993035
-8.858037
-12.253009
-17.932180
-20.424460
-15.372102
-5.239330
4.037276
8.962916
11.669585
12.336140
7.817538
-1.063720
-8.659093
-9.929081
-5.268802
2.715841
9.321314
9.076761
5.187074
2.598469
1.263252
2.450239
4.262400
3.471696
3.347549
4.762255
2.687536
-4.018005
-10.287046
-10.973710
-5.563876
1.518075
6.424309
10.188210
11.469885
6.169934
-1.193746
-3.944606
-4.858989
-8.588758
-13.660056
-15.408393
-13.202284
-12.028389
-13.622187
-12.986259
-7.144836
-0.532350
1.407699
-0.777840
-3.835675
-4.658643
0.433927
7.986980
9.772255
8.856703
11.787117
14.429258
13.121395
9.961857
7.477760
8.175877
9.463164
7.885732
7.625748
10.645706
12.453659
12.104364
11.476617
9.949452
8.860657
8.654914
3.264950
-5.160403
-5.996931
-2.358814
-4.401268
-11.814279
-18.146212
-19.445659
-17.580659
-14.589926
-9.675041
-4.332074
-0.541286
1.414193
0.414006
-5.491714
-14.006846
-17.582542
-13.281609
-6.243144
-2.293608
-1.522546
-0.506699
0.531594
0.823137
1.676496
2.267066
1.983469
2.656336
4.926974
4.911074
0.091108
-4.016477
-1.423901
7.851770
17.845667
19.567816
13.477396
10.600987
13.472717
12.964207
5.822400
-3.190486
-10.254204
-12.447458
-9.109769
-4.194183
-2.891934
-3.477831
0.466795
3.611367
-0.698687
-5.670154
-7.849847
-7.341573
-5.604461
-10.270121
-15.353342
-12.026409
-6.943891
-1.470932
4.439929
4.534147
2.105928
3.536765
8.115917
12.818280
16.301391
17.669804
15.039584
11.935690
15.939700
24.882678
27.206855
19.835928
9.568719
1.898063
2.411247
7.757254
6.506671
-0.452072
-8.399077
-14.359973
-13.383637
-10.278577
-8.790459
-2.858556
8.232551
16.073175
12.859630
2.091628
-6.578278
-8.859439
-6.209816
-4.452130
-7.619616
-12.670340
-12.320581
-5.632812
-3.452186
-8.669607
-12.671750
-14.764003
-15.518702
-11.881286
-6.573388
-3.111319
-3.772733
-8.591530
-11.189019
-8.182622
-4.147750
-4.046985
-6.746643
-6.145084
0.389314
9.379519
14.236422
10.446567
1.493299
-5.783408
-7.988819
-7.639527
-9.459173
-12.075600
-11.947948
-6.931127
3.614531
13.314076
16.412590
14.328052
11.723783
14.508073
20.744614
22.575245
18.779779
10.953882
3.237168
1.241940
0.205516
-3.798732
-4.129556
2.408583
12.243264
18.671050
20.656923
25.626516
30.206136
28.395842
25.073114
18.733933
9.610695
5.532568
1.134840
-10.515981
-21.705285
-24.283837
-21.167555
-20.842110
-23.803154
-24.093532
-21.183225
-16.574848
-11.751144
-10.574678
-13.004534
-14.271483
-10.058692
-1.367981
6.883191
11.880372
8.799390
-3.096684
-12.356460
-13.458348
-10.062210
-3.567090
0.886046
-0.998128
-3.761146
-2.017253
2.500410
5.528784
5.473607
2.782833
0.310425
3.265621
10.084551
14.161506
14.975821
13.506637
8.691581
3.272627
-0.416462
-4.478457
-8.811423
-8.776355
-1.503391
8.661645
13.833473
12.258146
8.753056
6.553490
3.885394
-2.121795
-7.963455
-7.570910
-2.963703
1.980874
6.253985
8.064276
9.870125
13.278186
12.974950
7.072502
0.432892
-3.392032
-6.415967
-7.257639
-1.308201
4.941198
5.412064
3.903135
0.619218
-3.103304
-1.573804
4.027744
8.286593
10.218459
13.617636
17.939377
15.603507
5.568459
-3.108460
-4.395983
-1.156724
1.051490
1.955817
5.839655
11.327577
12.603875
7.684545
-2.979651
-12.480004
-11.960274
-5.011587
-0.545125
-2.552276
-6.390294
-5.968291
-6.874023
-10.436861
-11.202549
-10.445982
-4.919717
4.863995
10.765271
12.989616
9.408308
-0.860069
-8.960912
-13.606231
-19.580688
-26.811571
-30.097359
-25.666902
-19.011631
-14.729869
-9.632389
-0.731962
11.903142
24.798229
32.965701
35.214829
36.537419
40.683578
42.077009
37.407842
31.085729
23.732569
16.758863
15.151973
15.693914
10.710758
-1.129906
-15.537898
-26.121200
-27.329232
-21.706643
-20.122668
-24.995706
-26.010387
-17.566333
-2.934133
12.448791
22.415333
23.857861
18.222176
9.623111
1.942168
-5.694587
-14.303939
-20.590515
-22.672715
-21.097156
-16.020718
-8.675978
-2.689133
-1.332876
-3.151821
-4.511119
-4.898055
-6.304347
-9.345817
-10.966735
-10.154759
-11.205211
-15.071752
-16.880409
-12.780775
-4.150618
3.240647
5.815221
6.598441
10.657627
18.059414
24.156377
26.513987
24.762611
18.491231
12.264741
10.350174
9.516919
7.180582
3.191297
-3.740559
-11.666989
-17.914053
-23.350543
-30.457747
-40.751842
-49.295263
-49.597798
-44.873926
-40.697841
-36.214312
-30.022193
-21.091373
-6.691333
12.412007
33.013519
52.651085
66.610650
72.120549
71.005335
63.801572
49.189943
25.990940
-2.299933
-28.365290
-50.504022
-67.260040
-75.620865
-79.667196
-80.955420
-76.044510
-66.148107
-52.353602
-34.676660
-16.922097
-1.989701
12.930304
30.558149
45.481193
52.199590
52.497913
46.988246
36.324985
24.865410
11.581750
-6.631994
-26.482084
-43.921959
-54.678505
-52.697075
-38.192761
-18.676068
-1.175643
13.297575
26.282674
37.573444
48.283461
57.334220
63.585489
69.586362
70.104456
62.426552
54.533087
46.782707
38.604711
33.529438
28.649620
23.887870
22.156834
23.566162
27.301072
28.881073
26.010508
19.367158
7.413570
-11.702398
-39.938095
-72.080310
-94.865258
-98.649268
-83.165812
-59.815779
-41.167877
-29.570131
-22.015442
-13.206897
-1.086848
7.788328
8.060934
2.885129
-1.291660
0.380690
7.441132
11.839559
10.887067
12.757444
19.260981
26.898435
38.437030
52.765060
58.773882
49.825057
33.550428
19.035824
6.280545
-6.087565
-17.094975
-24.397167
-22.632233
-8.813413
8.881532
18.279713
21.045767
25.931427
30.206642
26.328645
14.727390
0.122073
-16.160505
-33.432045
-47.534932
-56.568626
-61.162510
-60.405475
-54.068870
-42.363811
-27.617517
-15.639384
-9.591751
-9.103116
-10.533489
-5.950597
6.038759
19.167643
32.505075
42.098944
40.193027
35.564775
36.766725
34.860107
25.451169
12.423984
-1.583513
-14.050520
-22.720659
-22.183862
-10.938916
3.325521
14.883755
21.783812
25.895369
30.797395
33.496583
31.933179
28.305580
22.383727
13.394455
0.023588
-15.389498
-23.568429
-20.094905
-9.561404
1.138326
8.730891
15.472434
22.350982
28.403757
34.358806
36.920521
31.041454
18.930053
4.681745
-12.227644
-30.329632
-43.792148
-48.540104
-45.094869
-39.296698
-36.274870
-34.368489
-30.910395
-22.901437
-8.080095
7.729275
16.711531
15.394549
7.162079
0.604531
-3.978364
-8.387080
-10.349810
-16.358635
-27.587919
-31.902181
-26.782256
-19.040061
-11.061731
-1.672200
9.810049
22.560416
35.469998
43.880385
43.379824
39.442910
36.141692
29.087559
18.430377
6.643486
-7.082519
-21.025721
-33.874519
-44.234779
-48.499008
-47.941170
-43.787996
-35.189870
-25.856684
-15.322716
-0.486644
13.471285
22.577219
27.544942
26.176759
18.958735
10.728134
0.629260
-14.739638
-31.838403
-43.957285
-44.397995
-31.543589
-14.454179
0.276918
12.118046
20.517212
30.322434
41.197512
43.647005
37.026332
26.238691
12.907102
-1.700085
-16.019935
-23.704852
-19.619480
-8.996436
2.851941
12.607364
14.320863
9.506041
6.297405
5.900416
4.182239
1.836549
0.850625
-2.302600
-8.456847
-13.379450
-15.257077
-12.408726
-5.098121
0.629677
1.704909
1.971670
4.939491
9.338853
13.695897
18.827044
24.308887
30.037153
35.778043
38.108065
35.149827
28.538273
20.673098
15.031334
13.506975
13.633925
14.789116
17.897216
18.557691
16.525992
16.192829
12.890675
3.200479
-9.238472
-25.611063
-45.317835
-58.291247
-56.740705
-45.926180
-33.696714
-19.597338
-5.741578
4.097545
11.344791
13.956305
10.894494
4.645560
-4.417827
-12.651934
-18.320584
-25.058389
-32.953957
-39.531377
-42.702839
-41.117461
-34.555942
-24.787894
-15.821069
-7.448790
0.346945
3.363396
5.406548
10.988223
14.801221
15.471984
15.884635
14.966745
14.042543
16.062550
19.030605
20.162650
20.666716
19.875544
13.035804
2.126354
-4.902528
-6.612756
-5.692532
-2.854702
-1.256699
-6.639415
-18.304497
-26.900289
-24.637367
-12.365583
1.398528
6.129648
-0.256058
-9.972674
-15.940818
-18.717864
-23.797578
-32.892527
-42.671333
-50.237949
-50.154017
-39.552715
-27.197466
-17.750656
-5.363844
11.140605
29.169879
45.134023
52.796727
52.384775
51.825296
55.518357
57.862874
54.414363
49.036791
42.582582
37.257146
38.718612
43.545121
49.746592
56.461716
52.740831
36.775048
18.092775
0.156081
-15.421131
-27.924844
-39.847571
-49.877007
-56.030085
-58.913976
-56.449988
-45.714252
-28.642845
-9.685162
8.582586
21.044447
20.223116
7.929820
-6.796136
-19.138762
-28.805112
-39.629927
-56.082242
-74.413585
-84.320979
-79.222330
-65.026162
-50.913459
-35.924951
-20.880332
-9.420060
4.543013
23.416763
39.560697
48.401739
52.092695
54.115274
53.211646
49.374330
44.384394
32.539521
14.741002
1.047027
-9.291022
-19.397612
-25.429115
-26.295335
-21.463215
-9.361168
9.519129
30.667259
42.476357
38.940640
26.668386
12.093229
-2.308450
-14.701109
-21.281335
-19.628155
-16.522628
-18.093981
-20.218965
-17.870240
-13.389984
-13.886571
-21.867242
-30.470515
-30.166346
-20.396661
-12.253972
-14.480191
-22.046573
-25.005045
-22.933369
-20.200981
-14.744155
-5.013280
7.586287
23.301202
36.649388
41.298212
39.465941
34.981942
31.416766
30.952209
31.300800
31.513086
30.169919
24.093293
16.071941
11.553574
11.936533
15.823177
22.481955
31.138298
36.244896
34.980052
32.732557
30.650357
25.371214
17.027222
6.054647
-6.735935
-18.619150
-25.791117
-25.587013
-23.142197
-25.410265
-30.574147
-37.032096
-44.885114
-43.988971
-29.585424
-14.427413
-4.531478
3.088441
4.744426
1.138101
-2.161948
-7.509595
-18.663596
-33.142662
-41.968744
-37.123765
-22.751313
-6.990573
6.348027
10.983056
5.892119
2.686290
7.476794
11.415342
5.386644
-8.117487
-18.563083
-17.442494
-4.311740
12.094047
23.444201
31.634585
35.347986
25.864232
4.952702
-18.172187
-35.203618
-38.526112
-32.143682
-27.628357
-27.736840
-27.819839
-23.735169
-17.583964
-14.903480
-14.234120
-9.919393
-0.542955
10.044085
14.022612
7.837971
-1.235702
-4.026775
0.693824
6.666174
7.279657
3.418961
0.604508
0.722340
1.937383
1.904183
0.346858
1.102723
5.875459
8.281933
6.059922
7.644365
15.961467
26.920245
38.629044
46.000904
44.098261
35.054280
23.438295
11.135414
-3.596621
-17.553384
-24.596761
-26.350242
-24.900233
-20.426290
-13.717947
-2.274507
15.365495
36.484167
50.524860
45.438833
25.963052
5.281344
-9.438767
-16.299549
-20.840594
-29.125670
-39.071407
-43.193955
-34.232274
-14.398084
6.378542
22.635867
32.707385
33.528713
26.203142
20.243648
20.030424
16.853351
7.929776
1.106167
-2.359177
-6.041485
-10.870803
-16.487316
-20.027476
-20.840157
-22.187999
-24.573668
-28.045325
-33.009778
-34.881092
-30.577587
-24.865454
-22.966788
-25.280447
-28.358857
-29.180422
-29.286100
-29.313689
-28.378502
-25.258712
-13.530975
6.650637
25.757015
37.835682
37.015754
23.501101
9.679707
5.212074
10.743248
18.078636
