EVENT_NAME: 202302060117
EVENT_ID: 13194
EVENT_DATE_YYYYMMDD: 2023/02/06
EVENT_TIME_HHMMSS: 01:17:32.00000
EVENT_LATITUDE_DEGREE: 37.288
EVENT_LONGITUDE_DEGREE: 37.043
EVENT_DEPTH_KM: 8.6
HYPOCENTER_REFERENCE: AFAD
MAGNITUDE_W: 7.7
MAGNITUDE_W_REFERENCE: AFAD
MAGNITUDE_L: 
MAGNITUDE_L_REFERENCE: 
FOCAL_MECHANISM: 
NETWORK: TK
STATION_CODE: 3802
STATION_NAME: 
STATION_LATITUDE_DEGREE: 38.47812
STATION_LONGITUDE_DEGREE: 36.50359
STATION_ELEVATION_M: 1595.0
LOCATION: Kahramanmaras_Pazarck_Turkiye
SENSOR_DEPTH_M: 
VS30_M/S: 305
SITE_CLASSIFICATION_EC8: C
MORPHOLOGIC_CLASSIFICATION: 
EPICENTRAL_DISTANCE_KM: 140.55
EARTHQUAKE_BACKAZIMUTH_DEGREE: 
DATE_TIME_FIRST_SAMPLE_YYYYMMDD_HHMMSS: 2023/02/06 01:17:36.2607660
DATE_TIME_FIRST_SAMPLE_PRECISION: millisecond
SAMPLING_INTERVAL_S: 0.01
NDATA: 12501
DURATION_S: 
STREAM: HNE
UNITS: cm/s^2
INSTRUMENT: sensor = GMS+/GEOSIG | digitizer = 
INSTRUMENT_ANALOG/DIGITAL: 
INSTRUMENTAL_FREQUENCY_HZ: 
INSTRUMENTAL_DAMPING: 
FULL_SCALE_G: 
N_BIT_DIGITAL_CONVERTER: 
PGA_CM/S^2: 84.627
TIME_PGA_S: 
BASELINE_CORRECTION: BASELINE REMOVED
FILTER_TYPE: BUTTERWORTH
FILTER_ORDER: 
LOW_CUT_FREQUENCY_HZ: 
HIGH_CUT_FREQUENCY_HZ: 
LATE/NORMAL_TRIGGERED: 
DATABASE_VERSION: 
HEADER_FORMAT: DYNA 1.2
DATA_TYPE: Acceleration
PROCESSING: Automatic Paolucci et al., 2011
DATA_TIMESTAMP_YYYYMMDD_HHMMSS: 
DATA_LICENSE: U (unknown license)
DATA_CITATION: Turkish Accelerometric Archive v 1.0 - Disaster And Emergency Management Presidency, Earthquake Department
DATA_CREATOR: AFAD
ORIGINAL_DATA_MEDIATOR_CITATION: : AFAD - Disaster And Emergency Management Presidency
ORIGINAL_DATA_MEDIATOR: AFAD PROCESS SERVICE
ORIGINAL_DATA_CREATOR_CITATION: AFAD PROCESS SERVICE
ORIGINAL_DATA_CREATOR: network: TK
USER1: GuestUser
USER2: 
USER3: 
USER4: 
USER5: 
[...]
-3.657019
-8.419603
-14.790929
-21.911945
-28.204302
-32.370458
-34.474577
-35.324016
-36.225929
-38.490065
-42.123177
-45.713688
-48.041207
-48.800507
-48.184076
-46.697682
-44.518227
-41.422572
-37.646843
-34.387533
-32.442389
-31.010547
-29.037348
-25.890778
-21.134685
-15.263149
-9.319917
-3.558523
2.338211
8.312095
14.104142
19.136888
22.277224
22.808191
20.898119
17.360861
13.306925
9.532239
6.039401
2.369921
-1.448406
-5.126978
-8.674108
-11.754174
-13.503969
-13.258227
-11.434135
-9.603809
-8.710205
-8.182615
-7.557872
-7.101977
-6.793891
-6.164472
-4.558844
-1.575148
1.980816
4.841642
6.939530
8.991698
11.325454
14.055097
17.718606
23.082296
30.529324
39.517036
48.440066
55.295343
58.498803
57.518181
52.973283
45.760568
36.449708
25.942097
15.946749
8.027466
2.666117
-0.476294
-2.011001
-2.331033
-1.604721
-0.323803
1.057384
2.244785
2.712369
2.414677
1.672262
0.590330
-0.729030
-2.347382
-4.342658
-6.384692
-8.124876
-9.805053
-11.926316
-15.010799
-18.871208
-21.999332
-23.029830
-21.666566
-18.504929
-13.995096
-8.576336
-3.080684
2.282486
7.224573
11.789995
16.395423
20.289086
22.476593
23.084711
23.022629
22.941583
23.112771
22.929896
20.934101
17.213706
13.548383
11.343994
10.846280
10.529884
8.775673
6.186568
4.152847
2.825434
0.821326
-3.419124
-10.024761
-17.311249
-22.921196
-26.052436
-28.038620
-30.239373
-31.824994
-31.062314
-28.124077
-24.615131
-21.454013
-18.358097
-14.298702
-8.611082
-2.392496
3.039513
8.292281
14.418130
21.474468
28.881492
36.095249
42.921692
48.892979
53.340207
55.686173
55.314187
52.591041
48.893766
44.971792
40.935260
37.257987
34.798506
33.728523
32.682180
29.613543
23.377296
14.680527
5.681908
-1.581201
-6.216758
-7.941356
-6.900724
-4.333176
-1.882783
-0.676420
-1.190499
-3.118754
-6.267140
-11.089990
-17.220511
-23.255178
-28.117772
-31.693995
-34.411945
-36.428262
-37.674108
-38.111815
-37.692288
-35.669474
-31.124313
-24.136294
-15.630711
-7.509845
-0.871214
4.861086
10.154898
14.849166
18.316810
20.357548
21.710681
23.074984
23.651670
22.771578
20.918915
17.092275
10.129977
0.293347
-10.795365
-20.860331
-28.833646
-33.921199
-36.453156
-38.093069
-39.630893
-41.626948
-43.949272
-44.857679
-43.385572
-40.247574
-36.221429
-31.722247
-26.691060
-20.914080
-14.660425
-7.908016
-0.664126
6.395588
12.487927
16.880085
19.534135
20.502032
19.423477
16.808915
13.455832
9.507361
4.855699
-0.153404
-4.584264
-7.482753
-8.381548
-7.760182
-7.067899
-7.487163
-8.788858
-10.494492
-12.531851
-14.483485
-16.064691
-17.181432
-17.383530
-16.533307
-15.751404
-16.792293
-20.260712
-25.379957
-31.143946
-37.377855
-44.364312
-51.249199
-56.242976
-57.823402
-56.495987
-54.244317
-51.274648
-46.820666
-41.082391
-34.596503
-27.801492
-21.316644
-15.161182
-8.371886
-1.149297
4.699899
7.615536
7.161204
4.076981
0.021485
-3.633967
-6.739231
-9.071686
-10.106859
-9.912291
-9.122855
-8.660467
-8.305622
-7.017431
-4.109847
0.466746
5.717177
11.127365
17.229575
24.215515
31.255228
36.857125
39.936935
40.481929
38.859940
34.833539
28.418572
20.346026
11.727447
4.329258
-0.234863
-1.525388
-0.624511
0.526262
0.769667
0.156616
-0.995713
-2.327282
-3.375963
-3.828737
-2.966825
0.161302
5.586816
12.310911
19.091634
25.183454
29.936169
32.375132
32.323180
30.912382
29.823956
30.589753
33.579944
37.500882
40.437820
40.679666
36.985248
29.558485
20.346856
11.767243
5.415919
1.508751
-0.826821
-2.116307
-1.799648
0.228881
2.647062
3.850569
3.109972
1.226916
0.138490
0.873115
2.608367
4.247244
5.593363
6.869605
8.290017
9.946039
11.945475
14.779285
18.527218
21.917711
23.286429
22.386855
20.439376
18.392666
16.364140
14.263399
12.218248
10.507158
8.755285
6.156049
2.655677
-1.140829
-5.052673
-9.559904
-14.892159
-20.760574
-26.916293
-33.015123
-38.258277
-41.701759
-42.792263
-41.767996
-39.578671
-36.804607
-33.211496
-28.615420
-23.279266
-17.530340
-11.383970
-5.025369
1.188282
7.343224
13.657665
20.434752
27.752156
34.535737
38.677219
38.688131
35.522341
31.625823
28.165716
25.035774
21.751011
17.602259
13.581832
11.401342
10.989092
10.791930
9.053564
5.625409
1.815914
-0.981785
-1.908895
-0.580960
2.800181
7.953199
14.853416
21.984827
26.998089
28.526046
26.380624
21.258262
13.905273
4.707152
-5.552640
-15.284584
-23.289331
-29.451284
-34.322710
-37.831394
-39.307134
-38.621864
-36.383183
-34.186843
-33.117637
-33.125168
-34.395172
-37.153906
-40.833777
-43.817989
-45.003828
-44.064246
-40.677650
-35.400463
-28.798979
-21.268824
-13.301741
-5.325565
1.669987
7.007700
10.815899
12.987561
13.316429
12.632721
11.871603
11.636255
12.195277
13.119533
13.727132
12.985496
10.785783
8.022373
5.371963
3.512805
2.747271
2.792472
3.303178
3.877007
3.548402
1.446102
-1.589545
-3.893944
-5.216941
-6.773728
-9.625978
-13.277794
-16.059387
-16.632953
-15.202669
-13.729004
-14.314520
-17.062863
-20.100067
-21.648023
-21.283567
-19.658717
-17.494848
-15.208629
-13.493380
-12.873312
-13.499611
-15.541645
-18.675484
-22.190402
-24.983685
-25.980153
-25.589980
-24.995109
-24.674814
-24.492455
-23.848749
-22.031151
-18.900946
-14.655557
-9.730355
-4.794763
-0.446506
2.715910
4.540262
4.956412
3.482230
0.611537
-2.163303
-3.843999
-4.138055
-2.896363
-0.117364
3.466396
6.690897
8.551097
8.883342
9.022579
10.663794
14.657208
20.486142
26.376382
30.635278
32.852139
33.885758
34.957822
37.653435
42.653709
48.083380
51.933402
54.062202
55.427804
56.860685
58.174853
58.597237
57.834820
56.519616
55.081543
52.760258
48.690476
43.348350
38.126757
34.025802
31.645810
31.012757
31.518527
32.924653
34.914736
36.552315
37.560996
38.912570
41.518044
45.242078
48.942993
51.134657
51.652896
51.244023
49.460198
45.142337
37.989369
28.756959
18.693032
8.970440
0.160412
-7.978635
-15.740498
-22.629542
-27.955822
-31.883511
-34.892921
-37.064579
-38.569413
-39.441712
-39.597571
-39.734987
-40.536369
-41.388147
-41.048369
-39.380137
-37.223283
-34.875758
-32.073120
-28.732503
-25.499170
-23.227238
-21.926579
-21.123634
-20.445119
-19.797256
-19.216673
-18.553224
-17.645853
-16.773551
-16.543135
-16.515079
-15.716550
-14.080011
-11.878476
-9.593815
-7.443195
-5.519352
-4.662376
-5.512855
-7.656458
-9.895396
-11.275282
-11.993279
-12.564247
-12.778554
-12.538786
-12.148094
-11.823122
-11.671936
-11.280983
-9.274274
-4.235295
3.292522
11.479369
18.785603
24.211638
27.965805
30.852088
33.289752
35.239832
36.449572
37.425262
39.063620
41.306718
43.153929
43.547999
42.221626
39.603686
36.331131
33.070526
30.171778
27.429149
24.767829
22.830741
21.967014
21.783880
21.650360
21.031855
19.770423
17.974130
16.027690
14.145414
12.094288
9.166445
4.792994
-0.155064
-4.294724
-7.197629
-9.388250
-11.851368
-15.055603
-18.001889
-19.258385
-18.764305
-17.669641
-17.011907
-17.245957
-18.132803
-18.878335
-20.121323
-23.032021
-27.145704
-31.489282
-34.544930
-35.659593
-36.036254
-36.014692
-35.510741
-34.729097
-32.936957
-29.365925
-24.523330
-19.438371
-14.779172
-11.369457
-9.005827
-7.282265
-6.906119
-8.084685
-10.432206
-12.301234
-12.189013
-10.220490
-6.571269
-2.189242
1.495568
4.126759
6.143598
8.720498
12.878865
17.987462
22.486384
25.126408
25.084846
22.385599
17.980716
13.024866
8.522570
4.848154
1.614565
-1.542134
-4.571286
-7.470034
-10.709339
-14.290757
-17.323546
-19.323238
-20.455825
-20.781052
-20.226966
-18.992547
-17.593435
-16.876474
-17.654737
-19.563510
-21.182382
-21.232516
-19.337507
-16.266269
-13.333228
-11.603432
-11.511992
-12.888500
-15.336552
-18.617938
-22.312616
-25.431648
-27.151829
-27.049999
-24.831319
-20.891937
-16.373012
-12.329463
-9.678790
-9.311996
-11.039191
-13.679990
-16.207271
-18.148255
-19.724785
-21.559004
-24.010692
-26.471213
-28.149831
-29.047588
-29.380089
-29.160323
-27.924086
-25.427975
-22.030209
-17.847424
-12.942484
-7.644256
-2.397462
2.429028
6.836512
11.311535
16.300640
21.513145
26.358078
30.229661
32.647842
33.830567
34.459207
35.175908
35.879621
35.381908
32.381849
26.774241
19.349816
11.238824
3.570216
-3.576257
-10.135136
-15.142421
-17.776206
-18.404323
-18.066364
-17.167305
-15.559860
-12.812293
-9.298670
-6.264319
-4.245921
-2.692507
-0.960892
-0.094045
-1.474191
-4.143304
-6.004540
-6.016228
-4.402807
-2.069311
0.135601
2.393506
5.575405
9.959250
15.341903
21.633743
28.817367
36.403111
42.893674
46.514321
46.738762
45.207172
44.439560
45.284067
46.547060
46.666815
45.305633
43.609090
42.499623
41.126751
37.802503
31.965519
24.921654
18.997648
15.596768
14.185191
13.414980
12.323697
10.413365
7.346807
3.002450
-1.821439
-5.325187
-6.420887
-5.828874
-4.871368
-4.365338
-4.093879
-2.776075
0.222168
3.701242
6.477643
8.946999
11.922382
15.466397
19.015089
22.036711
24.474894
27.051794
30.375526
33.895643
36.794914
39.153868
41.403200
43.219240
44.669006
46.123188
47.350334
48.417722
48.986355
47.944688
44.617062
39.538861
33.696682
27.673185
22.184810
17.187656
12.367144
8.415037
5.629807
3.788833
2.741191
2.524806
3.149030
3.990679
3.763124
1.154017
-3.614281
-9.150713
-14.404518
-18.756668
-22.098581
-24.618848
-26.301623
-26.905322
-26.726600
-26.960389
-28.350146
-30.491931
-32.373428
-33.344439
-33.647327
-33.691745
-33.735385
-33.737721
-33.889684
-34.888230
-36.512817
-37.753207
-38.014012
-37.559936
-37.403035
-38.144930
-39.180104
-39.670025
-39.717560
-40.090326
-40.983666
-41.457741
-40.652199
-38.948899
-37.554723
-37.211308
-37.094411
-35.767255
-32.792651
-28.662339
-24.434095
-20.957879
-18.108483
-15.409233
-12.589450
-9.460804
-5.301138
0.551175
7.426714
14.358103
20.953093
27.131155
32.661356
37.236390
41.148757
44.168041
46.197349
47.956240
49.013237
48.330049
45.566120
41.117596
35.627403
29.394273
22.444703
15.130420
8.336191
2.368804
-3.143210
-8.075162
-11.553972
-12.657465
-11.624626
-9.796637
-8.302191
-8.048916
-9.697141
-13.262454
-18.474696
-24.608075
-30.210748
-33.693715
-34.537699
-33.663838
-32.705033
-33.199889
-35.206595
-37.449429
-38.906206
-39.016866
-37.666590
-35.458042
-32.947903
-29.887575
-25.775187
-20.121077
-12.826013
-4.208990
5.063428
13.686945
21.109815
27.595962
33.407752
38.927822
44.565047
50.266435
55.199170
58.892292
61.449449
62.842067
63.390698
63.374075
62.332407
59.975794
56.497763
52.292382
47.710337
42.711365
37.484316
32.451054
27.711071
23.169550
18.576335
13.917919
9.910740
6.951985
4.542899
2.779856
2.284220
3.353167
6.051378
9.451222
12.326076
14.873102
18.130593
22.656012
28.383896
34.753667
40.507788
44.197533
45.594047
45.658212
45.141275
44.358336
43.571241
42.858440
42.003285
40.573005
37.894799
33.451470
27.699691
21.725809
16.055597
10.590601
5.397322
0.441212
-4.610753
-9.440097
-13.324925
-15.919225
-17.022978
-16.322382
-13.700283
-9.482429
-4.227323
1.267290
6.484990
11.405256
15.325156
16.726865
14.790297
10.133699
4.042143
-2.375942
-8.158634
-12.146849
-13.756370
-13.876121
-14.055099
-15.063257
-16.764735
-18.441276
-18.845993
-17.468701
-14.879333
-11.807056
-8.715297
-5.338572
-1.287749
2.947509
6.047581
7.099383
6.463992
5.176324
4.565871
5.683654
8.379787
11.319063
12.944173
12.145648
8.335893
1.838060
-6.282804
-14.865534
-23.046144
-30.602272
-37.683284
-44.034088
-49.214119
-53.159213
-55.557388
-56.420076
-56.300321
-55.759223
-56.066527
-57.704622
-59.888229
-61.582174
-61.776999
-60.365418
-57.663570
-53.737436
-48.510644
-42.871081
-38.212141
-34.465247
-30.889021
-27.216160
-23.613697
-20.566358
-18.786946
-18.168177
-18.546138
-20.286841
-22.040013
-22.788922
-22.618773
-21.050292
-18.019319
-13.750291
-9.229808
-5.012214
-0.659801
3.721966
7.442883
9.355556
9.658447
9.903410
10.972097
12.367052
12.814634
11.921034
10.456464
9.585204
10.138252
12.051964
14.685493
17.420591
19.751230
21.315554
21.856393
21.098911
18.905692
15.242187
10.283998
4.826795
-0.339987
-5.139977
-9.857621
-14.848021
-19.748801
-23.007847
-23.263977
-20.458482
-15.357677
-8.918029
-1.987159
4.784733
10.687181
15.054921
17.619871
18.733757
18.981318
18.530882
17.204249
14.667876
10.878124
6.439471
2.174083
-1.288881
-3.184406
-3.174793
-2.045840
-0.381246
1.649362
3.957142
6.711723
9.698536
12.789776
16.318465
20.251353
23.910965
26.303169
26.841150
25.705707
23.573273
21.385250
19.893664
19.818593
21.474355
24.341675
27.918681
31.649729
34.895012
36.894447
37.037581
35.912268
34.600701
33.691515
33.176917
32.720246
32.290072
32.239419
32.919753
34.581490
37.215279
40.222613
42.784706
44.024840
43.397242
41.701479
40.534863
41.099600
43.462191
46.448485
48.746653
49.782609
49.504399
48.300117
47.097393
46.719692
47.592514
49.162293
49.686247
47.971520
43.817054
37.296621
29.107958
20.463403
12.367217
5.441806
-0.003447
-3.626689
-4.831231
-3.667729
-1.211102
1.574651
4.377549
6.920159
8.688660
9.162219
7.948585
5.054772
1.124225
-3.127655
-7.605273
-12.772055
-18.998171
-26.099185
-33.511401
-40.547734
-46.954128
-53.147254
-59.748215
-66.720125
-72.987803
-77.729605
-81.097495
-83.427871
-84.626699
-84.438365
-82.693243
-79.266123
-74.578609
-69.423253
-64.514936
-60.489052
-57.873706
-56.791252
-56.267298
-54.732328
-51.278452
-46.240511
-40.091024
-32.720886
-24.214265
-14.537648
-4.306427
5.396166
14.082028
20.988480
25.371026
26.559726
24.438982
20.304257
15.781440
11.363568
7.305995
3.889789
-0.172980
-5.722660
-12.563647
-19.683884
-25.421636
-29.288800
-30.842730
-30.108104
-27.621085
-23.037738
-16.424045
-8.971042
-1.534923
5.640648
12.475403
19.362632
25.844622
31.181036
35.398890
38.372455
40.272659
41.382649
41.364467
40.012117
38.076328
36.156644
33.821852
30.625150
26.314822
20.962565
14.830486
7.182400
-2.939975
-15.216865
-28.297218
-40.665026
-51.160428
-59.054254
-63.836840
-65.154121
-63.549273
-60.730270
-57.888148
-54.467262
-49.119678
-41.179870
-31.718082
-23.140283
-17.564363
-16.012508
-17.902837
-21.747141
-26.176183
-29.236507
-29.771367
-28.958552
-27.883371
-26.403991
-24.616786
-22.450060
-19.288683
-15.119666
-9.885340
-3.133191
4.777004
13.093995
21.188105
28.409655
34.477835
39.357058
42.751707
44.412924
44.650354
44.094192
43.045511
41.241684
38.282929
34.195742
29.839955
26.079297
23.333811
22.030038
21.936783
22.573216
23.790750
25.577435
28.034322
31.152837
34.871417
38.267365
39.963131
39.179153
35.858801
31.223504
26.739392
23.119528
20.453791
18.317981
16.407909
14.816052
13.668659
12.785969
11.676243
9.720192
6.647139
2.984932
-0.112799
-1.685951
-1.924936
-1.911946
-1.978965
-1.306424
0.496367
3.137949
6.016699
8.459558
10.039468
10.246764
9.203278
7.068507
4.376274
2.686745
2.599205
4.294192
7.915619
13.005253
19.100449
25.674658
31.834796
36.233188
37.690747
36.120712
32.260043
26.500730
18.987464
10.610989
2.712227
-3.966145
-9.502057
-14.538436
-19.600532
-24.554564
-28.515244
-31.110584
-33.103262
-33.983614
-32.910511
-30.830807
-29.196606
-28.850853
-29.686005
-31.220193
-33.049477
-34.796934
-36.201757
-36.882088
-35.987965
-33.158052
-29.122815
-23.889529
-16.959698
-8.882473
-1.158272
4.364656
7.158981
8.445093
9.339476
10.219312
10.854446
10.222172
7.517470
2.700855
-4.044537
-12.390619
-21.584583
-30.770235
-39.776128
-48.347428
-56.260477
-63.868558
-70.453414
-75.241195
-78.195274
-78.704677
-76.570163
-72.528951
-67.863518
-63.823086
-60.827700
-58.438613
-55.963023
-53.108692
-49.856655
-46.049495
-40.791011
-33.021611
-22.713239
-10.817425
1.414009
13.169808
23.807826
32.485635
38.796439
42.920516
45.351166
46.719365
47.453731
47.540235
47.006414
45.983190
44.125851
41.075138
36.471532
30.522329
23.746544
16.570457
9.800647
3.333466
-2.349735
-6.604992
-10.227454
-13.435586
-15.651145
-16.793862
-17.465880
-17.692656
-18.056329
-19.574152
-21.545009
-22.924895
-23.028800
-21.083657
-17.338581
-12.799394
-8.038626
-3.752454
-0.465349
2.285335
5.369821
9.353624
13.884238
17.844921
20.377141
21.779889
23.287064
25.686802
28.684785
31.214407
32.210099
31.759143
30.628635
29.144323
27.455573
25.921645
25.150656
25.569143
26.897079
28.406332
29.277855
28.688184
26.003743
21.145306
14.735014
8.018976
2.374221
-1.448782
-3.584073
-5.188658
-7.735681
-11.514003
-15.348436
-17.518795
-17.211748
-15.293880
-13.050263
-10.682476
-7.868928
-4.695082
-1.373168
1.732099
4.228730
6.357530
8.648685
11.137783
13.497256
15.652293
17.440797
18.327126
17.876171
15.786340
11.926969
6.935270
2.282049
-0.817240
-2.219206
-2.869403
-3.932372
-5.487341
-6.806701
-7.374292
-6.949050
-5.118204
-1.528989
3.378808
8.353885
12.156369
14.353228
15.385288
15.890798
15.634928
14.352455
13.059073
13.059853
14.707303
17.010407
18.698641
19.671733
20.561700
21.535052
22.423719
23.081713
23.182245
22.280592
19.482893
14.053486
6.712186
-0.911481
-8.198230
-16.071534
-24.958193
-34.354517
-43.622515
-51.823906
-58.754253
-64.537984
-68.854546
-71.556910
-72.156193
-70.164291
-65.770055
-59.755127
-53.856056
-49.454287
-46.289533
-43.415199
-39.409056
-33.686627
-27.593769
-22.441270
-18.840885
-16.563238
-14.691089
-13.043120
-12.070288
-11.963002
-12.200947
-11.842466
-10.276843
-7.543823
-4.208401
-0.948832
1.578452
3.046142
3.836358
4.548124
5.452897
6.405987
6.989428
6.871495
6.155836
5.352895
4.952334
5.217299
6.010113
6.874882
7.824855
9.255398
11.131184
13.025154
14.555188
15.988330
18.122065
20.875087
22.925177
23.115069
21.405538
18.532766
15.620250
13.849673
13.764991
14.727433
15.574537
15.743908
15.282562
14.689513
14.494949
14.713155
14.968769
14.966692
14.480928
12.765162
8.866047
2.854240
-3.679961
-9.353291
-13.628809
-16.397154
-18.366973
-20.009743
-21.298451
-21.786033
-21.063617
-19.566053
-17.269184
-13.619183
-8.816072
-3.765403
0.601557
3.827876
6.270736
8.692813
11.281662
13.329934
13.913115
13.064974
12.047465
12.298402
14.333685
17.835359
22.447020
27.948647
34.104369
40.366596
45.777823
49.350933
50.473651
49.430165
47.157717
44.451197
41.396847
37.821663
33.768506
29.279717
24.802619
20.668674
17.296109
14.916376
13.019033
11.573946
9.906757
7.595344
5.296399
3.202931
1.886169
1.098295
-0.055333
-1.405865
-2.571702
-3.217483
-3.213325
-3.001872
-3.679086
-5.196389
-6.223769
-6.265850
-4.985452
-2.767292
-0.806562
0.640866
1.676563
2.665241
3.755229
4.475048
5.223441
6.895568
9.625731
12.816202
15.378035
16.183577
15.183992
13.598110
12.747891
13.331332
15.339599
18.135743
20.630036
21.522341
19.708123
15.063734
8.815278
2.698524
-1.921706
-4.787724
-6.641426
-7.959487
-8.832306
-9.358854
-9.983074
-11.493883
-14.043503
-17.159937
-20.351704
-23.368128
-26.330779
-29.000153
-30.613310
-30.795146
-29.458638
