EVENT_NAME: 202302060117
EVENT_ID: 13194
EVENT_DATE_YYYYMMDD: 2023/02/06
EVENT_TIME_HHMMSS: 01:17:32.00000
EVENT_LATITUDE_DEGREE: 37.288
EVENT_LONGITUDE_DEGREE: 37.043
EVENT_DEPTH_KM: 8.6
HYPOCENTER_REFERENCE: AFAD
MAGNITUDE_W: 7.7
MAGNITUDE_W_REFERENCE: AFAD
MAGNITUDE_L: 
MAGNITUDE_L_REFERENCE: 
FOCAL_MECHANISM: 
NETWORK: TK
STATION_CODE: 7101
STATION_NAME: 
STATION_LATITUDE_DEGREE: 39.84972
STATION_LONGITUDE_DEGREE: 33.51797
STATION_ELEVATION_M: 754.0
LOCATION: Kahramanmaras_Pazarck_Turkiye
SENSOR_DEPTH_M: 
VS30_M/S: 421
SITE_CLASSIFICATION_EC8: B
MORPHOLOGIC_CLASSIFICATION: 
EPICENTRAL_DISTANCE_KM: 418.33
EARTHQUAKE_BACKAZIMUTH_DEGREE: 
DATE_TIME_FIRST_SAMPLE_YYYYMMDD_HHMMSS: 2023/02/06 01:18:05.2258500
DATE_TIME_FIRST_SAMPLE_PRECISION: millisecond
SAMPLING_INTERVAL_S: 0.01
NDATA: 21001
DURATION_S: 
STREAM: HNE
UNITS: cm/s^2
INSTRUMENT: sensor = CMG-5T/GURALP | digitizer = 
INSTRUMENT_ANALOG/DIGITAL: 
INSTRUMENTAL_FREQUENCY_HZ: 
INSTRUMENTAL_DAMPING: 
FULL_SCALE_G: 
N_BIT_DIGITAL_CONVERTER: 
PGA_CM/S^2: 2.581
TIME_PGA_S: 
BASELINE_CORRECTION: BASELINE REMOVED
FILTER_TYPE: BUTTERWORTH
FILTER_ORDER: 
LOW_CUT_FREQUENCY_HZ: 
HIGH_CUT_FREQUENCY_HZ: 
LATE/NORMAL_TRIGGERED: 
DATABASE_VERSION: 
HEADER_FORMAT: DYNA 1.2
DATA_TYPE: Acceleration
PROCESSING: Automatic Paolucci et al., 2011
DATA_TIMESTAMP_YYYYMMDD_HHMMSS: 
DATA_LICENSE: U (unknown license)
DATA_CITATION: Turkish Accelerometric Archive v 1.0 - Disaster And Emergency Management Presidency, Earthquake Department
DATA_CREATOR: AFAD
ORIGINAL_DATA_MEDIATOR_CITATION: : AFAD - Disaster And Emergency Management Presidency
ORIGINAL_DATA_MEDIATOR: AFAD PROCESS SERVICE
ORIGINAL_DATA_CREATOR_CITATION: AFAD PROCESS SERVICE
ORIGINAL_DATA_CREATOR: network: TK
USER1: GuestUser
USER2: 
USER3: 
USER4: 
USER5: 
[...]
0.469900
0.463035
0.456481
0.430579
0.405612
0.359423
0.330087
0.268294
0.232716
0.156879
0.100703
0.009885
-0.055029
-0.133363
-0.220748
-0.311254
-0.426414
-0.507245
-0.592757
-0.690129
-0.806850
-0.871452
-0.975378
-1.068068
-1.168873
-1.254073
-1.354253
-1.425722
-1.519036
-1.611102
-1.677889
-1.743739
-1.790552
-1.810838
-1.802099
-1.811773
-1.799601
-1.773697
-1.705972
-1.666649
-1.581759
-1.507793
-1.407612
-1.319290
-1.216611
-1.130786
-1.049954
-0.932295
-0.847718
-0.784675
-0.728187
-0.651100
-0.638303
-0.606158
-0.584311
-0.555286
-0.555597
-0.541865
-0.535622
-0.508470
-0.485999
-0.455413
-0.426700
-0.391434
-0.343995
-0.314346
-0.272526
-0.250991
-0.206049
-0.224462
-0.193252
-0.183577
-0.169844
-0.169532
-0.143316
-0.128647
-0.107112
-0.068412
-0.042508
-0.011611
-0.007865
0.038637
0.059236
0.092318
0.114789
0.173774
0.195621
0.253359
0.322643
0.405972
0.479626
0.572317
0.689976
0.793903
0.910001
1.012055
1.125032
1.205552
1.287320
1.350363
1.415590
1.442119
1.491742
1.509843
1.534187
1.536060
1.546984
1.541055
1.513903
1.487688
1.444308
1.412476
1.350058
1.289513
1.192766
1.121298
1.015500
0.913447
0.790172
0.686870
0.554857
0.451555
0.344821
0.235278
0.146957
0.057075
0.003396
-0.071193
-0.109891
-0.165755
-0.193219
-0.254388
-0.282475
-0.337715
-0.391394
-0.441015
-0.470976
-0.503120
-0.544628
-0.557735
-0.573651
-0.565224
-0.578643
-0.544937
-0.515912
-0.478149
-0.450060
-0.399501
-0.357056
-0.311178
-0.273414
-0.213180
-0.175729
-0.137341
-0.104259
-0.073050
-0.047458
-0.017496
0.044610
0.058343
0.103908
0.130437
0.185989
0.205027
0.262141
0.308955
0.366380
0.412882
0.470931
0.525236
0.572362
0.624794
0.652570
0.715925
0.729970
0.753377
0.738085
0.758996
0.730284
0.714056
0.694707
0.661314
0.620118
0.581420
0.538664
0.477807
0.420695
0.358589
0.292115
0.198176
0.124835
0.036827
-0.033705
-0.135446
-0.205978
-0.299605
-0.374818
-0.460330
-0.511824
-0.546778
-0.569248
-0.580795
-0.556763
-0.531171
-0.531171
-0.480611
-0.464070
-0.406021
-0.385734
-0.337984
-0.311768
-0.273380
-0.254342
-0.215954
-0.204718
-0.194107
-0.180686
-0.198475
-0.199411
-0.230307
-0.228122
-0.267445
-0.279928
-0.323620
-0.341721
-0.383852
-0.412876
-0.442836
-0.462497
-0.460624
-0.462496
-0.459063
-0.439712
-0.403509
-0.384783
-0.346084
-0.327358
-0.281792
-0.264938
-0.236538
-0.206576
-0.175679
-0.174430
-0.126992
-0.097030
-0.065821
-0.031490
0.002840
0.042476
0.064635
0.104583
0.128927
0.160449
0.162010
0.198213
0.193220
0.189475
0.160764
0.163261
0.133301
0.113640
0.093042
0.082744
0.069325
0.025632
0.018455
-0.025861
-0.054261
-0.128226
-0.181905
-0.262112
-0.340134
-0.449989
-0.545176
-0.670948
-0.796095
-0.921243
-1.048887
-1.168730
-1.305737
-1.424018
-1.560089
-1.675250
-1.786354
-1.858134
-1.938340
-1.973606
-2.010432
-2.006062
-1.998572
-1.947076
-1.906816
-1.848455
-1.777297
-1.717375
-1.639664
-1.573189
-1.493605
-1.453969
-1.401225
-1.361277
-1.299170
-1.281381
-1.225828
-1.188689
-1.133760
-1.107544
-1.064163
-1.017661
-0.983642
-0.935268
-0.899689
-0.840703
-0.816048
-0.757686
-0.736464
-0.694019
-0.681222
-0.659375
-0.649388
-0.638464
-0.637527
-0.635654
-0.630972
-0.616616
-0.594457
-0.559502
-0.511440
-0.473676
-0.410009
-0.344470
-0.262701
-0.187175
-0.083872
-0.007098
0.076855
0.105880
0.149261
0.149262
0.138964
0.117430
0.086533
0.057822
0.011321
-0.012397
-0.060459
-0.083865
-0.107271
-0.095723
-0.102901
-0.068882
-0.048908
0.007581
0.057516
0.145526
0.247580
0.338399
0.454185
0.566538
0.695744
0.808409
0.941360
1.054962
1.186664
1.276859
1.381410
1.455064
1.525597
1.575844
1.622346
1.648874
1.679772
1.706300
1.717848
1.738134
1.725963
1.733142
1.702558
1.673222
1.644510
1.637333
1.598634
1.582718
1.549013
1.537778
1.498143
1.472240
1.453515
1.409823
1.379239
1.348030
1.320567
1.260646
1.249412
1.186370
1.158282
1.096177
1.043746
0.968533
0.879588
0.797197
0.725728
0.654572
0.571245
0.508515
0.406774
0.322823
0.222330
0.133697
0.020409
-0.066664
-0.179952
-0.283566
-0.400599
-0.505461
-0.627175
-0.744521
-0.848446
-0.955181
-1.034763
-1.129638
-1.184566
-1.233563
-1.241989
-1.257905
-1.246045
-1.242924
-1.217956
-1.202975
-1.168020
-1.142740
-1.110907
-1.080009
-1.039749
-0.976394
-0.930828
-0.867785
-0.823468
-0.735146
-0.682402
-0.591583
-0.525107
-0.431792
-0.353769
-0.242664
-0.119075
0.004201
0.149011
0.260740
0.401182
0.504796
0.628697
0.727630
0.837486
0.909580
1.002583
1.058136
1.113688
1.151452
1.164248
1.184847
1.192337
1.214184
1.218866
1.241649
1.253509
1.280038
1.278478
1.307191
1.303446
1.301574
1.281913
1.256946
1.220744
1.177364
1.119004
1.057211
0.996978
0.916459
0.858411
0.776956
0.732952
0.670534
0.625906
0.580653
0.572539
0.536962
0.519797
0.492334
0.469552
0.455196
0.425860
0.421180
0.408696
0.418372
0.400895
0.429608
0.413692
0.434603
0.427737
0.430547
0.428675
0.415568
0.407142
0.388105
0.378430
0.347534
0.336299
0.277939
0.248291
0.197733
0.169645
0.132195
0.096929
0.051989
0.019532
-0.018230
-0.056617
-0.093755
-0.152427
-0.198928
-0.266651
-0.335623
-0.417702
-0.483552
-0.572498
-0.623992
-0.701702
-0.759126
-0.813117
-0.856185
-0.878967
-0.880215
-0.877717
-0.867106
-0.852749
-0.847131
-0.797508
-0.777846
-0.722605
-0.692644
-0.634907
-0.608378
-0.556259
-0.500394
-0.438287
-0.383671
-0.330303
-0.258210
-0.207650
-0.140550
-0.115895
-0.051916
-0.026948
0.017057
0.032350
0.052325
0.051389
0.049205
0.037034
0.022991
0.016125
-0.020389
-0.034120
-0.072819
-0.082805
-0.109957
-0.127433
-0.165195
-0.182984
-0.221995
-0.234478
-0.264438
-0.301264
-0.321549
-0.336529
-0.339962
-0.353381
-0.337464
-0.341832
-0.319985
-0.303132
-0.253821
-0.205759
-0.138347
-0.084042
0.004904
0.090417
0.199337
0.318244
0.419362
0.527970
0.621598
0.723964
0.790128
0.890309
0.960218
1.055406
1.134678
1.233611
1.308513
1.387473
1.454573
1.520737
1.597823
1.625288
1.670854
1.695197
1.731400
1.736082
1.769164
1.774471
1.779152
1.758867
1.752626
1.745760
1.741080
1.752628
1.760430
1.774475
1.768546
1.786960
1.769171
1.763866
1.736091
1.725792
1.690527
1.634663
1.570373
1.502962
1.395604
1.292302
1.193994
1.072904
0.963049
0.828850
0.728670
0.628489
0.547346
0.460898
0.399105
0.333254
0.294243
0.232138
0.189694
0.156301
0.137576
0.109801
0.082337
0.075160
0.015863
-0.004110
-0.059037
-0.076202
-0.132065
-0.175445
-0.241296
-0.310579
-0.388913
-0.483476
-0.569613
-0.701314
-0.822093
-0.946928
-1.059904
-1.209707
-1.311136
-1.435972
-1.534280
-1.648816
-1.730271
-1.792064
-1.853858
-1.889748
-1.914090
-1.908160
-1.925324
-1.895051
-1.874452
-1.843555
-1.808288
-1.762410
-1.733697
-1.671903
-1.621032
-1.544257
-1.479341
-1.411305
-1.344517
-1.286156
-1.208445
-1.174738
-1.112632
-1.059264
-0.988107
-0.947846
-0.882931
-0.825818
-0.766520
-0.722827
-0.653855
-0.603607
-0.554609
-0.505610
-0.454114
-0.376091
-0.334895
-0.251566
-0.208185
-0.142333
-0.095207
-0.014999
0.043362
0.116392
0.209083
0.293660
0.391969
0.492775
0.587339
0.641331
0.724660
0.792072
0.879146
0.918158
0.978080
1.020212
1.030824
1.033633
1.029577
1.007731
0.968720
0.941257
0.877903
0.824536
0.770545
0.699389
0.611380
0.522435
0.429433
0.355156
0.268083
0.195054
0.109230
0.042443
-0.021535
-0.078022
-0.146058
-0.186629
-0.218149
-0.282439
-0.296171
-0.330500
-0.343607
-0.390732
-0.391356
-0.430679
-0.472186
-0.517439
-0.555513
-0.582977
-0.632599
-0.651323
-0.692207
-0.710932
-0.745261
-0.732465
-0.766794
-0.761488
-0.757430
-0.727469
-0.703125
-0.655999
-0.595141
-0.570485
-0.526168
-0.506193
-0.437533
-0.422552
-0.376050
-0.359509
-0.319873
-0.296777
-0.279924
-0.274306
-0.290534
-0.305514
-0.326423
-0.336410
-0.365433
-0.366369
-0.377916
-0.361374
-0.371361
-0.338591
-0.321737
-0.300515
-0.285222
-0.246210
-0.196899
-0.153206
-0.100150
-0.042412
0.018446
0.046846
0.102087
0.129552
0.165443
0.197588
0.274363
0.325235
0.385469
0.435091
0.485026
0.516860
0.578343
0.647003
0.700683
0.760605
0.811476
0.913531
0.959096
1.037432
1.079252
1.131372
1.174441
1.251216
1.296469
1.342035
1.398836
1.409448
1.433479
1.423493
1.405704
1.345471
1.300219
1.262144
1.244668
1.171951
1.120769
1.072084
1.016844
0.939446
0.866418
0.803376
0.737526
0.697579
0.670115
0.677606
0.666995
0.658882
0.630170
0.640469
0.622681
0.632668
0.635166
0.617065
0.606767
0.608952
0.589915
0.544038
0.521256
0.477564
0.441674
0.392676
0.370207
0.334317
0.339935
0.327140
0.332758
0.314345
0.290315
0.287507
0.260667
0.274400
0.281266
0.280643
0.235390
0.231334
0.206679
0.211049
0.191700
0.197318
0.186708
0.180778
0.203249
0.225096
0.262548
0.261612
0.276905
0.245384
0.244137
0.208559
0.227909
0.197637
0.188275
0.146767
0.115247
0.062816
0.049085
0.027239
-0.010211
0.006018
-0.080431
-0.052966
-0.078557
-0.111638
-0.173431
-0.138477
-0.238345
-0.287343
-0.307628
-0.369109
-0.376287
-0.425908
-0.436519
-0.508299
-0.523591
-0.564162
-0.575709
-0.631260
-0.629387
-0.643431
-0.663404
-0.644678
-0.591934
-0.593806
-0.584755
-0.558851
-0.535132
-0.509852
-0.482699
-0.403740
-0.390631
-0.347875
-0.336951
-0.263921
-0.254870
-0.215546
-0.178719
-0.162177
-0.144700
-0.103503
-0.042645
-0.048886
-0.022982
-0.017676
-0.011746
-0.045451
-0.020795
-0.016426
-0.000196
-0.000820
-0.001443
-0.027034
-0.059491
-0.089763
-0.142194
-0.185886
-0.239565
-0.276391
-0.324140
-0.348171
-0.387182
-0.396544
-0.456152
-0.475814
-0.505149
-0.486111
-0.478621
-0.434303
-0.396852
-0.386864
-0.350037
-0.333184
-0.296669
-0.296980
-0.271700
-0.282935
-0.283871
-0.294169
-0.263896
-0.312893
-0.302594
-0.335675
-0.358145
-0.362513
-0.378742
-0.382174
-0.353461
-0.331926
-0.363447
-0.268883
-0.256399
-0.210209
-0.174630
-0.101600
-0.086307
-0.010157
0.066930
0.137775
0.239205
0.286331
0.384328
0.421156
0.511975
0.596239
0.693612
0.743235
0.836239
0.928618
0.968254
1.047213
1.143026
1.196082
1.227916
1.297512
1.355562
1.400815
1.443260
1.515041
1.528150
1.536577
1.530336
1.561545
1.530337
1.505994
1.506619
1.480404
1.448571
1.422668
1.435153
1.373983
1.360876
1.318432
1.290657
1.248525
1.242908
1.229177
1.218878
1.210453
1.195161
1.187671
1.190793
1.225747
1.225748
1.269129
1.287543
1.334981
1.349338
1.387413
1.406764
1.418624
1.426114
1.425803
1.429236
1.415817
1.405519
1.374934
1.339669
1.276939
1.227941
1.192052
1.133379
1.064096
1.002614
0.926153
0.841577
0.767924
0.685221
0.569436
0.485796
0.347853
0.236125
0.145619
0.035764
-0.070970
-0.130267
-0.242307
-0.373696
-0.410210
-0.491353
-0.536918
-0.583107
-0.602144
-0.649581
-0.652389
-0.652701
-0.665496
-0.658317
-0.687029
-0.667367
-0.709498
-0.694829
-0.688899
-0.702943
-0.745386
-0.780028
-0.806555
-0.900806
-0.929829
-0.975394
-1.017838
-1.091178
-1.144233
-1.202282
-1.254088
-1.308703
-1.360822
-1.419494
-1.494707
-1.536839
-1.565551
-1.586772
-1.616108
-1.603312
-1.629527
-1.648252
-1.634831
-1.599565
-1.593634
-1.540578
-1.500630
-1.473478
-1.422295
-1.347704
-1.268121
-1.208511
-1.119877
-1.059019
-0.951971
-0.856471
-0.727889
-0.635198
-0.542506
-0.447942
-0.359308
-0.278164
-0.200453
-0.098399
-0.026305
0.062953
0.133798
0.245527
0.308570
0.395956
0.450572
0.511743
0.551691
0.606307
0.666229
0.708050
0.787633
0.817594
0.881886
0.889376
0.983004
0.979572
1.025137
1.024202
1.001420
1.042928
1.039808
1.022331
0.998925
1.046364
0.958667
0.960540
0.927771
0.908110
0.893754
0.868163
0.843821
0.803562
0.789518
0.773290
0.763928
0.717427
0.704320
0.685283
0.637846
0.636286
0.646897
0.632230
0.639408
0.636288
0.652829
0.636289
0.665938
0.666875
0.679359
0.646590
0.665316
0.678737
0.647528
0.680298
0.685292
0.674370
0.630678
0.661887
0.632863
0.605400
0.560460
0.525194
0.446860
0.384130
0.335757
0.279269
0.198438
0.113550
0.035216
-0.055914
-0.098045
-0.178564
-0.237861
-0.339290
-0.403268
-0.478169
-0.557751
-0.628283
-0.671351
-0.745004
-0.823338
-0.866406
-0.911658
-0.970019
-1.011526
-1.068014
-1.127623
-1.175996
-1.199714
-1.232171
-1.257450
-1.237788
-1.308320
-1.313000
-1.336407
-1.360125
-1.373856
-1.326106
-1.372295
-1.368237
-1.350447
-1.373853
-1.341395
-1.343580
-1.291460
-1.314242
-1.256193
-1.251511
-1.193149
-1.140405
-1.094527
-1.019001
-0.992161
-0.903214
-0.851095
-0.773696
-0.744983
-0.671017
-0.617337
-0.560848
-0.458482
-0.357364
-0.282774
-0.234399
-0.099575
-0.029355
0.043051
0.144169
0.236236
0.260892
0.330176
0.399461
0.450332
0.494650
0.533350
0.573922
0.574859
0.613871
0.655379
0.688149
0.669424
0.692207
0.709997
0.703132
0.687216
0.721546
0.700637
0.669116
0.654761
0.659755
0.627298
0.624802
0.621681
0.578613
0.555831
0.521814
0.496535
0.459085
0.471569
0.381376
0.363899
0.319895
0.258726
0.184449
0.178832
0.070225
-0.028395
-0.079265
-0.204101
-0.288989
-0.429117
-0.520247
-0.685966
-0.770542
-0.925338
-1.033945
-1.145985
-1.254592
-1.356957
-1.486162
-1.548892
-1.646263
-1.715859
-1.840694
-1.882826
-1.981758
-2.080378
-2.131560
-2.177749
-2.276993
-2.371556
-2.383103
-2.465182
-2.517301
-2.516676
-2.523541
-2.579717
-2.580965
-2.568169
-2.549131
-2.549442
-2.512303
-2.500443
-2.501378
-2.496697
-2.443953
-2.405565
-2.428035
-2.380597
-2.381220
-2.357189
-2.354379
-2.259815
-2.250452
-2.208319
-2.158072
-2.099399
-2.053521
-1.985172
-1.905277
-1.868450
-1.783560
-1.723951
-1.635941
-1.598801
-1.492066
-1.468658
-1.371598
-1.307931
-1.229283
-1.183406
-1.068244
-1.027983
-0.990844
-0.876931
-0.830116
-0.722133
-0.659714
-0.537686
-0.496490
-0.365411
-0.288324
-0.165360
-0.086713
0.017526
0.103039
0.160777
0.295288
0.359892
0.465379
0.537160
0.657940
0.724103
0.795260
0.891385
0.987509
1.024649
1.076456
1.174453
1.209720
1.235936
1.301788
1.325819
1.280567
1.293675
1.296484
1.254041
1.204107
1.183197
1.114226
1.030586
0.944138
0.892955
0.828041
0.717562
0.627992
0.520946
0.440427
0.347425
0.299051
0.190132
0.128027
0.052814
-0.021151
-0.087002
-0.142553
-0.183436
-0.260210
-0.309520
-0.375058
-0.396592
-0.476798
-0.496460
-0.581036
-0.625976
-0.694947
-0.733958
-0.770472
-0.797623
-0.846309
-0.919962
-0.955227
-0.987372
-0.965213
-1.010154
-0.936500
-0.984561
-0.942116
-0.869711
-0.801362
-0.777643
-0.668099
-0.587891
-0.557930
-0.417488
-0.363808
-0.223679
-0.146592
-0.045786
0.029116
0.108387
0.172054
0.251950
0.305942
0.332470
0.365241
0.378349
0.350261
0.370860
0.355256
0.294399
0.272553
0.201085
0.173309
0.101841
0.058461
0.000101
-0.060444
-0.164057
-0.177165
-0.226162
-0.305433
-0.333520
-0.413415
-0.471463
-0.534193
-0.557287
-0.621265
-0.684306
-0.742667
-0.779493
-0.877489
-0.897774
-0.927422
-1.016679
-1.038525
-1.078472
-1.120604
-1.145570
-1.173034
-1.189262
-1.201745
-1.271653
-1.272900
-1.289753
-1.311911
-1.321585
-1.339686
-1.381193
-1.395861
-1.407095
-1.417394
-1.405534
-1.433621
-1.420513
-1.423321
-1.389927
-1.355284
-1.329692
-1.262592
-1.232943
-1.198613
-1.116220
-1.045687
-1.008860
-0.937703
-0.850941
-0.806312
-0.731722
-0.675233
-0.603763
-0.561631
-0.538848
-0.486104
-0.502332
-0.459575
-0.443346
-0.432422
-0.405582
-0.384359
-0.393721
-0.408389
-0.339104
-0.310079
-0.262329
-0.266385
-0.252029
-0.209896
-0.183992
-0.162457
-0.129063
-0.120636
-0.174627
-0.139360
-0.152467
-0.170880
-0.159644
-0.128435
-0.133427
-0.116886
-0.089422
-0.058212
-0.014519
0.031983
0.111879
0.179291
0.248576
0.297574
0.394011
0.443322
0.499811
0.543504
0.573777
0.559422
0.614350
0.635885
0.612479
0.622466
0.609359
0.585641
0.600934
0.612794
0.539765
0.503251
0.444579
0.419924
0.370926
0.331604
0.207392
0.120632
0.038865
-0.019184
-0.151510
-0.227971
-0.336266
-0.506667
-0.545677
-0.686430
-0.792852
-0.897714
-0.945775
-1.116800
-1.161116
-1.231336
-1.301556
-1.349305
-1.422022
-1.432632
-1.524074
-1.540614
-1.565893
-1.565892
-1.631431
-1.618947
-1.611768
-1.634862
-1.626435
-1.618944
-1.654522
-1.672311
-1.608020
-1.632050
-1.682608
-1.671372
-1.668563
-1.723490
-1.722865
-1.773423
-1.800575
-1.830535
-1.829598
-1.830534
-1.849259
-1.855500
-1.833653
-1.765617
-1.758126
-1.701637
-1.652326
-1.585226
-1.545278
-1.419505
-1.366137
-1.316514
-1.230689
-1.129883
-1.065904
-0.974461
-0.849624
-0.779403
-0.683903
-0.596829
-0.455764
-0.398026
-0.256337
-0.216701
-0.116207
-0.045674
0.015496
0.059813
0.143766
0.188084
0.159996
0.232714
0.221167
0.274535
0.260804
0.314484
0.287957
0.297008
0.314173
0.335396
0.350065
0.365358
0.419974
0.391575
0.424033
0.481770
0.530456
0.534202
0.610353
0.644995
0.666842
0.722395
0.775139
0.765464
0.738313
0.780758
0.772644
0.725831
0.754856
0.761099
0.690567
0.687134
0.664352
0.654054
0.597566
0.567294
0.522041
0.463681
0.420925
0.379730
0.355387
0.279238
0.274245
0.224623
0.197160
0.165951
0.203403
0.186550
0.164705
0.160024
0.180934
0.175629
0.156905
0.183121
0.144734
0.135372
0.096673
0.112278
0.087312
0.081695
0.045181
0.059537
0.033010
0.079824
0.085131
0.108226
0.126952
0.100113
0.166588
0.176576
0.206849
0.234938
0.316082
0.269269
0.352286
0.387240
0.427188
0.469633
0.478060
0.499907
0.500220
0.523939
0.534239
0.588855
0.558895
0.610391
0.602901
0.575438
0.605399
0.637545
0.608833
0.615387
0.625375
0.612580
0.598536
0.609148
0.631619
0.589487
0.585119
0.577317
0.589801
0.552351
0.578255
0.557970
0.506787
0.483381
0.487127
0.444995
0.394749
0.402240
0.357299
0.338887
0.294570
0.315169
0.290202
0.276783
0.254001
0.259307
0.260556
0.252130
0.287397
0.285837
0.294576
0.293952
0.309245
0.308934
0.328596
0.314553
0.298949
0.297077
0.312682
0.315491
0.332657
0.348262
0.385089
0.413490
0.422853
0.488393
0.532398
0.568601
0.606989
0.656924
0.689694
0.749303
0.820773
0.857912
0.928445
0.986182
1.013959
1.073881
1.135675
1.165949
1.218692
1.277678
1.263323
1.305767
1.384103
1.410943
1.467120
1.525793
1.567302
1.583531
1.641268
1.693076
1.711178
1.728031
1.725535
1.751751
1.727721
1.752065
1.749880
1.718048
1.681534
1.656567
1.611627
1.533917
1.506765
1.443100
1.380994
1.291113
1.230568
1.152546
1.092625
1.008673
0.966542
0.905684
0.827038
0.785531
0.743087
0.701267
0.651022
0.613571
0.544288
0.503092
0.454407
0.430376
0.376697
0.375762
0.345490
0.336127
0.331135
0.363592
0.404165
0.430069
0.501226
0.554906
0.632617
0.703462
0.830484
0.894775
0.988090
1.067362
1.155996
1.213733
1.293941
1.371340
1.408167
1.444995
1.454358
1.486504
1.472460
1.481824
1.472149
1.474959
1.427209
1.420968
1.411606
1.412231
1.428460
1.421907
1.428461
1.421284
1.470907
1.486200
1.510231
1.545810
1.566409
1.583574
1.620089
1.660349
1.667216
1.696865
1.723705
1.714031
1.764903
1.786437
1.764279
1.785190
1.822642
1.796426
1.802357
1.821083
1.796116
1.807040
1.739941
1.734636
1.680957
